,Unnamed: 0,STATE,DISTRICT,Storage name,Address,Manager Name,capacity,Longitude,Latitude
7,7,Andhra Pradesh,Anantapur,ANANTHAPUR,,M.C. Mahanadi,6700.0,,
8,8,Andhra Pradesh,Anantapur,"G. Subramanya Sastry , S/O Venkata Rama Sastry","D. No.. 7-4-37b, 7-4-37 C, Opp. Gram Panchayat , Uravakonda",,400.0,77.2577817,14.9441154
9,9,Andhra Pradesh,Anantapur,KMR Farmers Warehouse,"S.No.258/B, Vajrakarur V& M, Uravakonda Thaluka, Anantapur",,2694.44,77.6005911,14.6818877
10,10,Andhra Pradesh,Anantapur,M/S Bhagya Lahiri Godowns,"Sy. No.193/2-Kallur Village- Garladinne Mandal, Anantpur",,291.45,77.6005911,14.6818877
11,11,Andhra Pradesh,Anantapur,M/S Himashikar Cold Storage Pvt. Ltd.,Rahamathpur,,3930.0,77.4960078,13.8155465
12,12,Andhra Pradesh,Anantapur,M/S Kaveri Cold Storage Pvt. Ltd.,Rahamathpur,,4200.0,77.4960078,13.8155465
13,13,Andhra Pradesh,Anantapur,M/S Premier Cold Storage Pvt. Ltd.,Hindupur,,5500.0,77.5009298,13.8222599
14,14,Andhra Pradesh,Anantapur,M/S Sree Shirdi Sainaatha Warehouse,"Survey No.599-3, Village & Mandal : Beluguppa, District : Ananthapur",,4870.0,77.6307018,14.6757944
15,15,Andhra Pradesh,Anantapur,"M/S Sri Lakshmi Narasimha Rural Warehouse, Partnership Firm By Smt. Payyavula Obulamma And Smt. Payyavula Padma, Sy.No.38, Chinnamastur Village, Uravakonda Mandal, Anantapur Dist.","M/S Sri Lakshmi Narasimha Rural Warehouse, Partnership Firm By Smt. Payyavula Obulamma And Smt. Payyavula Padma, Sy.No.38, Chinnamastur Village, Uravakonda Mandal, Anantapur Dist.",,5572.0,77.6307018,14.6757944
16,16,Andhra Pradesh,Anantapur,M/S Sri Lakshminarasimha Rural Warehouse(Unit II),"Sy No 38, Chinnamastur Village, Uravakonda Mandal",,5000.0,77.2577817,14.9441154
17,17,Andhra Pradesh,Anantapur,Ms Tadipatri Cold Storage Pvt Ltd,,Shri B Sadasiva Reddy,8000.0,,
18,18,Andhra Pradesh,Anantapur,S.V.Farmers Godowns (Somula Rajagopal Reddy),"Sy.No.188 & 193, Guntakal Bellay Road, Konakondla Village, Guntakal Mandal",,9764.0,77.3769836,15.1660706
19,19,Andhra Pradesh,Anantapur,Siddartha Rural Farmers Warehouse II (Proprietorship : S. Chandrasekar Reddy),"Survey No.265/C And 265/D, Village : Puliprodduturu Mandal : Tadipathri, District Ananthapur",,4527.0,77.6307018,14.6757944
20,20,Andhra Pradesh,Anantapur,Smt K Lakshmi Devi Rural Godown,"Sy.No.RS 100 & 101, Bommanhal Village And Mandal, Ananthapur",,332.0,77.6005911,14.6818877
21,21,Andhra Pradesh,Anantapur,Sri S. Chandra Sekhar Reddy (M/S Siddartha Rural Farmers Warehouse ),"Survey No. 264/1, Puli Prodduturu Village, Tadipatri Mandal",,5000.0,78.0092047,14.9091024
22,22,Andhra Pradesh,Anantapur,Sri Tirumala Rural Godown ( E. Venkateswarulu ),"Survey No. 372/2A, Subbaraopeta, Nandikotkur",,860.0,78.2649533,15.8555909
23,23,Andhra Pradesh,Chittoor,A1madina Fruits,"4-142/5, TARAKA RAMATAKIS, BACK SIDE, MADANAPALLY,",Cc.Chanbasha,0.0,,
24,24,Andhra Pradesh,Chittoor,Akbaralibanana Cold Storage,BLOCK39 PUTTHUR,Akbarali,0.0,75.2070644,12.7686756
25,25,Andhra Pradesh,Chittoor,Ammulubanana Cold Storage,MARKET ROAD PUTTHUR,Raghuvaran,0.0,75.2486267,12.8402843
26,26,Andhra Pradesh,Chittoor,Balajibanana Cold Storage,BLOCK NO 28 MARKET PUTTHUR,Krishnakannaiah,0.0,75.2070644,12.7686756
27,27,Andhra Pradesh,Chittoor,Balajibanana Cold Storage,BLOCK NO 22 MARKET PUTTHUR,Venugopal,0.0,75.2070644,12.7686756
28,28,Andhra Pradesh,Chittoor,Bismilla Fruits,"KALLUR, BACK SIDE POLICE STATION, KALLUR",Nabisahab,6.0,79.0004517,13.5583316
29,29,Andhra Pradesh,Chittoor,Bl. Fruits,"SOMA, AH COM, OLD BUS STAND, PUNGANOOR,",D.Ramthulla,7.0,,
30,30,Andhra Pradesh,Chittoor,Capricon Food Products Pvt Ltd,CORICORN [At]CORPRICORN GROOP[Dot]COM,Y.RAVI SHANKAR,6.0,,
31,31,Andhra Pradesh,Chittoor,Chakraarthiba Chakravarthibanana Cold Storage,"BLOCK-3, MANGO MARKET, AGRICULTURE MARKET, TIRUPAT",Chakravarthi,0.0,79.4191795,13.6287557
32,32,Andhra Pradesh,Chittoor,Darmasai Fruits,BLOCK NO 18 MARKET PUTTHUR,R.Urali,0.0,75.2070644,12.7686756
33,33,Andhra Pradesh,Chittoor,G. Bhanuprakash,"Bhanuprakashnagar, Venkatapuram Village,Yarpedu Mandal",,9555.0,,
34,34,Andhra Pradesh,Chittoor,G. Jagadish,"Bhanuprakashnagar, Venkatapuram Village,Yarpedu Mandal",,9555.0,,
35,35,Andhra Pradesh,Chittoor,G. Lavanya,"Bhanuprakashnagar, Venkatapuram Village,Yarpedu Mandal",,9555.0,,
36,36,Andhra Pradesh,Chittoor,G. Saraswati,"Bhanuprakashnagar, Venkatapuram Village,Yarpedu Mandal",,9555.0,,
37,37,Andhra Pradesh,Chittoor,G.Venkatramana Reddy Fruits,PUNGANOOR OLD BUS STAND,B.Sudhakar,5.0,78.5712022,13.3664136
38,38,Andhra Pradesh,Chittoor,Ghousekhan Fruits,"KHADIRI ROAD, OPP GOVT HOSPITAL, MADANA PALLY,",Ghousekhan,0.0,,
39,39,Andhra Pradesh,Chittoor,Heritage Foods Limited,HFILSPM[At]GMAIL[Dot]COM,J.Reddeppa,25.0,,
40,40,Andhra Pradesh,Chittoor,Heritage Foods Limted,MANJUNATH[Dot]GC[At]HERITAGETETAIL[Dot]COM,Sri Dgm Manjunatha,1800.0,,
41,41,Andhra Pradesh,Chittoor,Jain Unit 1,GOLLPALLI,Gollapalli,17000.0,80.9093148,16.7269099
42,42,Andhra Pradesh,Chittoor,K N M Cold Storageshri,,Shri K Reddy Vara Prasad,6400.0,,
43,43,Andhra Pradesh,Chittoor,KSA AGRI Cold Storage PVT LTD.,PUNGANOOR,Iftekhr Ali Ahmed,9000.0,78.5713232,13.368608
44,44,Andhra Pradesh,Chittoor,Kaleem Fruitsand Cold Storage,MARKET KUPPAM,Naheem,0.0,78.342291,12.7461129
45,45,Andhra Pradesh,Chittoor,Knm Cold Storage,"KURABALA KOTA, POST ANGAL MANDANA PALLY,",Ansarali,0.0,,
46,46,Andhra Pradesh,Chittoor,M.Prakashandsons,"GUDI STREET, GANGAMMA LINE, TIRUPATHI,",M.Ramesh,0.0,,
47,47,Andhra Pradesh,Chittoor,M/S MKB Cold Storage,Agraharam( Dakala),,4000.0,,
48,48,Andhra Pradesh,Chittoor,M/S Murugan Cold Storage Pvt. Ltd.,Jangalapalli,,3200.0,80.1877404,16.237379
49,49,Andhra Pradesh,Chittoor,Madeena Food Agro S Products,"PK STREET, OLD BUS STAND",T.Munawar Ali,0.0,80.4146561,8.3406704
50,50,Andhra Pradesh,Chittoor,Madeena Fruits Company,MOHAMMEDAFROZ82[At]YAHOO[Dot]COM,Smd Afroz,0.0,,
51,51,Andhra Pradesh,Chittoor,Madina Fruits,"PILLERU ROAD, MAIN ROAD, KALLUR",Ps.Sayed Basha,10.0,79.0004517,13.5583316
52,52,Andhra Pradesh,Chittoor,Mkb Cold Storage Pvt Ltd,"PUNGANUR, ROYALPETA ROAD",M.Jagdish,4000.0,80.2640711,13.0539587
53,53,Andhra Pradesh,Chittoor,Murgan Cold Storage Pvt Ltd,RAMASAMUDRAM ROAD PUNGANUR,K.Vasu,4500.0,78.5713232,13.368608
54,54,Andhra Pradesh,Chittoor,Prabharaipling Mandi,"17-422/1, SUNDAR AYYAR STREET,",Prabhakareddy,35.0,,
55,55,Andhra Pradesh,Chittoor,Punganur Cold Storage Pvt Ltd,"RAMPALLI VILLAGE PALAMANER MANDAL, MAIN ROAD",P.Shaik Sajjad,4000.0,,
56,56,Andhra Pradesh,Chittoor,RENIGUNTA,,G. Siddaramaiah,20350.0,,
57,57,Andhra Pradesh,Chittoor,Rahaman Fruits,"NURSING HOME STREET, MADANA PALLY,",S.Imtiyaz Basha,20.0,,
58,58,Andhra Pradesh,Chittoor,Sab Cold Storage,GUDURPALLI VILLEGE PUNGANUR,S.Afzal,8000.0,78.5713232,13.368608
59,59,Andhra Pradesh,Chittoor,Sachinbanana Cold Storage,"BLOCK-8, PUTTHUR NEW BUS STAND ROAD",Sachin,0.0,75.2070644,12.7686756
60,60,Andhra Pradesh,Chittoor,Safa Company,"MAIN ROAD, ROAD BYPASS, KATTUR",S.Bavaji,0.0,80.2836996,13.3549962
61,61,Andhra Pradesh,Chittoor,Said Sairam Cold Storage Pvt Ltd,"2/250/B, AMMACHERU MITTA, KADIRI ROAD, MADANAPALLY",Co.Nagarajgupta,2500.0,78.5010007,13.5560496
62,62,Andhra Pradesh,Chittoor,Sharan Cold Storage,,Shri M Prashant Naik,5000.0,,
63,63,Andhra Pradesh,Chittoor,Sivaiah,"BLOCK NO-3, TARNAPALLY X ROAD, MANGO YARD, TIRUCHA",S.Sivaiah,36.0,,
64,64,Andhra Pradesh,Chittoor,Smr Fruits Merchents,"PROP S MASTAN, NEAR OLD BUS STAND, BESIDE TUNGA HO",S.Mastan,4.0,,
65,65,Andhra Pradesh,Chittoor,Sri Balaji Cold Storage,"5-1, KONDASAMUDRAM, PUNGANOOR, PALAMANER, PUNGANOO",J.Sunilkumar,5000.0,,
66,66,Andhra Pradesh,Chittoor,Sri Balaji Cold Storage,Kummaranatham,,3333.26,78.5916335,13.3453553
67,67,Andhra Pradesh,Chittoor,Sri Lakshminarasimha Banana Traders,"BLOCK-14, AGRICULTURE MARKET YARD, MANGO MARKET YA",Y.Shankaraiah,0.0,,
68,68,Andhra Pradesh,Chittoor,Sri Lakshmivinayaka Fruits Mundi A/C Chamber,"FLAT NO 17, MANGO MARKET, TIRUCHANOOR ROAD, TIRUPA",B.Purushothamreddy,30.0,79.4191795,13.6287557
69,69,Andhra Pradesh,Chittoor,Sri Srinivaasaagri Cold Storage India Pvt Ltd,"4-24/A, BALAGURAVAIAHGARIPALLY ROAD, PUNGANOOR,",Kp.Shobanbabu,500.0,,
70,70,Andhra Pradesh,Chittoor,Sri V Govindarajulu Unit - I,"Survey No.228/1, Peddakannali Village, Thottambedu Mandal, Chittoor District",,510.15,78.8382644,13.4787911
71,71,Andhra Pradesh,Chittoor,Sri V Govindarajulu Unit - II,"Survey No.228/1, Peddakannali Village, Thottambedu Mandal, Chittoor District",,229.48,78.8382644,13.4787911
72,72,Andhra Pradesh,Chittoor,Sri.Lakshmivenkateshwarabanana Traders,"SHOP NO 5, AMC MARKET YARD, MARKET YARD, TIRUPATHI",S.Jayakrishana,8615.0,79.4191795,13.6287557
73,73,Andhra Pradesh,Chittoor,Srikrishana Cold Storage Pvt Ltd,"28-122, MELUPATLA, POWER OPP PUNGANOR,",G.Krishnareddy,0.0,,
74,74,Andhra Pradesh,Chittoor,Srilaxmivenkateshwara Fruitsmarchents,"12-4-429, BANDA STREET, NANUGUKALLA MANDAPAM, TIRU",Y.Tirupalaiah,10.0,,
75,75,Andhra Pradesh,Chittoor,Srinifoodpark,MOGILI,Bhanu,300.0,78.8364948,13.1847107
76,76,Andhra Pradesh,Chittoor,Srinivasabaanaripling Mandi,"17-114, SUNDAR AYYAR STREET, OLD BUS STAND,",Shanukareddy,0.0,,
77,77,Andhra Pradesh,Chittoor,Srisaisadanbanana Mandi,"11-404, DTK ROAD, GURNADHA THIYAN",K.Pandiyan,7.0,,
78,78,Andhra Pradesh,Chittoor,Star Fruits,"MSR THIYATN, NARSING HOME STREET, MADANAPALLY,",Sr.Akbar Basha,6.0,,
79,79,Andhra Pradesh,Chittoor,Swethabanana Cold Storage,6-12-B MARKET KUPPAM,P.Ananth,0.0,78.342291,12.7461129
80,80,Andhra Pradesh,Chittoor,Venkateshwara Banana Mandi,"17-102, SUNDARAIAH STREET,",M.Munikrishna Reddy,0.0,,
81,81,Andhra Pradesh,East Godavari,AVK.Raju,Gollaprolu Village/Gollaprolu Mandal,,4769.62,82.2862828,17.1532881
82,82,Andhra Pradesh,East Godavari,B. V. S. Sekhar,"Ippanapadu, Mandapeta Mandal",,2324.0,81.881504,16.9327104
83,83,Andhra Pradesh,East Godavari,B.K.Agarwal,"Chollangi Village , Kakinada",,4769.62,82.2474648,16.9890648
84,84,Andhra Pradesh,East Godavari,Chalasani Syamala Devi,"R S No.207, ABD Road, Rajanagaram, East Godavari District",,4220.0,82.0407137,17.32125
85,85,Andhra Pradesh,East Godavari,Chinta China Pandu Ranga Reddy,"S.No.224, Village : Balabhadrapuram, Mandal : Biccavolu",,6572.0,82.0484013,16.9609832
86,86,Andhra Pradesh,East Godavari,Chinta Mangayamma,"S.No.224, Village : Balabhadrapuram, Mandal : Biccavolu",,6572.0,82.0484013,16.9609832
87,87,Andhra Pradesh,East Godavari,Chirla Bhupathy Reddy,"RS.No. 49/2, NH-214, Chollangi Panchayat, Tallarevu Mandal",,5296.0,,
88,88,Andhra Pradesh,East Godavari,Chunduru Ananta Laxmi,"S.No.90/2, Vedurumudi Village, Kapileswara Mandal, East Godavari",,2379.24,82.0407137,17.32125
89,89,Andhra Pradesh,East Godavari,DMR Rural Farmers Warehouse ( D. Madhusudan Rao & D. Kusuma Kanaklatha ),"Survey No. 148, Rythu Nagaram Village, Nandyal Mandal",,6500.0,78.487285,15.4776876
90,90,Andhra Pradesh,East Godavari,E Varalakshmi,"Pedakara Agraharam Village, Bandara Mandal , Machalipatnam",,4769.62,81.1302716,16.1808917
91,91,Andhra Pradesh,East Godavari,GSS Tulasi,"Rajavolu ,Rajahmundry",,4769.62,81.8040345,17.0005383
92,92,Andhra Pradesh,East Godavari,Gayatri Storage,"Tossipudi, Biccavolu, Biccavolu Mandal",,7013.0,76.6123884,16.4144834
93,93,Andhra Pradesh,East Godavari,Gunnam Soma Sirkar,"Ippanapadu, Mandapeta Mandal",,7148.0,81.881504,16.9327104
94,94,Andhra Pradesh,East Godavari,J.Mani,"Jaggammagari Peta,Samalkot",,4769.62,82.1679386,17.0500453
95,95,Andhra Pradesh,East Godavari,J.Naveen Kumar,"Jaggammagari Peta,Samalkot",,4769.62,82.1679386,17.0500453
96,96,Andhra Pradesh,East Godavari,J.Ramaswamy,"Jaggammagari Peta,Samalkot",,4769.62,82.1679386,17.0500453
97,97,Andhra Pradesh,East Godavari,J.Subba Rao,"Jaggammagari Peta,Samalkot",,4769.62,82.1679386,17.0500453
98,98,Andhra Pradesh,East Godavari,JNVVS Marthanda Rao,"Jaggammagari Peta,Samalkot",,4769.62,82.1679386,17.0500453
99,99,Andhra Pradesh,East Godavari,K Subbaraju,"Pedakara Agraharam Village, Bandara Mandal , Machalipatnam",,4769.62,81.1302716,16.1808917
100,100,Andhra Pradesh,East Godavari,K. Partha Saradhi,Rajanagaram Village And Mandal,,6244.0,81.9017706,17.0806322
101,101,Andhra Pradesh,East Godavari,KAKINADA,,J. Chandra Sekhar,42443.0,,
102,102,Andhra Pradesh,East Godavari,Kantamani Kasi Viswesvara Rao,"S.No.224/1, ABD Road, Rajanagaram Village",,8092.0,81.9017706,17.0806322
103,103,Andhra Pradesh,East Godavari,Kotapalli Madhavi,"S.No.224, Village : Balabhadrapuram, Mandal : Biccavolu",,6572.0,82.0484013,16.9609832
104,104,Andhra Pradesh,East Godavari,Kovuru Satyanarayana Reddy,"D. No. 1-3. Pandalapaka Village, Biccavolu Mandal",,2082.0,76.6123884,16.4144834
105,105,Andhra Pradesh,East Godavari,Kovvuri Gavara Reddy,"S.No.224, Village : Balabhadrapuram, Mandal : Biccavolu",,6572.0,82.0484013,16.9609832
106,106,Andhra Pradesh,East Godavari,Kovvuri Vijayalakshmi,"S.No.224, Village : Balabhadrapuram, Mandal : Biccavolu",,6572.0,82.0484013,16.9609832
107,107,Andhra Pradesh,East Godavari,Kumari Sri Raja,"Jaggammagari Peta,Samalkot",,4769.62,82.1679386,17.0500453
108,108,Andhra Pradesh,East Godavari,Lalitha Enterprises,"Survey No.227/1&2 , Pandalapaka GP, Biccavole Mandal",,3503.0,76.6123884,16.4144834
109,109,Andhra Pradesh,East Godavari,M. Ramachandra Reddy,"Chintapally, Pedapudi Mandal",,1200.0,,
110,110,Andhra Pradesh,East Godavari,M/S Anaparthy Sai Sridevi & 17 Partners,Mandapeta/East Godavari,,10000.0,81.9263789,16.8626906
111,111,Andhra Pradesh,East Godavari,M/S Karri Rajeswari Rural Godown,"RS. No. 92/S & 5, Ramavaram Village, Anaparthi Mandal, East Godavari",,9707.66,82.0407137,17.32125
112,112,Andhra Pradesh,East Godavari,M/S Saibhya Agro Storages,Dharmavaram,,3000.0,77.7201031,14.4124551
113,113,Andhra Pradesh,East Godavari,M/S Saibhya Cold Storage Pvt. Ltd,Dharmavaram,,2500.0,77.7201031,14.4124551
114,114,Andhra Pradesh,East Godavari,M/S Smt.Karri Prabalaxmi Rural Godown,"Sy.No.202/2,203/5, Pandalapaka Village, Biccavole Mandal, East Godavari Dt",,3812.0,82.0407137,17.32125
115,115,Andhra Pradesh,East Godavari,M/S Sri Satyasri Godowns,Duppalapudi/East Godavari,,3138.62,81.9521177,16.949785
116,116,Andhra Pradesh,East Godavari,M/S Sri Venkateswar Godowns ( D. Krishna Reddy ),"Dugguduru Village, Kajurulu Mandal",,569.0,82.1709318,16.7962072
117,117,Andhra Pradesh,East Godavari,M/S Srinivasa Paddy Storages,"Survey No.106/1, Ramavaram Village, Mandal Anaparthi District, East Godavari",,1837.0,82.0407137,17.32125
118,118,Andhra Pradesh,East Godavari,M/S Srinivasa Rice Traders,"Ramavaram(V), Jaggampeta(M), East Godavari",,4551.0,82.0407137,17.32125
119,119,Andhra Pradesh,East Godavari,Maddireddy Lakshmana Swamy,"Narsipudi, Alamuru Mandal, East Godavari",,104.61,82.0407137,17.32125
120,120,Andhra Pradesh,East Godavari,Merla Agasthiah,"Velangi Village, Karapa Mandal",,184.64,,
121,121,Andhra Pradesh,East Godavari,Murali Krishna Storage,"S.No.78/4, Pedapalla Village, Alamuru Mandal",,3710.47,,
122,122,Andhra Pradesh,East Godavari,N V V Krishna Rao,"Rajavolu ,Rajahmundry",,4769.62,81.8040345,17.0005383
123,123,Andhra Pradesh,East Godavari,NRRC Surya Kumari,"Jaggammagari Peta,Samalkot",,4769.62,82.1679386,17.0500453
124,124,Andhra Pradesh,East Godavari,Naga Raju,"Duppalapudi Village, Anaparthi Mandal",,4769.62,,
125,125,Andhra Pradesh,East Godavari,Nageswar Rao,"Duppalapudi Village, Anaparthi Mandal",,4769.62,,
126,126,Andhra Pradesh,East Godavari,Nallamili Satyanarayana Reddy,Nadakuduru Village,,3395.0,82.2060268,16.9164131
127,127,Andhra Pradesh,East Godavari,P Sarveshwara Rao,"Pedakara Agraharam Village, Bandara Mandal , Machalipatnam",,4769.62,81.1302716,16.1808917
128,128,Andhra Pradesh,East Godavari,P Satyanarayana & P S Kumar,"Rajavolu, Rajahmundry",,4769.62,81.8040345,17.0005383
129,129,Andhra Pradesh,East Godavari,P. Satyanarayana Reddy,"RS.No. 51/1/2, 51/1/3, NH-214, Chollangi Panchayat, Tallarevu Mandal",,7030.0,,
130,130,Andhra Pradesh,East Godavari,P.Janaki Ram,"Rajavolu ,Rajahmundry",,4769.62,81.8040345,17.0005383
131,131,Andhra Pradesh,East Godavari,P.Satyanarayana,"Rajavolu ,Rajahmundry",,4769.62,81.8040345,17.0005383
132,132,Andhra Pradesh,East Godavari,P.V.G.Gandhi Mohan,"Chollangi Village , Kakinada",,4769.62,82.2474648,16.9890648
133,133,Andhra Pradesh,East Godavari,PSVVB Prasad & P. Satyanarayana,"S.No.253/6,7,8,9,10,11, Village & Mandal : Kapileshwarapuram,",,6502.0,,
134,134,Andhra Pradesh,East Godavari,R.Satyanandam,"Chollangi Village , Kakinada",,4769.62,82.2474648,16.9890648
135,135,Andhra Pradesh,East Godavari,RAJAHMUNDRY,,M.A.AIi Khan,44000.0,,
136,136,Andhra Pradesh,East Godavari,S. Satyanarayana Raju,"Mattaparu, Palkol Mandal",,2718.0,81.7258373,16.5179056
137,137,Andhra Pradesh,East Godavari,S.K.Sharma,"Chollangi Village , Kakinada",,4769.62,82.2474648,16.9890648
138,138,Andhra Pradesh,East Godavari,S.Shakuntala Sharma,"Chollangi Village , Kakinada",,4769.62,82.2474648,16.9890648
139,139,Andhra Pradesh,East Godavari,SS Varma,Gollaprolu Village/Gollaprolu Mandal,,4769.62,82.2862828,17.1532881
140,140,Andhra Pradesh,East Godavari,Sathi Aparanji,"S. No.57/6,7,8,10B,11& 140/11B,12B,13,14 Z.Medapadu & Kesavaram Villages, Mandapeta Mandal, East Godavari",,11186.0,82.0407137,17.32125
141,141,Andhra Pradesh,East Godavari,Sathi Ramachandra Reddy,"S.No.224, Village : Balabhadrapuram, Mandal : Biccavolu",,6572.0,82.0484013,16.9609832
142,142,Andhra Pradesh,East Godavari,"Satti Adilakshmi, W/O Satti Ramakrishna Reddy","RS.No. 49/2, NH-214, Chollangi Panchayat, Tallarevu Mandal",,5296.0,,
143,143,Andhra Pradesh,East Godavari,Satty Krishna Reddy,"4/268, Main Road, Penuguduru, Karapa Mandal",,5138.0,,
144,144,Andhra Pradesh,East Godavari,Shri M. Krishna Murthy,"Kurmapuram, Rayavaram Mandal",,232.0,,
145,145,Andhra Pradesh,East Godavari,Shri Mattey Satya Prasad,"Surampalem, Gandepalli Mandal, Rajahmundry Road, Peddapuram, East Godavari District",,6160.0,82.0407137,17.32125
146,146,Andhra Pradesh,East Godavari,Shri Mattey Srinivas,"Surampalem, Gandepalli Mandal, Rajahmundry Road, Peddapuram, East Godavari District",,6042.0,82.0407137,17.32125
147,147,Andhra Pradesh,East Godavari,Shri Tetala Naveen,"Beside Door No. 4-135a, Tossipudi, Bkkavolu Mandal",,7500.0,76.6123884,16.4144834
148,148,Andhra Pradesh,East Godavari,Shri Venkateswara Godowns,"R S No. 73/1, Korumilli Village, Kapileswarapuram Mandal, East Godavari",,421.47,82.0407137,17.32125
149,149,Andhra Pradesh,East Godavari,Shri. PeddyReddy Satish,"Survey No. 305, New RS No. 13/2,Kovvuru Road, Kakinada Rural, Dist-East Godavari",,3410.0,82.0407137,17.32125
150,150,Andhra Pradesh,East Godavari,Shri. Putchakayala Tata Raju,"Block No.6, Near Maramma Temple, Venturu Village, Rayavaram Mandal, East Godavari - 533261",,425.0,81.9916586,16.8561481
151,151,Andhra Pradesh,East Godavari,Sir Aurthur Cotton Food Storage,"Biccavolu, Biccavolu Mandal",,4323.0,76.6123884,16.4144834
152,152,Andhra Pradesh,East Godavari,Smt D.Kusumalatha,"Rs 150/3, 150/4, KNF Road, Nadakuduru, Karapa Mandal",,3358.0,,
153,153,Andhra Pradesh,East Godavari,Smt Kovvuri Kusuma,"Rs 150/3, 150/4, KNF Road, Nadakuduru, Karapa Mandal",,4345.0,,
154,154,Andhra Pradesh,East Godavari,Smt Sathi Manikyam,"S. No.57/1,2,3,6,140/1B,2B, 4B,5B,6B, 7B,140/3,143/8Z.Medapadu & Kesavaram Villages, Mandapeta Mandal, East Godavari",,10843.0,82.0407137,17.32125
155,155,Andhra Pradesh,East Godavari,Smt Sathi Satyaveni,"S. No.57/3,6,7, 140/7B,8B, 9B,11B,12B, Z.Medapadu & Kesavaram Villages, Mandapeta Mandal, East Godavari",,11336.0,82.0407137,17.32125
156,156,Andhra Pradesh,East Godavari,Smt. Akkina Lalitha Chengalva,"S.No.93/1A, Village: Hukumpeta",,9961.0,82.6937697,18.1520865
157,157,Andhra Pradesh,East Godavari,Smt. Cherukuri Srilaxmi,"S.No.93/1A,93/2, 93/3 Village: Hukumpeta",,16304.0,,
158,158,Andhra Pradesh,East Godavari,"Smt. Karedla Santha Kumri, Machara Village, East Godavari District","M/S Karedla Santha Kumari Rural Godowns R S No.475/2, Machara Village, Machara Village, Kapileswarapuram Mandal, East Godavari District",,1751.22,82.0407137,17.32125
159,159,Andhra Pradesh,East Godavari,"Smt. Nallamili Manga Devi, W/O N.P. Satyanarayana Reddy","RS No. 907/4, Door No. 1-5, Pedapudi , Pedapudi Mandal, East Godavari District",,333.0,82.0407137,17.32125
160,160,Andhra Pradesh,East Godavari,Smt. Sathi Bhskara Santha,"Survey No. 28/1, 29/2, Village: Polamuru, Mandal: Anaparthi, Dist: East Godavari",,2387.0,82.0407137,17.32125
161,161,Andhra Pradesh,East Godavari,Smt. Satti Vijaya Kanakadurga Mahalakshmi,"Survey No.66/2 & 60/1, Chollangi(V), Tallarevu(M), East Godavari",,4883.0,82.0407137,17.32125
162,162,Andhra Pradesh,East Godavari,Smt.Cherukuri Subbalaxmi,"S.No.93/2,93/3 Village: Hukumpeta",,10991.0,,
163,163,Andhra Pradesh,East Godavari,Smt.Reddy Adilaxmi,"S.No.538/6, Yeditha Village, Alamuru Mandal, East Godavari District",,1756.0,82.0407137,17.32125
164,164,Andhra Pradesh,East Godavari,"Sri Bhaskara Laxmi Storages,","Pedapalla, Alamuru Mandal",,2419.0,,
165,165,Andhra Pradesh,East Godavari,Sri D.Vipul Avinash Reddy,"Rs 150/3, 150/4, KNF Road, Nadakuduru, Karapa Mandal",,2487.0,,
166,166,Andhra Pradesh,East Godavari,Sri Godavarthy Venkata Ramana Murthy S/O Satyanarayana Murthy,"M/S Sri Godavarthy Venkata Ramana Murthy Godowns, R S No.150/8,9,10, Penikeru, Alamuru Mandalam, East Godavari District",,251.0,82.0407137,17.32125
167,167,Andhra Pradesh,East Godavari,Sri P.Ramakrishna Chowdary,"S.No.124/2, Maredubaka Village, Mandapeta Mandal",,4488.0,81.881504,16.9327104
168,168,Andhra Pradesh,East Godavari,Sri Veera Venkata Satyanarayana Storage Complex,"S.No.29/2, Polamuru Village, Anaparthy Mandal",,7001.0,,
169,169,Andhra Pradesh,East Godavari,Sri Veeravenkata Satyanarayana Storage Complex,"R.S. Peta, Biccavolu, Biccavolu Mandal",,9026.0,76.6123884,16.4144834
170,170,Andhra Pradesh,East Godavari,Sri Venkateswara Agros (Managing Partner: Tetala China Krishna Reddy),"Komaripalem, Biccavolu Mandal,",,3288.0,,
171,171,Andhra Pradesh,East Godavari,T V.Swamy,"Rajavolu, Rajahmundry",,4769.62,81.8040345,17.0005383
172,172,Andhra Pradesh,East Godavari,T.Sunitha,"Jaggammagari Peta,Samalkot",,4769.62,82.1679386,17.0500453
173,173,Andhra Pradesh,East Godavari,TS Anantha Lakshmi,"Jaggammagari Peta,Samalkot",,4769.62,82.1679386,17.0500453
174,174,Andhra Pradesh,East Godavari,Thota Sudha,"Jaggammagari Peta,Samalkot",,4769.62,82.1679386,17.0500453
175,175,Andhra Pradesh,East Godavari,V J V Shyamalamba,"Pedakara Agraharam Village, Bandara Mandal , Machalipatnam",,4769.62,81.1302716,16.1808917
176,176,Andhra Pradesh,East Godavari,V Murali Krishna,"Pedakara Agraharam Village, Bandara Mandal , Machalipatnam",,4769.62,81.1302716,16.1808917
177,177,Andhra Pradesh,East Godavari,V N Jayarekha,"Pedakara Agraharam Village, Bandara Mandal , Machalipatnam",,4769.62,81.1302716,16.1808917
178,178,Andhra Pradesh,East Godavari,V N V Varalakshmi,"Pedakara Agraharam Village, Bandara Mandal , Machalipatnam",,4769.62,81.1302716,16.1808917
179,179,Andhra Pradesh,East Godavari,V. Drowpati,"Narsipudi Village, Alamuru Mandal",,143.86,,
180,180,Andhra Pradesh,East Godavari,V. N. Lalithananda,"Pedakara Agraharam Village, Bandara Mandal , Machalipatnam",,4769.62,81.1302716,16.1808917
181,181,Andhra Pradesh,East Godavari,V.K.Agarwal,"Chollangi Village , Kakinada",,4769.62,82.2474648,16.9890648
182,182,Andhra Pradesh,East Godavari,Valluri Satyanarayana,"Yanamdala Village, Ramachandrapuram Mandal",,1800.0,79.4028639,13.5262282
183,183,Andhra Pradesh,Guntur,A. Rahman Khan,"Kantheru Village, Tadikonda Mandal",,12877.0,76.840383,16.7553661
184,184,Andhra Pradesh,Guntur,A.Subrahmanyam Raju,"Karlapalem Vilage, Bapatla",,4769.62,80.4671375,15.9039445
185,185,Andhra Pradesh,Guntur,Achyutharama Rural Godown ( D. Achyutaramaiah ),"Narasayapalem Village, Baptala Mandal",,126.0,80.4681844,15.9040102
186,186,Andhra Pradesh,Guntur,Alapati Lakshmi Suseela And Alapati Poornachandra Rao,"Nagrjupalem Sivaru, Tumuluri Village , Kollipara Mandal, Guntur District",,190.957,80.0087746,16.3905692
187,187,Andhra Pradesh,Guntur,"Alla Veema Reddy, S/O Kutumba Reddy & Alla Uma Maheswar Reddy, S/O Veema Reddy","Door No. 7/99, Kollipara GP, Kollipara Road, 7th Ward , Kollipara Mandal, Guntur",,200.0,80.4365402,16.3066525
188,188,Andhra Pradesh,Guntur,Aluri Rajendra Prasad,"Kavulu, Cherukupalli Mandal",,150.0,76.5892774,16.4821896
189,189,Andhra Pradesh,Guntur,Amaralingeswara Cold Storage Pvt Ltd,MACHARLAROAD NADIKUDI VILAGE DACHEPALLY MANDAL,Vankayala1 Satyanarayana,6000.0,79.7068596,16.5879495
190,190,Andhra Pradesh,Guntur,Amaravathi Cold Storage,"578/3, LAAPURAM, NEAR MIRCH YARD ANKI REDDY PALEM",Srinivadarao,6636.0,80.4107139,16.2864231
191,191,Andhra Pradesh,Guntur,Amcyard,AMC YARD,Venkatharathnam,0.0,,
192,192,Andhra Pradesh,Guntur,Amulya Cold Storage m,DNO9-82 NH-5 LALPURAM BY PASS ROAD,Venkateswrao,4099.0,80.2219261,13.1425492
193,193,Andhra Pradesh,Guntur,"Andhra Pradesh State Ware Housing Corporation, Hyderabad","Survey No.322/1, 2, Tadepally, Guntur District",,1443.84,80.0087746,16.3905692
194,194,Andhra Pradesh,Guntur,Ankamma Rural Godown ( Prathipati Ankamma Chowdary ),"Narasayapalem Village, Baptala Mandal",,123.0,80.4681844,15.9040102
195,195,Andhra Pradesh,Guntur,Ashok Rural Godown ( Devarapalli Ashok Babu ),"Narasayapalem Village, Baptala Mandal",,126.0,80.4681844,15.9040102
196,196,Andhra Pradesh,Guntur,"Avuthu Ramachandra Reddy, S/O Venkata Subba Reddy","Nagarjunapalem, Sivaru, Tumulru Village, And Kollipara Mandal, Guntur District",,111.0,80.0087746,16.3905692
197,197,Andhra Pradesh,Guntur,Avuthu Swarajyalakshmi,"S.No.443/B-5, Door No.7-140/B, Thumuluru Village, Kollipara Mandal, Guntur",,108.74,80.4365402,16.3066525
198,198,Andhra Pradesh,Guntur,"Avuthu Vijaya Lakshmi ,W/O Srinivasa Reddy & Avuthu Srinivasa Reddy S/O Satish Reddy","R&B Road From Kollipara To Gudibandivaripalem Road, 2nd Ward, Kollipara Village And Mandal",,600.0,80.749466,16.2872181
199,199,Andhra Pradesh,Guntur,B Savita,Nadikudi,,4769.62,79.7068596,16.5879495
200,200,Andhra Pradesh,Guntur,B Sita Devi,Nadikudi,,4769.62,79.7068596,16.5879495
201,201,Andhra Pradesh,Guntur,B Srinivas Raju,Nadikudi,,4769.62,79.7068596,16.5879495
202,202,Andhra Pradesh,Guntur,B. Cidambaram Babu,"Kondrupadu Village, Parthipadu Mandal",,9539.0,82.1917781,17.2294723
203,203,Andhra Pradesh,Guntur,B. Koti Reddy,"Penumuli, Dugirala Mandal",,419.0,77.070837,16.6775836
204,204,Andhra Pradesh,Guntur,B. Koti Reddy,"Nambur, Pitakakami Mandal",,387.0,,
205,205,Andhra Pradesh,Guntur,"Bandarupalli Lakshmi Parvathi, W/O Sambasiva Rao","Door No.102/10, Doppalapudi Village & Post, Ponnur Mandal, Guntur",,338.18,80.4365402,16.3066525
206,206,Andhra Pradesh,Guntur,Bapatla,Bapatla Market Yard,,1000.0,80.4936204,15.9164161
207,207,Andhra Pradesh,Guntur,Bhagwaty Cold Storages,"169/AG T ROAD, ANKIREDDYPALEM",G Radhica,0.0,80.3923079,16.2876751
208,208,Andhra Pradesh,Guntur,Bhubaneswari Agri Processing And Marketting,Thatapudi,,7481.0,81.9002728,16.7632792
209,209,Andhra Pradesh,Guntur,Boina Venkateswarlu,"Jammulapalem Village, Baptla Mandal",,250.0,80.4681844,15.9040102
210,210,Andhra Pradesh,Guntur,Bommidala Cold Storage,NH-5,Ramnamurthy,0.0,77.1031998,31.0306204
211,211,Andhra Pradesh,Guntur,Bonthu Chandrasekhara Reddy,Kollipara Village & Mandal,,172.0,80.749466,16.2872181
212,212,Andhra Pradesh,Guntur,Boppudi Cold Storage Pvt Ltd,NH 5 BOPPUDI VILAGE CHILAKALURIPET MANDAL,Kumar,3200.0,80.1656205,16.0948008
213,213,Andhra Pradesh,Guntur,Brahmari Cold Storage,ANKIREDDYPALLI,Nagaraju,7943.0,79.0072883,15.3960875
214,214,Andhra Pradesh,Guntur,C R Cold Storage Pvt Ltd,,Shri K Ramesh Krishna Chandra,9875.0,,
215,215,Andhra Pradesh,Guntur,C.R Cold Storage,"NH 5 YODLA PUDU( VI,M)",Ravichandra,0.0,,
216,216,Andhra Pradesh,Guntur,CHILKALURIPET,,C.C.J.Mathew,24370.0,,
217,217,Andhra Pradesh,Guntur,Ch. Venkata Lakshmamma,"R S No.346/1, 346/2, 346/3, 345/1, 345/2 At Govada Gram Panchayat, Cherukupalli Mandal Guntur",,718.59,80.6805413,16.0493704
218,218,Andhra Pradesh,Guntur,Chandramukhi Cold Storage,ANKIREDDY PALEM NH-5,Chandramouli,0.0,83.9275643,18.3159269
219,219,Andhra Pradesh,Guntur,Chandu Vani & Chandu Koteshwara Rao,"Panchayati Road, Burripalem Village, Tenali Mandal",,264.917,80.6495483,16.2381344
220,220,Andhra Pradesh,Guntur,Chilakaluripet,"New Market Yard, Chilakaluripet",,2000.0,80.1656205,16.0948008
221,221,Andhra Pradesh,Guntur,Chilakaluripet Cold Storage Pvt Ltd,NH5 TATA PUDI VILAGE CHPETA MANDAL,Ramarao,8000.0,80.1655471,16.0944603
222,222,Andhra Pradesh,Guntur,Chilakaluripet Cold Storage Pvt. Ltd,Murkipudi,,6921.0,80.1037721,16.0403202
223,223,Andhra Pradesh,Guntur,DUGGIRALA,,B.Vijaya Singh,10100.0,,
224,224,Andhra Pradesh,Guntur,Dasu,ANKIREDDY PALEM NH-5BY PASS ROAD,Syam,8086.0,-71.5723953,43.1938516
225,225,Andhra Pradesh,Guntur,Davuluri Rama Rao,Komerapudi/Guntur,,179.22,80.2113385,16.3530387
226,226,Andhra Pradesh,Guntur,Desu Mohan Samudriah,"Ipuru, Kollur Mandal",,370.0,,
227,227,Andhra Pradesh,Guntur,"Devarapalli Anil Babu, S/O Satyadasu","Narsayapalem Village, Bapatla Mandal",,140.0,80.4681844,15.9040102
228,228,Andhra Pradesh,Guntur,Dhanalakshmi Cold Storage,NEAR MIRCH YARD,Ramulu,1675.0,,
229,229,Andhra Pradesh,Guntur,Dhanalakshmi Cold Storage,"OPP.MIRCHI YARD,LALPURAM, LINK ROAD",KRKSastri,5060.0,,
230,230,Andhra Pradesh,Guntur,Dhanekula Cold Storage,BY PASS JUNCTION,Sridhar,0.0,75.8043655,11.2367864
231,231,Andhra Pradesh,Guntur,Dhanyalaxmi Cold Storage Pvt Ltd,GURAJALA VILAGE MANDAL,V.Suresh,5000.0,79.6371314,16.5580212
232,232,Andhra Pradesh,Guntur,Driveway Cold Storage,LALPURAM NH-5 PROGRAM BY PAS,A Subbarao,4510.0,80.4494344,16.2868497
233,233,Andhra Pradesh,Guntur,E. Kanaka Reddy S/O Venkata Reddy,"D.No.1-36, Ward No.1, Survey No.123 A3, Tsunduru Gram Panchayat & Mandal, Guntur District",,139.0,80.0087746,16.3905692
234,234,Andhra Pradesh,Guntur,Frozen Industries,AUTO NAGAR,Prasad,0.0,78.5831181,17.3578951
235,235,Andhra Pradesh,Guntur,G. Murali Krishna Reddy,Tsunduru Post And Mandal,,428.0,80.5833296,16.1588948
236,236,Andhra Pradesh,Guntur,"G. Seetharamaiah , S/O Satyanarayana","Door No. 4-118, Gayatri Nagar , Kollur Post , Kollur Mandal",,285.0,,
237,237,Andhra Pradesh,Guntur,G.S.R. Cold Storage Pvt Ltd,CHPETA ROAD LAALAPURAM PANVHAITI,Sriharirao,10000.0,82.0031455,16.5774798
238,238,Andhra Pradesh,Guntur,G.V.A.Narasimha Raju,"Karlapalem Vilage, Bapatla",,4769.62,80.4671375,15.9039445
239,239,Andhra Pradesh,Guntur,G.V.R Cold Storage,"NEW AMC YARD, DUGGIRALA",Surendrareddy,0.0,80.6271912,16.3273225
240,240,Andhra Pradesh,Guntur,G.Vijaya Kumar Varma,"Karlapalem Vilage, Bapatla",,4769.62,80.4671375,15.9039445
241,241,Andhra Pradesh,Guntur,GSR Cold Storage,Ankireddy Palam,,4098.83,,
242,242,Andhra Pradesh,Guntur,GUNTUR,,M. Usha Rani,27920.0,,
243,243,Andhra Pradesh,Guntur,Gaddipati Lakshminarayana,Munipalle/Guntur,,119.0,80.5407645,16.1270527
244,244,Andhra Pradesh,Guntur,Gajula Venkateswarlu,"D.No.507-1, 3&576-3, Arumbaka Sivaru, Cherukapalle Mandal, Guntur Dist.",,318.0,80.0087746,16.3905692
245,245,Andhra Pradesh,Guntur,Ganapthi Cold Storage,MIRCHI YARD,Dhapul,3000.0,,
246,246,Andhra Pradesh,Guntur,"Gara Srinivasa Rao,S/O Bangaraiah","Survey No.62/1, Ward No.5, Vaddimukkala Village, Post Ponnur Mandal, Guntur 522 124",,157.0,80.4365402,16.3066525
247,247,Andhra Pradesh,Guntur,Giridhar Cold Storage,NEAR MIRCHI YARD,T Snehalatha,3000.0,,
248,248,Andhra Pradesh,Guntur,Govada Venkatappaiah,"R.S. No. 161/1, Mulukuduru Village And Post, Ponnur Mandal",,291.0,,
249,249,Andhra Pradesh,Guntur,"Gudibandi Sambi Reddy, S/O Subba Reddy","Gudibandivaripalem Of Kollipara Village, Kollipara Mandal",,140.0,77.3410569,16.850763
250,250,Andhra Pradesh,Guntur,"Gudibandi Subba Reddy, W/O Nagi Reddy","Gudibandivaripalem To Kollipara , Kollipara Road, 1st Ward, Gudibandivaripalem Hamlet, Kollipara Village And Mandal, Guntur",,200.0,80.4365402,16.3066525
251,251,Andhra Pradesh,Guntur,Guntur Cold Storage,"SUBBAREDDY NAGAR ANKIREDDY PALEM, NEAR CHECK POST",Suvaprasad,3250.0,,
252,252,Andhra Pradesh,Guntur,Guntur Cold Storage,"SUBBAREDDY NAGAR,ANKIREDDY PALEM",Ramesh,2833.0,80.3923079,16.2876751
253,253,Andhra Pradesh,Guntur,Hari Prasad Rural Godown ( Yaralagadda Harivara Prasad Rao ),"Narasayapalem Village, Baptala Mandal",,126.0,80.4681844,15.9040102
254,254,Andhra Pradesh,Guntur,Himagiri Cold Storage,NALLAPADU ROAD,Srimanrayanaa,3500.0,80.3939109,16.3063385
255,255,Andhra Pradesh,Guntur,Icv City Cold Storage,VINUKONDAM,Srikanth,0.0,79.7405355,16.0498456
256,256,Andhra Pradesh,Guntur,Inkollu Vara Prasada Rao,"D.No.209/4, Village & Mandal : Nagaram",,471.0,,
257,257,Andhra Pradesh,Guntur,Inkollu Venkateswara Rao,"D.No.209/4, Village & Mandal : Nagaram",,420.0,,
258,258,Andhra Pradesh,Guntur,Ipur,Ippur And Vellatur,,3000.0,78.6654033,14.4507713
259,259,Andhra Pradesh,Guntur,Issac Rural Godown ( Dasi Issac ),"Narasayapalem Village, Baptala Mandal",,184.0,80.4681844,15.9040102
260,260,Andhra Pradesh,Guntur,J Balagandhi Raju,Nadikudi,,4769.62,79.7068596,16.5879495
261,261,Andhra Pradesh,Guntur,J Padmavati,Nadikudi,,4769.62,79.7068596,16.5879495
262,262,Andhra Pradesh,Guntur,Jagadamba Cold Storage,ANKIREDDY PALEM NH-5,T Naresh,0.0,83.9275643,18.3159269
263,263,Andhra Pradesh,Guntur,Jai Balaji Cold Storage,Kubadpuram,,7181.0,79.9626354,16.4683884
264,264,Andhra Pradesh,Guntur,Jaibalaji Cold Storage Pvt Ltd,GUNTUR ROAD KOTANEMALIPURI VILAGE RAJUPALEM MANDAL,K.Rameshbabu,4000.0,79.9296871,16.4532676
265,265,Andhra Pradesh,Guntur,Jampani Bala Tripura Sundari Devi & Jampani Ram Mohan Rao,"R.S.No. 58-8, Mulukuduru Village, Ponnur Mandalam, Guntur District",,184.285,80.0087746,16.3905692
266,266,Andhra Pradesh,Guntur,Janataseva Cold Storage,"LALPURAM, ANKI REDDY PALLM, NH-5",Ramirrddy,0.0,77.1031998,31.0306204
267,267,Andhra Pradesh,Guntur,Jayalakshmi Cold Storages,"AGRICULTURAL MARKET YARD PREMISES, NALLAPADU ROAD",P Srinivas,2744.0,80.3939109,16.3063385
268,268,Andhra Pradesh,Guntur,Jeevanasri Cold Storage Pvt Ltd,JONNALAGADDA GRAMAMNARASA RAO PETA,Nagaraju,0.0,80.4576835,16.3736337
269,269,Andhra Pradesh,Guntur,"Jonnala Usha Jyothi , W/O Brahmananda Reddy","R&B Road From Kollipara To Gudibandivaripalem Road, 2nd Ward, Kollipara Village And Mandal",,200.0,80.749466,16.2872181
270,270,Andhra Pradesh,Guntur,JyothiswaroopaColddivison Pvt Ltd,NH5DNO9-134 ANKI REDDY PALEM,Venkatreddy,6300.0,80.2091128,15.9060837
271,271,Andhra Pradesh,Guntur,K. Somaiah,"Kondrupadu Village, Parthipadu Mandal",,9539.0,82.1917781,17.2294723
272,272,Andhra Pradesh,Guntur,K.S.R. Cold Storages Pvt Ltd,AMBAPURAM VILAGE DACHEPALLY MANDAL,Ch.Mastannaidu,5400.0,,
273,273,Andhra Pradesh,Guntur,K.Venkateswara Sarma & K.Lakshmi Prasannam,"Ananthavaram Village, Kolluru Mandal",,296.87,74.8104053,13.8631865
274,274,Andhra Pradesh,Guntur,Kalpana Rural Godown ( Jetti Kalpana Devi ),"Narasayapalem Village, Baptala Mandal",,124.0,80.4681844,15.9040102
275,275,Andhra Pradesh,Guntur,Kamadhenu Cold Storage,"DNO21864 DUDIPEERPANJA ST, CHOWTRA",Sivareddy,3824.0,,
276,276,Andhra Pradesh,Guntur,Kanipaka Vigneswara Cold Storage,Boppudi,,4859.4,80.1372757,16.0651147
277,277,Andhra Pradesh,Guntur,Kanipakavigneswara Cold Storage,NH-5 BOPUDI CHILAKALURIPET,Haribabu,6000.0,80.1655471,16.0944603
278,278,Andhra Pradesh,Guntur,Karampudi Cold Storage,Petasannegandla,,5513.0,79.7568107,16.4191158
279,279,Andhra Pradesh,Guntur,Karempudi Cold Storage Pvt Ltd,"JULLAKOL ROAD, PETASANNI GANDLAKARAMPUDI",Mallikarjunrao,4800.0,79.7568107,16.4191158
280,280,Andhra Pradesh,Guntur,Kaveri,GT ROAD,Arun,2000.0,74.2390965,31.8847743
281,281,Andhra Pradesh,Guntur,Kaveri Cold Storage,"MILK DAIRY ROAD , RAHAMATH NAGAR, HINDUPUR, , ANAN",Kiran Rao,420.0,,
282,282,Andhra Pradesh,Guntur,Kaveri Multi Purpose,NH 5 MARCHI YARD,Arun,3000.0,77.1031998,31.0306204
283,283,Andhra Pradesh,Guntur,Kolla Hanumayamma W/O Kolla Nageswara Rao,"Opposite Z.P. High School, Kakumanu Village And Mandal, Guntur District",,300.0,80.0087746,16.3905692
284,284,Andhra Pradesh,Guntur,Kommineni Cold Storage,NH5 DN O5-72 ANKIREDDY PALEM,Swamydhar,4000.0,83.9275643,18.3159269
285,285,Andhra Pradesh,Guntur,Kommineni Cold Storage,ANKIRRDDY PAKEN,Srinivasarao,8086.0,,
286,286,Andhra Pradesh,Guntur,"Kommineni Rajendra Prasad, Sy.No.47/1, Near Door No. 2-85, Yarlagaddavari Street, Kankatapalem Panchayat, Bapatla Mandal, Guntur Dist.","Kommineni Rajendra Prasad, Sy.No.47/1, Near Door No. 2-85, Yarlagaddavari Street, Kankatapalem Panchayat, Bapatla Mandal, Guntur Dist.",,170.0,80.0087746,16.3905692
287,287,Andhra Pradesh,Guntur,Kondaveedu Cold Storage,MIRCH YARDNALLAPADU ROAD,Rambabu,4000.0,80.3939109,16.3063385
288,288,Andhra Pradesh,Guntur,Kondaveeducildstorage,DNO133 MIRCHI YARD,Verayya,4000.0,,
289,289,Andhra Pradesh,Guntur,"Kumari Alapati Lakshmi Sowjanya, D/O Purnachandra Rao","Davuluru Village, Kollipara Mandal,",,219.834,,
290,290,Andhra Pradesh,Guntur,KurriAnnapurnammaGovindaReddy Cold Storage,ANKIREDDY PALEM NH-5,K Sambireddy,7000.0,83.9275643,18.3159269
291,291,Andhra Pradesh,Guntur,Kurriannapurna Cold Storage,NEAR MIRCHI YARD,Sambireddy,7000.0,,
292,292,Andhra Pradesh,Guntur,Kurriannapurnammagovindareddy Cold Storage Pvt Ltd,NH5 DN O5-45 ANKIREDDY PALEM,Sambireddy,5625.0,83.9275643,18.3159269
293,293,Andhra Pradesh,Guntur,Kusamanafh Cold Storage,NH 5 MARCHI YARD,Sambaivarao,0.0,77.1031998,31.0306204
294,294,Andhra Pradesh,Guntur,Lakshmi Annapurna Godown(Sri Talluri Lakshmi Venkata Satyanarayana),"D.No.1210/1, Vemuru V & M., Guntur Dt",,783.0,80.4365402,16.3066525
295,295,Andhra Pradesh,Guntur,Lakshmi Balaji Cold Storage,ANKIREDDYPALEM,Balaji,0.0,80.3923079,16.2876751
296,296,Andhra Pradesh,Guntur,Lakshmi Prasanna Cold Storage,Ankireddypalem,,8811.69,80.3923079,16.2876751
297,297,Andhra Pradesh,Guntur,Lakshminarasimha Cold Storage,ANKIREDDY PALEM VILLAGE,Satyanarayana,5438.0,80.3923079,16.2876751
298,298,Andhra Pradesh,Guntur,Lakshmiprasanna Cold Storage,"LALPURAM, NH-5",Anasuya,5000.0,77.1031998,31.0306204
299,299,Andhra Pradesh,Guntur,Laxmi Vidhya Cold Storage,LALAPURAM,Bhanu,4000.0,80.3282738,17.2181353
300,300,Andhra Pradesh,Guntur,Laxmi lavanya Cold Storage,APPADALA COMPANY ROAD LALPURAN DONKA,Satyanarayana,4500.0,,
301,301,Andhra Pradesh,Guntur,Laxminarasimha Cold Storage,"D NO 658/A 659B, 660/A ANKIREDDY PALEM VILLAGE",Venkatapathiraju,5400.0,80.3923079,16.2876751
302,302,Andhra Pradesh,Guntur,Laxmivallabha Cold Storage,NH5 LALAPURAM BY PASS ROAD,B Hanumantharao,9763.0,82.0031455,16.5774798
303,303,Andhra Pradesh,Guntur,M.Madanamohana Raju,"Karlapalem Vilage, Bapatla",,4769.62,80.4671375,15.9039445
304,304,Andhra Pradesh,Guntur,M/S Amulya Cold Storage (Formerly Lakshmi Balaji Cold Storage Pvt. Ltd.,Lalpuram,,4099.0,80.4494344,16.2868497
305,305,Andhra Pradesh,Guntur,M/S Boppudi Cold Storage (P) Ltd. (Promoter- Shri. R V Subba Rao),Ethukuru,,5800.0,,
306,306,Andhra Pradesh,Guntur,"M/S Brahamari Cold Storage (P) Ltd. ( Promoters- S/Shri. V P Rao, Ravi Vadlamani And Others)",Ankireddypalli,,7943.0,79.0072883,15.3960875
307,307,Andhra Pradesh,Guntur,"M/S Gurpreet Kaur, Mrs. Saroj, Harmeet Kaur, & Jaswinder Kaur","Tarn Taran,Pandori Gola",,9441.0,74.9574091,31.4555831
308,308,Andhra Pradesh,Guntur,M/S Himabindu Cold Storage Pvt. Ltd.,Nallapadu,,8480.0,80.3867417,16.2990649
309,309,Andhra Pradesh,Guntur,M/S K A G Reddy Cold Storage Pvt. Ltd.,Ankireddypalem,,10060.0,80.3923079,16.2876751
310,310,Andhra Pradesh,Guntur,M/S Kancheti Nageswara Rao & K.Venkata Rao,"Sy.No.183,Rupenguntla Village, Nekarikallu Mandal, Gunur Dt",,203.0,80.4365402,16.3066525
311,311,Andhra Pradesh,Guntur,M/S Kodali Rajyalaxmi Rural Godowns,"D.No.256/2, Vatticheruku V & M, Guntur",,182.0,80.4365402,16.3066525
312,312,Andhra Pradesh,Guntur,M/S Kommineni Cold Storage,Ankireddypalem,,8086.0,80.3923079,16.2876751
313,313,Andhra Pradesh,Guntur,M/S Lakhsmi Malleswari Cold Storage Pvt. Ltd.,Ankireddypalem,,8464.0,80.3923079,16.2876751
314,314,Andhra Pradesh,Guntur,M/S Lakshmi Narashima Cold Storage (P) Ltd. (Promoters-Shri. V S Reddy And Smt. V Atachamma),Ankireddypalli,,5438.0,79.0072883,15.3960875
315,315,Andhra Pradesh,Guntur,M/S Laxmi Durga Rice Mill,"Chinaparimi Village, Tsunduru Mandal, Guntur District",,251.0,80.0087746,16.3905692
316,316,Andhra Pradesh,Guntur,M/S Manjunath Cold Storage Pvt. Ltd.,Lalpuram,,10487.0,80.4494344,16.2868497
317,317,Andhra Pradesh,Guntur,M/S Narayanadri Cold Storage Pvt. Ltd.,Ankireddypalem,,10172.9,80.3923079,16.2876751
318,318,Andhra Pradesh,Guntur,M/S Om Siva Gayathri Deep Cold Storage Pvt. Ltd.,Ankireddy Palem,,7200.0,80.3923079,16.2876751
319,319,Andhra Pradesh,Guntur,M/S P.Padma Rural Godowns,"Mulpuru Village, Amarthalur Mandal",,186.12,80.6590424,16.1169266
320,320,Andhra Pradesh,Guntur,M/S Ponnam Vidyasri Rural Godown,"Duggirala Village, Dugirala Mandal, Guntur Dt",,346.0,80.4365402,16.3066525
321,321,Andhra Pradesh,Guntur,M/S Ramanjaneya Cold Storage Pvt. Ltd.,Ankireddy Palem,,8650.0,80.3923079,16.2876751
322,322,Andhra Pradesh,Guntur,M/S Sai Teja Godowns(Smt Maddineni Anjali Devi),"Sy No 69/A3, Door No 4-5-26/7A,Kavuru Village, Chilakaluripet",,8238.0,80.1656205,16.0948008
323,323,Andhra Pradesh,Guntur,M/S Sindhuri Cold Storage Pvt. Ltd.,Ankireddypalem,,8985.0,80.3923079,16.2876751
324,324,Andhra Pradesh,Guntur,M/S Soami Warehouse,"Sy.No.729/1, S.Uppalapadu Village, Jammalamadugu Mandal",,8211.0,78.3824215,14.8448555
325,325,Andhra Pradesh,Guntur,M/S Sravanthi Cold Storage Pvt. Ltd,Ankireddy Palem,,9350.0,80.3923079,16.2876751
326,326,Andhra Pradesh,Guntur,M/S Sri Lakshmi Lavanya Cold Storage (P) Ltd. (Promoters-S/Shri. A Satyanarayana And A S Rao),Navabpet,,8528.0,78.0304434,16.8979223
327,327,Andhra Pradesh,Guntur,M/S Sri Sai Surya Cold Storage Pvt. Ltd.,Ankireddy Palem,,7700.0,80.3923079,16.2876751
328,328,Andhra Pradesh,Guntur,M/S Sri Sai Tulasi Cold Storage Pvt. Ltd.,Ankireddypalem,,8700.0,80.3923079,16.2876751
329,329,Andhra Pradesh,Guntur,"M/S Sri. Lakshmi Venkateswara Cold Storage Pvt. Ltd. ( Promoters- S/Shri.K M Reddy, MD,K S Srinivas,Director)",Ankireddypalli,,8615.0,79.0072883,15.3960875
330,330,Andhra Pradesh,Guntur,"M/S Sri.Sai Tirumala Cold Storage (P) Ltd. ( Promoters- S/Shri. G R Rao, G V Rao And Others)",Kesanapally,,10143.0,,
331,331,Andhra Pradesh,Guntur,"M/S Sridevi Associates ( Sridevi Rural Godowns ), Partnership","S.No.216, Rajupalem,",,4815.0,,
332,332,Andhra Pradesh,Guntur,M/S Subham Maheswari Cold Storage Pvt. Ltd.,Duggirala,,7500.0,80.6271912,16.3273225
333,333,Andhra Pradesh,Guntur,M/S Tickwell Trexim Pvt. Ltd.,Ankireddypalem,,6438.35,80.3923079,16.2876751
334,334,Andhra Pradesh,Guntur,M/S Vemullapalli Raghunath Rural Farmers Warehouse ( Sri Vemulapalli Raghunath),"Pallikona, Bhattiprolu, Guntur",,208.0,80.4365402,16.3066525
335,335,Andhra Pradesh,Guntur,M/S Vigneswara Cold Storage,Nandigama,,10143.0,80.2859096,16.7724159
336,336,Andhra Pradesh,Guntur,M/S Visalakshi Cold Storage Pvt. Ltd.,Ankireddypalem,,8164.0,80.3923079,16.2876751
337,337,Andhra Pradesh,Guntur,M/S Viswa Cold Storage Pvt. Ltd,Ankireddypalem,,2000.0,80.3923079,16.2876751
338,338,Andhra Pradesh,Guntur,M/S. Chaitanya Industires (M/S SNM Storagesystems),"D.No.297/1, 297/2, 292/B/C, 292/B/B, 292/B/A And 296 A & B, Dokiparru (V), Medikonduru (M)",,14416.0,80.2989584,16.3466357
339,339,Andhra Pradesh,Guntur,M/S. Dhullipalla Nageswara Rao Rural Godowns,"Chinthalapudi Village, Chinthalapudi Panchayat, Ponnur Mandal, Guntur",,427.0,80.4365402,16.3066525
340,340,Andhra Pradesh,Guntur,MS Jyothi Swaroopa Cold Storage,,Shri P Siva Rama Krishna Reddy,7600.0,,
341,341,Andhra Pradesh,Guntur,MS K S R Cold Storage Pvt Ltd,D No 466 3 Nadikudi V Dachepalli M Guntur District,Shri K Sreenivasa,11000.0,79.7068596,16.5879495
342,342,Andhra Pradesh,Guntur,MS Vasaviratna Cold Storage Pvt Ltd,Thikkireddypalem V Parthipadu M Guntur District,Shri Kothuri Venkata Appa Rao,7000.0,80.3358008,16.1813812
343,343,Andhra Pradesh,Guntur,Mag Cold Storage,NH 05 ANKIREDDIPALEM VILLAGE,Ramanjneelu,0.0,80.3923079,16.2876751
344,344,Andhra Pradesh,Guntur,Mahalaxmi Cold Storage Pvt Ltd,DURGI ROAD MACHARLA VILAGE MANDAL,S.K.Ameer,4675.0,79.4365006,16.4760816
345,345,Andhra Pradesh,Guntur,"Mandava Tirumala Rao, S/O Subba Ramaiah","Block No. 7, D. No.354/2, Govada Panchayat And Village, Amarthaluru Mandal",,69.3,,
346,346,Andhra Pradesh,Guntur,Mandava Venkata Ratnam,"Block No. 7, D. No.153, Govada Panchayat And Village, Amarthaluru Mandal",,172.0,,
347,347,Andhra Pradesh,Guntur,Mangalgiri,Mangalagiri Market Yard,,1000.0,80.5662454,16.4345712
348,348,Andhra Pradesh,Guntur,Manikanta Cold Storage,Kubadpuram,,8495.0,79.9626354,16.4683884
349,349,Andhra Pradesh,Guntur,Manikanta Cold Storage Pvt Ltd,KUBHADHPURAMVILAGERAJUPALEMMANDAL,Narayana,0.0,,
350,350,Andhra Pradesh,Guntur,"Maredy Sambi Reddy, S/O Seshi Reddy","Panchayat Road, Thumuluru Village, Kollipara Mandal",,131.634,77.3410569,16.850763
351,351,Andhra Pradesh,Guntur,Mitapalli Cold Storage,NH5 ANKIREDDY PALEM,Rsrinivasarap,0.0,83.9275643,18.3159269
352,352,Andhra Pradesh,Guntur,Mittapalemnarayanaswamy Cold Storage,ANKIREDDY PALEM NH-5,Prasadrao,4000.0,83.9275643,18.3159269
353,353,Andhra Pradesh,Guntur,Mohan Rural Godown ( Prathipati Mohan Babu ),"Narasayapalem Village, Baptala Mandal",,123.0,80.4681844,15.9040102
354,354,Andhra Pradesh,Guntur,Mpr Cold Storage,NH 5 MARCHI YARD,S Srikanth,0.0,77.1031998,31.0306204
355,355,Andhra Pradesh,Guntur,Ms Green Holdings Inc,,Shri Pochampally Srinivas Rao,4454.0,,
356,356,Andhra Pradesh,Guntur,Ms Laxmi Vallabha Cold Storage P Ltd,,Shri A Babu Rao,9075.0,,
357,357,Andhra Pradesh,Guntur,Ms Palanadu Cold Storage,Rentachintala Village Guntur Dist,Ch Madhu Babu,7000.0,79.5524538,16.5544667
358,358,Andhra Pradesh,Guntur,Ms Uday Agro Technology Pvt Ltd,Sy No 66 B Etukur Village Old Guntur Guntur Distt,Shri J K Praveena Kumari,5000.0,80.4467589,16.2896415
359,359,Andhra Pradesh,Guntur,Msr Cold Storage,ETUKURU ROAD,Shankar Rao,0.0,80.4405326,16.2800938
360,360,Andhra Pradesh,Guntur,Muvva Gangi Reddy,"Valluru Village, Ward No.4, Kakumanu Mandal",,250.0,80.4284795,16.0187769
361,361,Andhra Pradesh,Guntur,N Bhaskar Rao,Nadikudi,,4769.62,79.7068596,16.5879495
362,362,Andhra Pradesh,Guntur,N. Mastan Rao,"Dhulipalla Village, Sattenapalli Mandal",,4769.62,80.1492601,16.3960329
363,363,Andhra Pradesh,Guntur,Nagalla Murali,Munipalle/Guntur,,119.0,80.5407645,16.1270527
364,364,Andhra Pradesh,Guntur,Nagothu Mariya Das,"Ravipadu Village, Narasaraopet Mandal",,110.0,80.054037,16.2359574
365,365,Andhra Pradesh,Guntur,Nandini,ANKIREDDIPALEM VILLAGE,Satishverma,5000.0,80.3923079,16.2876751
366,366,Andhra Pradesh,Guntur,Nandini Cold Storage,ANKIREDDYPALEM VILLAGE,B Subhash,4700.0,80.3923079,16.2876751
367,367,Andhra Pradesh,Guntur,Nannapaneni Sankaraiah,"Survey No.120/7, Village Poondla, Mandal Bapatla, Guntur District",,727.0,80.0087746,16.3905692
368,368,Andhra Pradesh,Guntur,Narasaraopet,Narasaraopet Market Yard,,890.0,80.051782,16.227243
369,369,Andhra Pradesh,Guntur,Narayanadri Cold Storage,ACSRAO6[At]EMAIL[Dot]COM,Chandrasekharreddy,10172.9,,
370,370,Andhra Pradesh,Guntur,Nikeleswari Cold Storage,NALLAPADU ROAD NEAR NH-5,Subarao,0.0,80.3939109,16.3063385
371,371,Andhra Pradesh,Guntur,P Satyanarayan Raju,Nadikudi,,4769.62,79.7068596,16.5879495
372,372,Andhra Pradesh,Guntur,P Venkat Raju,Nadikudi,,4769.62,79.7068596,16.5879495
373,373,Andhra Pradesh,Guntur,P. Laxmi Narsimha Rao,Kollur Village And Mandal,,438.0,78.2508532,17.4435941
374,374,Andhra Pradesh,Guntur,P.Chiranjeevi,"Karlapalem Vilage, Bapatla",,4769.62,80.4671375,15.9039445
375,375,Andhra Pradesh,Guntur,P.Mallikarjuna Rao & P.Akkeswara Prasad,"S.No.465/4, Village: Addapalli, Mandal: Bhattiprolu",,416.0,80.7845272,16.1038105
376,376,Andhra Pradesh,Guntur,PEDAKAKANI,,R.Sudhakara Rao,77000.0,,
377,377,Andhra Pradesh,Guntur,Palanadu Cold Storage,RENTACHINTALA VILAGE NEAR MARKET YARD MACHARLA ROA,A.Somasekhar,5400.0,79.5524538,16.5544667
378,378,Andhra Pradesh,Guntur,Panchamukha Cold Storage,"NH-5, ANKIREDDY PALEM",Srinivasarao,4000.0,80.3923079,16.2876751
379,379,Andhra Pradesh,Guntur,Panchamukha Cold Storage,ANKIR EDDY PALEM,Anjeneya,0.0,80.3923079,16.2876751
380,380,Andhra Pradesh,Guntur,Panchamukha Cold Storage pvt,ANKIREDDY PALEM NH-5,Narasimhareddy,0.0,83.9275643,18.3159269
381,381,Andhra Pradesh,Guntur,Patturi Mohan Rao,"Block No.9, Near Door No.9-73, Vatticherukuru V & M, Guntur",,451.508,80.4365402,16.3066525
382,382,Andhra Pradesh,Guntur,Paturi Chenchu Rama Rao,"Kavoor Village, Chilakaluripet Mandal, Guntur District, Andhra Pradesh",,700.0,79.7399875,15.9128998
383,383,Andhra Pradesh,Guntur,Pedasingh Rural Godown ( Karumanchi Pedasingh ),"Narasayapalem Village, Baptala Mandal",,231.0,80.4681844,15.9040102
384,384,Andhra Pradesh,Guntur,Ponnur,Ponnur And Pedanandipadu,,3000.0,80.3300968,16.0706311
385,385,Andhra Pradesh,Guntur,Popular Cold Storage,LALPURAMANKI REDDY PALEMBY PASS ROAD,Sureshbabu,4050.0,,
386,386,Andhra Pradesh,Guntur,Pothabathuni Koteswaramma & Shri Malleswara Rao,"R.S.No.482/2, Battiprolu Mandal, Guntur District",,450.0,80.0087746,16.3905692
387,387,Andhra Pradesh,Guntur,Pranathi Cold Storage,NH 5 MARCHI YARD,Naraaimharao,5000.0,77.1031998,31.0306204
388,388,Andhra Pradesh,Guntur,Prithvisingh Rural Godown ( Bejawada Prithvisingh ),"Narasayapalem Village, Baptala Mandal",,112.0,80.4681844,15.9040102
389,389,Andhra Pradesh,Guntur,Prudvi Cold Storage,"SATTENAPALLI SITE, NEAR GANDLURU X ROAD, KROSUR RO",V.Venkateswarao,0.0,80.1386212,16.5414403
390,390,Andhra Pradesh,Guntur,PsrsonsCold Storage,8-282 TENALI VDALAMUDI,Umasankarrao,3600.0,80.5605111,16.2355855
391,391,Andhra Pradesh,Guntur,Pullareddy Rural Godown ( Kallam Pulla Reddy ),"Narasayapalem Village, Baptala Mandal",,120.0,80.4681844,15.9040102
392,392,Andhra Pradesh,Guntur,Pushpa Athi,KANUPARRU,Krishnamurthy,8000.0,80.110827,16.209323
393,393,Andhra Pradesh,Guntur,Pushpavathi Cold Storage,Kanaparru,,4996.76,80.110827,16.209323
394,394,Andhra Pradesh,Guntur,Puvvada Basmath Kumar,"Jammulapalem Village, Baptla Mandal",,297.0,80.4681844,15.9040102
395,395,Andhra Pradesh,Guntur,R Atchi Reddy,Nadikudi,,4769.62,79.7068596,16.5879495
396,396,Andhra Pradesh,Guntur,R. Ranga Rao And R. Subba Rao,"Penumuli, Dugirala Mandal",,362.0,77.070837,16.6775836
397,397,Andhra Pradesh,Guntur,R.V.Suryanarayan Raju Rep By GPA Holder M.Muralidhara Raju,"Karlapalem Vilage, Bapatla",,4769.62,80.4671375,15.9039445
398,398,Andhra Pradesh,Guntur,Raghavendra Cold Storage,ANKIREDDY PALEM NH-5 NALLAPADU ROAD,Venkayeswarareddy,4500.0,80.3918895,16.3002007
399,399,Andhra Pradesh,Guntur,Raghavendra Cold Storage,LALAPURAM,Srinivasarao,1681.0,80.3282738,17.2181353
400,400,Andhra Pradesh,Guntur,Raghavendra Cold Storage,Ankireddypalem,,8192.0,80.3923079,16.2876751
401,401,Andhra Pradesh,Guntur,Ramachandra Deep Cold Storage,"FLAT NO. 303,SAI TOWERS, 1ST LINE,, SANTHI NAGAR",Appa Rao,0.0,77.5992505,12.9577549
402,402,Andhra Pradesh,Guntur,Ramadevi Cold Storage,NH 5 MARCHI YARD,Sarath,0.0,77.1031998,31.0306204
403,403,Andhra Pradesh,Guntur,RamyaCold Storage,"IST LANE LAKSHMIPURAM, VIJAYA TOWERS",Amarswamy,2565.0,80.2491427,13.0538525
404,404,Andhra Pradesh,Guntur,Ratan Cold Storage,"G.N.T. ROAD,RAJAHMUNDRY",Raja,1500.0,81.8040345,17.0005383
405,405,Andhra Pradesh,Guntur,Rayalapparao Cold Storage,LALPURAM,Apparao,0.0,80.4494344,16.2868497
406,406,Andhra Pradesh,Guntur,Repalle,"Repalle, Bhattiprolu And Ponnapally",,6775.0,80.7845272,16.1038105
407,407,Andhra Pradesh,Guntur,S. Rahaman Khan,"Kantheru Village, Tadikonda Mandal",,16158.0,76.840383,16.7553661
408,408,Andhra Pradesh,Guntur,S.Satyanarayana Raju,"Karlapalem Vilage, Bapatla",,4769.62,80.4671375,15.9039445
409,409,Andhra Pradesh,Guntur,S.Srirama Raju,"Karlapalem Vilage, Bapatla",,4769.62,80.4671375,15.9039445
410,410,Andhra Pradesh,Guntur,S.V. Cold Storage,NH5 ANKI REDDY PALEM,Surendrababu,5000.0,80.2091128,15.9060837
411,411,Andhra Pradesh,Guntur,SATTANAPALLI,,O.S. Sudhakar,5000.0,,
412,412,Andhra Pradesh,Guntur,SV Cold Storage,"NARTH RAJPALEM, RAILWAY TRAK ROAD",Krishna,0.0,78.1128911,18.6797553
413,413,Andhra Pradesh,Guntur,Sai Cold Storage,"LALPURAM, NH-5 BY PASS ROAD",Malleswarao,5850.0,77.1031998,31.0306204
414,414,Andhra Pradesh,Guntur,SaisankarCold Storage,LALAPURM,Srinivasaarao,5000.0,80.3282738,17.2181353
415,415,Andhra Pradesh,Guntur,Saisatyadev Cold Storage,ROKE143[At]GMAIL[Dot]COM,Rakesh,4500.0,,
416,416,Andhra Pradesh,Guntur,Saisivam Cold Storage,"270/1 LALPURAM BY-PASS ROAD, NH-5",Sivaramakrishna,4500.0,77.1031998,31.0306204
417,417,Andhra Pradesh,Guntur,Saisivam Cold Storage,NALLAPADU ROAD,Tagjavrao,3000.0,80.3939109,16.3063385
418,418,Andhra Pradesh,Guntur,Sambhavi,CHILAKALURIPET ROAD NEAR MARCHIYARD,Sathish,3000.0,80.0702897,16.2227265
419,419,Andhra Pradesh,Guntur,Sambhavi Cold Storage,ANKIREDDY PALEM NH-5,Anilkumar,3000.0,83.9275643,18.3159269
420,420,Andhra Pradesh,Guntur,Sambhavi Cold Storage,ANKI REDDY PALEM BY-PASS ROAD CHEK POST,Rajesh,5400.0,80.2091128,15.9060837
421,421,Andhra Pradesh,Guntur,Sangamdairy,VADLAMUDI VILAGE CHEBROLU MANDAL,V.Chandrasekhar,1.0,80.5605111,16.2355855
422,422,Andhra Pradesh,Guntur,Sanka Rama Rao & Smt. Sanka Veeraraghavamma,"Panchayati Road, Burripalem Village, Tenali Mandal",,125.0,80.6495483,16.2381344
423,423,Andhra Pradesh,Guntur,Sarachandra Cold Storage pvttd,DNO9-63 ANKI REDDY PALEM BY PASS ROAD,Mvvrprasad,4000.0,80.2091128,15.9060837
424,424,Andhra Pradesh,Guntur,Sarada,NARASARAOPETA,Raghavarao,2000.0,80.0496499,16.2359181
425,425,Andhra Pradesh,Guntur,Sarathchandra Cold Storage,"HILAKALURIPEY, ANKIREDDY PALEM NH-5",Mohanrao,0.0,83.9275643,18.3159269
426,426,Andhra Pradesh,Guntur,Seetharama Cold Storage,"LALPUTAM, NALLAPADU ROAD, MIRCHI YARD",Bash,1800.0,,
427,427,Andhra Pradesh,Guntur,Shambavi Cold Storage,NH5 DNO 6-75 ANKI REDDY PALEM,Subbareddy,3000.0,80.3923079,16.2876751
428,428,Andhra Pradesh,Guntur,Shivaparwathi Cold Storage Pvt Ltd,GANGAVARAM VILAGE NEAR AMBAPUR AMGURAJAL MANDAL,A.Prasad,4000.0,72.608464,23.1509255
429,429,Andhra Pradesh,Guntur,Shri Adapa Narayana Reddy,Tumuluru/Guntur,,206.0,80.7499961,16.2712826
430,430,Andhra Pradesh,Guntur,Shri Alapati Siva Nageswara Rao,Dandamudi /Guntur,,375.0,80.5567673,16.1126351
431,431,Andhra Pradesh,Guntur,Shri Alapati Subhash Chandra Bose,"Door No. 36, Govada Village, Guntur District",,109.75,80.0087746,16.3905692
432,432,Andhra Pradesh,Guntur,Shri Alla Koti Reddy,"Munangi Village, Kotipara Mandal",,194.0,,
433,433,Andhra Pradesh,Guntur,Shri Bheemavarapu Veera Reddy,"Kollipara Village, Kollipara Mandal",,400.0,77.3410569,16.850763
434,434,Andhra Pradesh,Guntur,Shri Bhimavarapu Basivi Reddy & Smt.Bhimavarapu Siva Kumari,"Kollipara Village, Kollipara Mandal, Guntur District",,152.8,80.0087746,16.3905692
435,435,Andhra Pradesh,Guntur,Shri Chimakurthi Basavaiah,Dandamudi /Guntur,,375.0,80.5567673,16.1126351
436,436,Andhra Pradesh,Guntur,Shri Emani Venkata Reddy,Tsunduru/Guntur,,230.0,80.5833296,16.1588948
437,437,Andhra Pradesh,Guntur,Shri Gaddipati Krishna Kumari,"Govada Village, Guntur District",,64.53,80.0087746,16.3905692
438,438,Andhra Pradesh,Guntur,Shri Godavarthy Venkatasubbarao,"D.No.136/1B, Chedalawada Panchayat, Vemuru Mandal,Guntur",,944.0,80.4365402,16.3066525
439,439,Andhra Pradesh,Guntur,Shri Gollapudi Venkateswara Rao,"D.No.6-45, (Site Survey No.1108/B) Village & Mandal : Kolluru District : Guntur",,231.0,80.7969102,16.1826065
440,440,Andhra Pradesh,Guntur,Shri Kurra Satyanarayana S/O Sri Veeraiah,"Dno.8-68, Sno.35/4 Cheruvu Jammulapalem Village & Panchayat, Bapatla Mandal, Guntur District 522 113",,120.0,80.0087746,16.3905692
441,441,Andhra Pradesh,Guntur,Shri Mandava Venkateswara Rao,"Pollokona Village, Bhatipoluru Mandal, Guntur District",,101.0,80.0087746,16.3905692
442,442,Andhra Pradesh,Guntur,Shri Nerla Kutumba Reddy & Smt. Nerla Basavamma,"Kollipara Village, Kollipara Mandal, Guntur District",,372.57,80.0087746,16.3905692
443,443,Andhra Pradesh,Guntur,Shri Shaik Ahamed Ali,Thadikonda/Guntur,,305.0,80.453155,16.4170758
444,444,Andhra Pradesh,Guntur,Shri Surappareddy Garata Reddy S/O Bali Reddy,"Chandavaram Village And Panchayat, Nadendla Mandal",,336.37,,
445,445,Andhra Pradesh,Guntur,Shri Tamma Sambi Redy,"Davuluru Village, Kollipara Mandal",,168.165,77.3410569,16.850763
446,446,Andhra Pradesh,Guntur,Shri Thiruveveedhula Bhaskara Rao,"Annavaram, Raompicherla",,130.0,79.9125739,16.2094457
447,447,Andhra Pradesh,Guntur,Shri V. Janardhan Reddy,"Munnangi Village, Kollipara Mandal, Guntur District",,171.0,80.0087746,16.3905692
448,448,Andhra Pradesh,Guntur,Shrivenkatasai Cold Storage,MEDIKONDURU VILAGE MANDAL SIRIPURAM ROAD,P.Madhavi,0.0,80.2875264,16.3808302
449,449,Andhra Pradesh,Guntur,Sindhuri Cold Storage Pvt Ltd,ANKIREDDY PALEM NH-5,Sivaramprasad,6000.0,83.9275643,18.3159269
450,450,Andhra Pradesh,Guntur,Sivasai Cold Storage,4-191 NALLAPADU ROAD ANKIREDDY PALEM,Tnarasi Harao,5000.0,80.3919698,16.3002171
451,451,Andhra Pradesh,Guntur,Smt Gali Srilakshmi,Kandlakunta/Guntur,,101.59,79.2937357,16.3864769
452,452,Andhra Pradesh,Guntur,Smt Gorrepati Jayalakshmi,Tsunduru/Guntur,,364.78,80.5833296,16.1588948
453,453,Andhra Pradesh,Guntur,Smt Kandimalla Asha Latha,"D No 127/C, Block No 9, Vatticherukuru Village & Mandal",,460.0,80.4470827,16.1804779
454,454,Andhra Pradesh,Guntur,Smt Korrapati Venkata Durga,Pallapadu/Guntur,,760.0,80.3988115,16.1621947
455,455,Andhra Pradesh,Guntur,Smt Kota Jayaprada,"D.No.641,Near Door No.7-31/A, Moparru Village, Amarthaluru Mandal, Guntur Dt",,181.72,80.4365402,16.3066525
456,456,Andhra Pradesh,Guntur,Smt M Adilakshmi,"Thumuluru Post, Kollipara Mandal Guntur Dt.",,238.032,80.749466,16.2872181
457,457,Andhra Pradesh,Guntur,Smt Majeti Dhanalakshmi,"Near D.No.4-54, Site No. D.No.233-1. Pedapudi Gram Panchayat, Amartalaru Mandal, Guntur",,120.0,80.4365402,16.3066525
458,458,Andhra Pradesh,Guntur,Smt Mallolu Sambrajyam,"Sy.No.240/4, Peteru G P , Repalle Mandal, Guntur",,700.0,80.4365402,16.3066525
459,459,Andhra Pradesh,Guntur,Smt Nimmagadda Padmaja,"R S No.348 - 4 B , B 5, B 7, Donepudi Village, Kolluru Mandal, Guntur",,389.18,80.4365402,16.3066525
460,460,Andhra Pradesh,Guntur,Smt Nulu Lavanya,Thumuluru/Guntur,,368.0,80.7499961,16.2712826
461,461,Andhra Pradesh,Guntur,Smt P Padma Priya,"D. No. 2/83, Opp. Railway Station, Duggirala Village & Panchayat, Duggirala Mandal, Guntur District",,563.0,80.0087746,16.3905692
462,462,Andhra Pradesh,Guntur,Smt Yadla Aruna,Chiluvuru/Guntur,,950.0,80.5827272,16.3647153
463,463,Andhra Pradesh,Guntur,"Smt. Alla Nagavardhani, W/O Sambi Reddy","Panchayat Road, Kollipara Village & Mandal",,148.882,80.749466,16.2872181
464,464,Andhra Pradesh,Guntur,"Smt. Dhulipalla Nagendramma,","Chintalapudi Village, Ponnur Mandal, Guntur District",,250.0,80.0087746,16.3905692
465,465,Andhra Pradesh,Guntur,Smt. G Nalini,"D.No.513/2B, Ganapavaram Village & Panchayat, Karlapalem Mandal",,801.0,80.5490335,15.9457492
466,466,Andhra Pradesh,Guntur,Smt. Gummadi Japamala,"S.No.13/5, Nallurupalem Village, Repalle Mandal",,872.25,,
467,467,Andhra Pradesh,Guntur,"Smt. Kaka Jayalakshmi, W/O Sambasiva Rao","RS No. 40/3, Appikatla Village, Baptla Mandla",,116.0,80.4681844,15.9040102
468,468,Andhra Pradesh,Guntur,Smt. Kurapati Uma Madhuri,"Kollipara Village, Kollipara Mandal",,530.343,77.3410569,16.850763
469,469,Andhra Pradesh,Guntur,Smt. Pagadala Srilakshmi,"Dno.443/A4, Side Door No.4/105, Thumuluru, Kollipara Mandal, Guntur",,194.23,80.4365402,16.3066525
470,470,Andhra Pradesh,Guntur,Smt. Reddy Sivamma,"Survey No. 125/1,Koliipara Village, Kollipara Madal, Guntur District",,200.0,80.0087746,16.3905692
471,471,Andhra Pradesh,Guntur,Smt. Tiyyagura Malleswari,"Valuru, Kakumanu",,998.0,80.3982025,16.054913
472,472,Andhra Pradesh,Guntur,Smt. Tulluri Dhanalakshmi,"Side Door No.2-82, R.S.No.374/11, Bethapudi, Repalle Mandal, Guntur Dt.",,169.08,80.4365402,16.3066525
473,473,Andhra Pradesh,Guntur,Smt. V Lalitha Kumari,"Sy.No.127/C, Vatticherukuru Village & Mandal",,574.423,80.4470827,16.1804779
474,474,Andhra Pradesh,Guntur,Smt. V.Manjula Devi,"D No 676/4, Vallabharaopalem Village, Ponnur Mandal",,256.133,,
475,475,Andhra Pradesh,Guntur,"Smt.Gajula Sambrajyam, Sy.No. 699, Peravali Panchayat, Vemuru Mandal, Guntur Dist.","Smt.Gajula Sambrajyam, Sy.No. 699, Peravali Panchayat, Vemuru Mandal, Guntur Dist.",,273.0,80.0087746,16.3905692
476,476,Andhra Pradesh,Guntur,"Smt.Ravuri Madhavi Latha & Smt. Ravuri Suseela, Jammulapalem Village, Tangutur Mandal, Prakasam Dist.","Smt.Ravuri Madhavi Latha & Smt. Ravuri Suseela, Jammulapalem Village, Tangutur Mandal, Prakasam Dist.",,4806.0,79.560344,15.348463
477,477,Andhra Pradesh,Guntur,Sravanthi Cold Storage,BY-PASS JUNCTION ANKI REDDY PALEM NH-5,Ramarao,9350.0,80.2091128,15.9060837
478,478,Andhra Pradesh,Guntur,Sravanti Cold Storage,"NH 5, ANKIREDDY PALEM",Chaitanya,9350.0,80.3923079,16.2876751
479,479,Andhra Pradesh,Guntur,Sreeneelanpatilakshmiammavari,"394/1, NEW AMC YARD, DUGGIRALA",Narayana,11700.0,80.6271912,16.3273225
480,480,Andhra Pradesh,Guntur,"Sri Agthu Gopi Reddy, S/O Venkata Reddy","Vallabhapuram Village, Kollipara Mandal, Guntur District",,200.0,80.0087746,16.3905692
481,481,Andhra Pradesh,Guntur,"Sri Allu Nani Reddy, S/O Rami Reddy","118-1/B/1, Kantepudi Village, Sattennapalli Mandal, Guntur District",,339.6,80.0087746,16.3905692
482,482,Andhra Pradesh,Guntur,Sri AremandaMutha Reddy & Smt. Areminda Pramilla,"Door No. 824/37, Block No. 10Panchayati Road, Kollipara Village And Mandal",,160.0,80.749466,16.2872181
483,483,Andhra Pradesh,Guntur,Sri Bandi Venkateswara Rao,"Sy.No.95, Chowdavaram Village, Guntur Rural Mandal, Guntur District",,0.0,80.0087746,16.3905692
484,484,Andhra Pradesh,Guntur,Sri Bhramari Cold Storage,ANKI REDDY PALAM ROAD,Naga Raju,9999.0,,
485,485,Andhra Pradesh,Guntur,"Sri Bomma Reddy Rami Reddy, Kollipara Village & Mandal Guntur","Door No.458, R & B Road From Kollipara To Gudhibandivaripalem Road, Kollipara Village & Mandal 2nd Ward, Guntur District",,425.12,80.0087746,16.3905692
486,486,Andhra Pradesh,Guntur,"Sri D. Venkata Balakrishna Prasad, S/O Ganeswara Rao","Ananthavaram, Kolluru Mandal",,278.0,74.8104053,13.8631865
487,487,Andhra Pradesh,Guntur,Sri Gajula Nancharaiah,"Chavali Village, Vemur Mandal, Guntur District",,0.0,80.0087746,16.3905692
488,488,Andhra Pradesh,Guntur,Sri Ganapathi Drug Intermediates Pvt Ltd,Industrial Park Nadikudi V Dachepalli M Guntur Dt,Shri Thatikonda Koti Reddy,5400.0,79.7068596,16.5879495
489,489,Andhra Pradesh,Guntur,Sri Ganapathi Drug Intermediates Pvt Ltd,Industrial Park Nadikudi V Dachepalli M Guntur Dt,Shri Thatikonda Koti Reddy,5400.0,79.7068596,16.5879495
490,490,Andhra Pradesh,Guntur,"Sri Isukapalli Kasiviswanadha Sarma, S/O Surya Prakash Sarma","RS No. 61/1, Near Library, Appikatla Village, Baptla Mandla",,291.0,80.4681844,15.9040102
491,491,Andhra Pradesh,Guntur,Sri Kamakshi Cold Storages,"FUTURE KAMAKSHI NAGAR, NEAR MIRCHI YARD NH5",K Bhaskar Rao,3500.0,,
492,492,Andhra Pradesh,Guntur,Sri Lakshmi Rural Godown,"Survey No.180, Rajupalem (V & M)",,2245.65,,
493,493,Andhra Pradesh,Guntur,Sri Laxmimalleswari Cold Storage,ANKIREDDY PALEM,Srinivasreddy,0.0,80.3923079,16.2876751
494,494,Andhra Pradesh,Guntur,Sri Manam Venkateswarlu,"No.241/1, Vatticherukuru, Block No.3, Near D No.3-84, Ner Panchayath Office Main Road, Vatticherukuru Gram Panchayat, Guntur District",,150.0,80.0087746,16.3905692
495,495,Andhra Pradesh,Guntur,Sri Movva Sai Babu & Sri Movva Harish Chandra Babu,"Vemur (V) & (M), Guntur Dist.",,887.828,80.0087746,16.3905692
496,496,Andhra Pradesh,Guntur,"Sri Movva Sai Babu , S/O Satyanarayana And Movva Harish Chandra Babu",Vemuru Village And Mandal,,1540.0,80.7399885,16.1792758
497,497,Andhra Pradesh,Guntur,Sri Murakonda Venkateswarlu,"D.No. 4-73/1, Survey No. 256/1, Vatticherukuru Village And Mandal, Guntur District",,693.0,80.0087746,16.3905692
498,498,Andhra Pradesh,Guntur,"Sri N. Saibabu, S/O Sivaramaiah","Takkelapadu Village, Pedakakani Mandal, Guntur District",,763.0,80.0087746,16.3905692
499,499,Andhra Pradesh,Guntur,Sri N. Sivaramaiah,"Takkelapadu Village, Pedakakani Mandal, Guntur District",,769.0,80.0087746,16.3905692
500,500,Andhra Pradesh,Guntur,Sri Padma Sai Krishna Godowns ( Shri Godavarthy Hare Krishna ),"D. No. 308-109 Anathavaram Village And Grama Panchayat, Kolluru Mandal",,555.0,74.8104053,13.8631865
501,501,Andhra Pradesh,Guntur,Sri Radha Krishna Godowns ( Godavarthy Radhakrishna Murthy,"D. No.82-A7, Chadalavada Gramapanchayat, Vemuru Mandal",,535.0,77.2232709,16.7536811
502,502,Andhra Pradesh,Guntur,Sri Ramachandra Deep Cold Storages,"303,SAI TOWERS, 1ST LINE,, SANTHI NAGAR",Ramesh Babu,4500.0,77.5992505,12.9577549
503,503,Andhra Pradesh,Guntur,Sri Sarada Cold Storage II,Budampadu,,5299.0,80.4756248,16.2593442
504,504,Andhra Pradesh,Guntur,Sri Vanga Bushi Reddy And Smt. Vanga Sesharatnam,"Door No. 15/112A, 5th Ward, Kollipara Village, Kollipara Mandal",,500.0,77.3410569,16.850763
505,505,Andhra Pradesh,Guntur,Sri Yadlapalli Venkata Rama Krishna,"Sy.NO.57/7 & 57/6B, Velpur Village, Tanuku Mandal, West Godavari District",,683.0,81.3399414,16.9174181
506,506,Andhra Pradesh,Guntur,Sribuvaneswari Cold Storage,NH 5 TATAPUDI VILAGE CHPETA MANDAL,Venkatewarao,14000.0,80.1655471,16.0944603
507,507,Andhra Pradesh,Guntur,Srichaitanya Cold Storage,NH5 DN O9-91 ANKI REDDY PALEM,Sambasivarao,3300.0,80.3923079,16.2876751
508,508,Andhra Pradesh,Guntur,Srichandrasekhara Cold Storage Pvt Ltd,LINGAYA PALEML ALUPURAM PANCHAITI,Ramana,4000.0,80.3940473,16.2772029
509,509,Andhra Pradesh,Guntur,Sridevi Cold Storage,LALPURAM,Ramataao,5116.0,80.4494344,16.2868497
510,510,Andhra Pradesh,Guntur,Sriganapathi Cold Storage,PLOT NO 2B INDUSTRIAL PARKMIRYALAGUDA ROAD NADIKUD,V.Krishnareddy,4950.0,72.8633635,22.6915853
511,511,Andhra Pradesh,Guntur,Sriganapati Cold Storage,"LALPURAM, NEAR MIRCHI YARD",Rk,0.0,,
512,512,Andhra Pradesh,Guntur,Sriharihara Cold Storage,AMARAVATHI ROAD PEDAKURAPADU VILAGE MANDAL,B.Ravichandran,6440.0,80.2593253,16.4697857
513,513,Andhra Pradesh,Guntur,Srikrishnadevi Cold Storage,LALPURAM,Thirupalreffy,0.0,80.4494344,16.2868497
514,514,Andhra Pradesh,Guntur,Srikrishnaprasad Cold Storage,BYPASS ROAD,Kkrishnaprasad,0.0,,
515,515,Andhra Pradesh,Guntur,Srikrishnaveni Cold Storage,OPP MIRCHI YARD,Koteswarao,0.0,,
516,516,Andhra Pradesh,Guntur,SrimanjunadaCold Storage,BY PASS ROAD LALPURAM NH-5,Sarathbabu,10487.0,83.9275643,18.3159269
517,517,Andhra Pradesh,Guntur,Srinivasa Cold Storage,NARSARAOPETA,Srinivas,0.0,80.0496499,16.2359181
518,518,Andhra Pradesh,Guntur,SripriyankaColdstprage,BY PASS JUNCTION,Hazarthreddy,0.0,75.8043655,11.2367864
519,519,Andhra Pradesh,Guntur,Sripuspavathi Cold Storage Pvt Ltd,KANAPARRU VILAGE CHPETA ROAD NADENDLA MANDAL,Krishnamurthy,3400.0,80.110827,16.209323
520,520,Andhra Pradesh,Guntur,Sriramnjaneya Cold Storage,"NH 5, ANKIREDDY PALEM",Ramanjaneelu,8650.0,80.3923079,16.2876751
521,521,Andhra Pradesh,Guntur,Srisaitirumala Cold Storage Pvt Ltd,PIDUGURALLA ROAD DACHEPALLY VILAGE DACHEPALLY MAND,N.Venkateswarlu,7500.0,79.9336279,16.2955978
522,522,Andhra Pradesh,Guntur,Srisaividhya Cold Storage,CHUTTUGUNTA,Bhanychans,3600.0,80.645438,16.5175347
523,523,Andhra Pradesh,Guntur,SrisaradaCold Storage unit,"BODIAM X ROAD,TENALI ROAD",Sudheer,7500.0,80.5718682,16.4306645
524,524,Andhra Pradesh,Guntur,SriseetaramaCold Storage,"B-125, BEHIND MIRCHI YARD NALLAPADU",Venugopalrao,3292.0,80.4107139,16.2864231
525,525,Andhra Pradesh,Guntur,Srishirisrinivasa Cold Storage Pvt Ltd,GUNTUR ROAD REPUDI VILAGE PHIRAMGI PURAM MANDAL,Veerareddy,4400.0,80.2532136,16.2882459
526,526,Andhra Pradesh,Guntur,Srisneha Cold Storage,"SRI KRUPA MARKET,MAHBOOB MANSION, MALAKPET",P Anjaneelu,2000.0,78.4909767,17.3716458
527,527,Andhra Pradesh,Guntur,Srithirumala Cold Storage,NALLAPADU ROAD NEAR NH-5,Parayya,4000.0,80.3939109,16.3063385
528,528,Andhra Pradesh,Guntur,Sriveniagro,NATSRAOPET,Prabhakarrao,0.0,80.0496499,16.2359181
529,529,Andhra Pradesh,Guntur,Srivenkatasairaghavendra Cold Storage,"DNO9-51C, RKLUB ROAD CHILUKARI PETA",Mkoteswarao,0.0,,
530,530,Andhra Pradesh,Guntur,Srivenkateswara Cold Storage,PRATTIPADU VILAGE MANDAL,Ch.Seshaiah,5000.0,82.1917781,17.2294723
531,531,Andhra Pradesh,Guntur,Srivenkateswara Cold Storage,NARASARAOPETA,Venkatrssaerao,5000.0,80.0496499,16.2359181
532,532,Andhra Pradesh,Guntur,Srivenkateswara Cold Storage,LINGALLA PALEM,Prem,5000.0,,
533,533,Andhra Pradesh,Guntur,Srivenkatrswaracooperative,DNO-C-158 VILL-KOMMURU MANDAL KAKUMANU,Venkatrsearao,4000.0,80.3982025,16.054913
534,534,Andhra Pradesh,Guntur,Srivijayaganapathi Cold Storage,7-248//1 GANA PAVARAM(V),Ragunathbabu,0.0,,
535,535,Andhra Pradesh,Guntur,Srosaitulasicodstorage,ANKIREDDY PALEM NH-5 BY PAAS ROAD,Chandrasekhar,8700.0,83.9275643,18.3159269
536,536,Andhra Pradesh,Guntur,Subham Maheswari Cold Storage,"RAILPET, DUGGIRALA",Anurag Maheswari,0.0,80.6271912,16.3273225
537,537,Andhra Pradesh,Guntur,Subhammaheswari Cold Storage,"NARSARAOPETA, CHENNAI ROAD",Maheswarao,6500.0,80.2704622,13.0843007
538,538,Andhra Pradesh,Guntur,Sv Cold Storage,ANKI REDDY PALEM ROAD NH-5,Surendrababu,5000.0,83.9275643,18.3159269
539,539,Andhra Pradesh,Guntur,Syamala Cold Storage,ANKIREDDY PALEM NH-5,T Chandraiah,0.0,83.9275643,18.3159269
540,540,Andhra Pradesh,Guntur,"T. Srinivasa Rao, S/O VV Purnachandra Rao","Door No. 2-81, Bethapudi Village, Repalle Mandal,",,318.0,,
541,541,Andhra Pradesh,Guntur,T.P.V Prasad And Three Others,"Kollur, Tenali",,595.0,80.6444099,16.237933
542,542,Andhra Pradesh,Guntur,The Andhra Bank Farmers Service Cooperative Society,Nallapadu,,4800.0,80.3867417,16.2990649
543,543,Andhra Pradesh,Guntur,TheandhrabankFarmers Servicecooperativesociety,NALLAPADU ROAD NEAR NH-5,Subbaiah,2400.0,80.3939109,16.3063385
544,544,Andhra Pradesh,Guntur,Tiyaguru Cold Storage,NALLAPADU ROAD NEAR NH-5,Tiyaguru,3500.0,80.3939109,16.3063385
545,545,Andhra Pradesh,Guntur,Tulasi Cold Storage,"NEAR SUBBA REDDY NAGAR , MIRCHI YARD",Mvnarayanareddy,4000.0,,
546,546,Andhra Pradesh,Guntur,Tulasi Cold Storage pvtlrd,"SUBBA REDDY NAGAR, NEAR MIRCHI YARD",R.Satyanarayana,4.0,,
547,547,Andhra Pradesh,Guntur,Tummala Brahmanandam,Cherukapalli,,160.0,80.6805413,16.0493704
548,548,Andhra Pradesh,Guntur,Udayagro Cold Storage,"PLOT NO 66/A, PATTIPADU ROAD ETUKUR",Srinivas,0.0,80.424635,16.2632033
549,549,Andhra Pradesh,Guntur,Uttamchand Cold Storage,"G T ROAD,MIRCHI YARD,",Prasadreddy,2105.0,,
550,550,Andhra Pradesh,Guntur,Uttamv Uttamchand,ANKI REDDY PALEM ROAD,Ramesh,2105.0,,
551,551,Andhra Pradesh,Guntur,"V. Koteswar Rao, S/O V. Hanuman Das","Survey No. 394, Repalle To Bhattiprolu R&B Road, Bhattiprolu Guntur",,592.34,80.7845272,16.1038105
552,552,Andhra Pradesh,Guntur,VADLAMUDI,,Ch.Veera Reddy,35000.0,,
553,553,Andhra Pradesh,Guntur,Vanadurga Cold Storage,NEAR BYPAS ROAD MIRCHI YARD ROAD ANKI REDDY PALEM,G Spring Astral,2000.0,80.3923079,16.2876751
554,554,Andhra Pradesh,Guntur,Vanga Nagi Reddy,"Munangi Village, Kollipara Mandal, Guntur District",,300.0,80.0087746,16.3905692
555,555,Andhra Pradesh,Guntur,Varalaxmi Cold Storage,Ankireddypalem,,8108.0,80.3923079,16.2876751
556,556,Andhra Pradesh,Guntur,Varalaxmi Cold Storage Pvt Ltd,LINGAYA PALEMA NKI REDDY PALEM POST,Srinivas,8164.0,,
557,557,Andhra Pradesh,Guntur,Varalaxmi Rural Godowns ( Namburu Venkata Krishna Murthy And Namburu Kamaiah ),"Vellatur Village, Bhattiprolu Mandal",,529.0,80.7830847,16.1031097
558,558,Andhra Pradesh,Guntur,Vardhani Cold Storage,NALLAPADU ROAD,Subtahmanyam,3500.0,80.3939109,16.3063385
559,559,Andhra Pradesh,Guntur,Vasaviratna Cold Storage Pvt Ltd,"THIKKA REDDY PALAM, PRATHIPADU MANDAL",A.Gopalrao,7000.0,82.1917781,17.2294723
560,560,Andhra Pradesh,Guntur,Vasthsalya Cold Storage M,"NH-5 BY PASS ROAD, ANKI REDDY PALEM",Lappireddy,6000.0,80.2091128,15.9060837
561,561,Andhra Pradesh,Guntur,Vasu Cold Storage,"LALUPURAM LINK ROAD, MIRCHI YARD",Ramanamurthuy,0.0,,
562,562,Andhra Pradesh,Guntur,VasundaraColdstorage,NH5ANKIREDDYPALEMGUMTUR,Hanmanthrao,4000.0,83.9275643,18.3159269
563,563,Andhra Pradesh,Guntur,Vatsalya Cold Storage,Ankireddypalem,,4981.0,80.3923079,16.2876751
564,564,Andhra Pradesh,Guntur,Vengamamba Cold Storage,NALLAPADU ROAD,G Satyanaraya,3000.0,80.3939109,16.3063385
565,565,Andhra Pradesh,Guntur,Venukonda Cold Storage Pvt Ltd,,,5000.0,,
566,566,Andhra Pradesh,Guntur,Vigneswara Cold Storage,NANDIGAMA VILAGE SATTENAPALLY MANDAL AMARAVATHI RO,Y.Mutyanjayarao,5000.0,77.7523039,20.9319821
567,567,Andhra Pradesh,Guntur,Vijayageneraltradind,RAGHUPATHI RAO TOWER SMEDHAR BAZAR,Koteswarao,0.0,,
568,568,Andhra Pradesh,Guntur,Vijayamadhavi Cold storage Pvt Ltd,ANKIREDDY PALEMMADRAS TRUNK ROADGUNTUR,R Srikanth,0.0,,
569,569,Andhra Pradesh,Guntur,Vijayasaradhi Cold Storage,NALLAPADU ROAD NEAR NH-5,Lalitha,0.0,80.3939109,16.3063385
570,570,Andhra Pradesh,Guntur,Vijayasaradhi Cold Storage,ANKI REDDY PALEM BY-PASS ROAD CHEK POST,P Nageswara Rao,2000.0,80.2091128,15.9060837
571,571,Andhra Pradesh,Guntur,VijayasriCold Cold Storage,"270/1,LALPURAM, NH-5BY PASS ROAD",Srinivasrao,5000.0,-71.5723953,43.1938516
572,572,Andhra Pradesh,Guntur,Vijaysri Cold Storage,LALPURAM,Shripal,5060.0,80.4494344,16.2868497
573,573,Andhra Pradesh,Guntur,Vinukonda,Vinukonda Market Yard,,1000.0,79.7405355,16.0498456
574,574,Andhra Pradesh,Guntur,Vinukonda Cold Storage Pvt Ltd,VINUKONDA TOWN MANDAL,R.Srinivasrao,6600.0,79.7405355,16.0498456
575,575,Andhra Pradesh,Guntur,Visalakshi Cold Storage,175/2 G T ROAD MIRCHI YARD,Ap Ranga Reddy,8164.0,,
576,576,Andhra Pradesh,Guntur,Visalakshmi Cold Storage,"175, NEAR NEW MIRCHI YARD G.T. ROAD",P Gopal Rao,2500.0,,
577,577,Andhra Pradesh,Guntur,Vpsa Cold Storage,"25-16-218, G.T. ROAD,",Narasimhamurthy,0.0,,
578,578,Andhra Pradesh,Guntur,Vpsa Coldstorage,GT ROAD,Narayana,0.0,74.2390965,31.8847743
579,579,Andhra Pradesh,Guntur,Vpsa Vela Yutha Nader And Co,NEAR MIRCHI YARD,Surali Appan,0.0,,
580,580,Andhra Pradesh,Guntur,Vvr Cold Storage,NEAR MIRCHI YARD,Venkateswarao,0.0,,
581,581,Andhra Pradesh,Guntur,Vyjanthi Cold Storage,"D. NO. 283/1, LALPURAM VILLAGE, GUNTUR RURAL MANDA",V Krishnamohan,7500.0,80.0087746,16.3905692
582,582,Andhra Pradesh,Guntur,Vyjayanthi Cold Storage Pvt Ltd,,Shri Munagala Subhakar,7800.0,,
583,583,Andhra Pradesh,Guntur,Y.C.R. Cold Storage Pvt Ltd,MEDIKONDURU VILAGE PIDUGURALLA ROAD,Arogyam,4800.0,80.2989584,16.3466357
584,584,Andhra Pradesh,Guntur,Y.K.Farmers Warehouse,"S.Uppalapadu Village, Jammalamadugu Mandal",,8993.0,78.3824215,14.8448555
585,585,Andhra Pradesh,Guntur,YCR Cold Storage,NEAR MIRCHI YARD,Satyanarayana,0.0,,
586,586,Andhra Pradesh,Guntur,Yadla Satish Kumar,Chiluvuru/Guntur,,411.09,80.5827272,16.3647153
587,587,Andhra Pradesh,Krishna,"AMC, Mylavaram",Velagaleru,,1993.4,80.6146524,16.6504004
588,588,Andhra Pradesh,Krishna,"AMC, Nuzvid","Nuzvid, Agripali & Bapulapadu",,2998.5,80.9617035,16.6337723
589,589,Andhra Pradesh,Krishna,Akhilendrainfrastructurltd,SURAMPALLY VILAGE,K.S.Prasad,0.0,80.7228185,16.5932293
590,590,Andhra Pradesh,Krishna,Blueparkseafoods Pvt Ltd,BLUEPARKSEAFOODSGMAILCOM,S.Devaraj,800.0,,
591,591,Andhra Pradesh,Krishna,C H Nukaraju & Satyanaraya Reddy,"Keesarapalli Village, Nidamanuru Mandal",,4769.62,79.3668006,16.8220976
592,592,Andhra Pradesh,Krishna,Chitta Siva Nageswar Rao,"Deen Dayal Road, Nagayalanka",,256.52,80.9161478,15.9479263
593,593,Andhra Pradesh,Krishna,D. Krishna Kishore,"Uppuluru, Kankipadu Mandal",,9761.0,,
594,594,Andhra Pradesh,Krishna,D. Radha Krishna,"Uppuluru, Kankipadu Mandal",,9754.0,,
595,595,Andhra Pradesh,Krishna,D.Ranga Rao,Uppaluru Village,,9539.24,80.7761688,16.4848125
596,596,Andhra Pradesh,Krishna,D.Seetha Mahalakshmi,Uppaluru Village,,9539.24,80.7761688,16.4848125
597,597,Andhra Pradesh,Krishna,D.Uma Naveena,Uppaluru Village,,9539.24,80.7761688,16.4848125
598,598,Andhra Pradesh,Krishna,G Bharathi,"Keesarapalli Village, Nidamanuru Mandal",,4769.62,79.3668006,16.8220976
599,599,Andhra Pradesh,Krishna,G G Rani,"Keesarapalli Village, Nidamanuru Mandal",,4769.62,79.3668006,16.8220976
600,600,Andhra Pradesh,Krishna,G Veeraraju,"Keesarapalli Village, Nidamanuru Mandal",,4769.62,79.3668006,16.8220976
601,601,Andhra Pradesh,Krishna,G. V. Madhuri,"Keesarapalli Village, Nidamanuru Mandal",,4769.62,79.3668006,16.8220976
602,602,Andhra Pradesh,Krishna,GUDIVADA,,N.Laxmana Rao,40000.0,,
603,603,Andhra Pradesh,Krishna,Gayatri Cold Storages,6-62 RAYTHUPET NANDIGAMMA,Kasivisweswarao,5000.0,80.2901487,16.7652868
604,604,Andhra Pradesh,Krishna,Girja Modern Rice Mill (Sri T.Vishwanatham & Smt A Venkatalakshmi Girija),Enikepadu/Vijayawada,,15752.0,80.7057622,16.5142013
605,605,Andhra Pradesh,Krishna,Gsr Cold Storage,GOLLPUDI,Datatrsya,5000.0,80.5827599,16.5400016
606,606,Andhra Pradesh,Krishna,HarshithaCold Storage,NAVA BPET,Bradandarsddy,0.0,,
607,607,Andhra Pradesh,Krishna,Jallipalli Kishore & Anjaneya Prasad,"S.No.95, Chinapadraka Village, Mandal : Kruthivennu",,785.0,81.3603788,16.3791762
608,608,Andhra Pradesh,Krishna,K. Gowri Pavani,"Uppuluru, Kankipadu Mandal",,9761.0,,
609,609,Andhra Pradesh,Krishna,K.Siva Prasad,Uppaluru Village,,9539.24,80.7761688,16.4848125
610,610,Andhra Pradesh,Krishna,KAIKALUR,,K.V.Satyanarayana,20280.0,,
611,611,Andhra Pradesh,Krishna,Kaikaluru,"Kalidindi, Kaikaluru",,3000.0,81.2129374,16.5527275
612,612,Andhra Pradesh,Krishna,KakarlaColdatorge,NANDIHAM,Madhusudhanrao,0.0,,
613,613,Andhra Pradesh,Krishna,Kanchikacherla,Kanchikacherla Market Yard,,1000.0,80.390432,16.6833153
614,614,Andhra Pradesh,Krishna,Kum Pinnameneni Haritha,Nidamanuru/Krishna,,0.0,80.7203035,16.5094491
615,615,Andhra Pradesh,Krishna,LankaCold storage,106/2 A MYLAVARAM ROAD OPP-LDA KONDAPALLY,Krishna,4200.0,80.8450595,16.7914644
616,616,Andhra Pradesh,Krishna,Lucky Cold Storage,RAYANAPADU VIJAYAADA,G Mohanrao,4000.0,80.5688428,16.5710275
617,617,Andhra Pradesh,Krishna,M. V. Rattaiah ( Sri Dhanalakshmi Modern Rice Mill ),"Tadigadapu Village, Vijayawada Rural Mandal",,1955.0,74.7765946,13.5877883
618,618,Andhra Pradesh,Krishna,M/S Anjali Warehouse,"Survey NO. 46/1B1,Thorraguntapalem Village, Chillakallu Gram Panchayat",,9534.36,80.1386714,16.8935957
619,619,Andhra Pradesh,Krishna,M/S Aradhana Warehouse,"Survey NO. 46/1B1,Thorraguntapalem Village, Chillakallu Gram Panchayat",,4767.18,80.1386714,16.8935957
620,620,Andhra Pradesh,Krishna,M/S Arunodaya Warehouse,"Survey NO. 46/1B1,Thorraguntapalem Village, Chillakallu Gram Panchayat",,4767.18,80.1386714,16.8935957
621,621,Andhra Pradesh,Krishna,M/S GSR Vanadurga Business Links Pvt. Ltd.,Gollapudi,,3000.0,80.5827599,16.5400016
622,622,Andhra Pradesh,Krishna,M/S Gayatri Cold Storage (P) Ltd.,Gundaram,,6321.0,78.0644799,18.7171449
623,623,Andhra Pradesh,Krishna,M/S Gayatri Warehouse Enterprises Ltd,"Survey NO. 46/1B1,Thorraguntapalem Village, Chillakallu Gram Panchayat",,9534.36,80.1386714,16.8935957
624,624,Andhra Pradesh,Krishna,"M/S Haritha Cold Storage (Promoters-S H V D Radhika, S M Rao And 2 Others)",Boppudi,,7805.0,80.1372757,16.0651147
625,625,Andhra Pradesh,Krishna,M/S Kadiyala Cold Storage,Toranaguntapalem,,6415.0,,
626,626,Andhra Pradesh,Krishna,M/S PNR Cold Storage,Torraguntapalem,,8318.0,80.1512317,16.8956612
627,627,Andhra Pradesh,Krishna,M/S Sai Bhargava Cold Storage Pvt. Ltd.,Ambarupeta,,5000.0,80.385844,16.9211273
628,628,Andhra Pradesh,Krishna,M/S Sri Ramakrishna Raw & Bioled Rice Mill,"Pulukonda Village, Nandivada Mandal",,2579.0,,
629,629,Andhra Pradesh,Krishna,M/S Sri Sai Sagar Cold Storage Pvt. Ltd.,Nandigama,,1952.0,80.2859096,16.7724159
630,630,Andhra Pradesh,Krishna,M/S Sri Saisagar Cold Storage,Nandigama,,3100.0,80.2859096,16.7724159
631,631,Andhra Pradesh,Krishna,M/S Sri Venkatanarayan Cold Storage Pvt. Ltd.,Gollapudi,,5750.0,80.5827599,16.5400016
632,632,Andhra Pradesh,Krishna,M/S Sri Vijayasai Cold Storage,Nandigama,,2561.0,80.2859096,16.7724159
633,633,Andhra Pradesh,Krishna,M/S Srinivasa Warehouse,"Survey NO. 46/1B1,Thorraguntapalem Village, Chillakallu Gram Panchayat",,9534.36,80.1386714,16.8935957
634,634,Andhra Pradesh,Krishna,M/S TTP & Sons,"Survey No.174/3 And 178/1 & 2, Enikepadu Village, District : Krishna Vijayawada Rural Mandal",,7011.0,80.6480153,16.5061743
635,635,Andhra Pradesh,Krishna,M/S Venkateswara Binny Rice Flour Mill(Shri Chapala Siva Rama Krishna S/O Venkateswarulu),"M/S Venkateswara Binny Rice Flour Mill, Survey No.174/2A, Sanagapadu Village, Penuganchiprolu Mandal, Krishna District",,328.77,80.7214417,16.6099914
636,636,Andhra Pradesh,Krishna,M/S.Sunkara Prasada Rao Rural Godowns,"RS No.43/1, Ilaparru Village, Nandivada Mandal",,350.0,,
637,637,Andhra Pradesh,Krishna,MASULIPATNAM,,M.Sivaji,49030.0,,
638,638,Andhra Pradesh,Krishna,MS Yellamanchili Cold Storage P Ltd,Keesara Distt Krishna,Y S L Prasad,5000.0,80.3235373,16.7186661
639,639,Andhra Pradesh,Krishna,Madhavahitech Cold Storage Pvt Ltd,16-139 VINAY NAGAR AUTO NAGAR VIJAYWADA,K.Koteswarao,5500.0,80.6779426,16.5016969
640,640,Andhra Pradesh,Krishna,Malleswaram,Bantumilli Market Yard,,1000.0,81.2722427,16.3696665
641,641,Andhra Pradesh,Krishna,Ms Sri Sai Lakshmi Cold Storage,Keesara Distt Krishna,Sabbasani Nagalakshmi,5000.0,80.3235373,16.7186661
642,642,Andhra Pradesh,Krishna,N. Srinivasulu Reddy,"Upuluru Village, Kankipadu Mandal",,9761.0,,
643,643,Andhra Pradesh,Krishna,NIDAMANUR,,C Satyanarayana,47500.0,,
644,644,Andhra Pradesh,Krishna,P Lakshmi Bhavani,"Keesarapalli Village, Nidamanuru Mandal",,4769.62,79.3668006,16.8220976
645,645,Andhra Pradesh,Krishna,P Sarada,"Keesarapalli Village, Nidamanuru Mandal",,4769.62,79.3668006,16.8220976
646,646,Andhra Pradesh,Krishna,P Subba Rao & Syed Khaleel,"Keesarapalli Village, Nidamanuru Mandal",,4769.62,79.3668006,16.8220976
647,647,Andhra Pradesh,Krishna,Paraamont Oldstorage,"22/1 NH-9 NAVABPET, PENUGAN CHIPROLU",Madhav,0.0,80.2476664,16.9039002
648,648,Andhra Pradesh,Krishna,Paramount Cold Storage Private Limited,Nawabpet Village Penuganchiprolu Mandal Krishna Dist,Shri Chirumamilla Ramaiah,6500.0,80.2316775,16.8195101
649,649,Andhra Pradesh,Krishna,RAYANAPADU B.D,,S.S. Rama Rao,55000.0,,
650,650,Andhra Pradesh,Krishna,Rasana Cold Storage,RAYANPADU ROAD PO-GOLLAPUDI,Venkateswarai,3200.0,80.5762473,16.5418979
651,651,Andhra Pradesh,Krishna,Sai Raghavendra Cold Storage,Thotacherla,,5296.0,80.2505716,16.8147014
652,652,Andhra Pradesh,Krishna,Sairaghvwndra,VIL-TOTACHARLAPENUGANCHI PROLU MANDALNEAR NANDIGAM,Jagadesh,5000.0,,
653,653,Andhra Pradesh,Krishna,SaisagarColdstorgs,NANDIGAMA TOWN NANDIGAMA MANDAL,Haribabh,3100.0,80.2859096,16.7724159
654,654,Andhra Pradesh,Krishna,Saithirumalagiri Cold Storage Pvt Ltd,7-491/1 TGPALEM VILAGE JAGGAIAHPET MANDAL,Arun,0.0,80.103347,16.898534
655,655,Andhra Pradesh,Krishna,Sandyaaquaexports Pvt Ltd,PLANT[At]SANDHYAAQUACOM,T.Velmurugan,13.0,,
656,656,Andhra Pradesh,Krishna,Seshasai Cold Storage,DHURGA NAGAR,Muthyalateddy,0.0,88.4149401,22.6493171
657,657,Andhra Pradesh,Krishna,Shri Katta Gandhi Appa Rao,"Mallavolu, Guduru Mandal",,64.57,74.9070916,13.1495827
658,658,Andhra Pradesh,Krishna,Shri Maganti Syamala,"16/256-7/2, Satyanarayanapuram, Gudivada",,86.95,80.9931388,16.4344461
659,659,Andhra Pradesh,Krishna,Smt Pinnameneni Ganga Kumari,Nidamanuru/Krishna,,0.0,80.7203035,16.5094491
660,660,Andhra Pradesh,Krishna,Smt. Dronavalli Sowbhagyarani,"R.S.No. 595-3, Polukonda Village, Nandivada Mandal, Krishna District",,8563.0,80.7214417,16.6099914
661,661,Andhra Pradesh,Krishna,Smt. K. Laxmi Rajeswari,"Upuluru Village, Kankipadu Mandal",,9754.0,,
662,662,Andhra Pradesh,Krishna,"Smt. Yasmeen Sultana, W/O Md. Sirajuddin",RS No.207-2/P At Nearest Door No.4-120 Ganguru Village & Panchayat Penamaluru Mandal Krishna District,,2595.0,80.7300446,16.4669025
663,663,Andhra Pradesh,Krishna,Smt.D Padmaja & D Venkateswara Rao,"Vakkalagadda, Challapalli (M).",,655.477,80.9328775,16.1167394
664,664,Andhra Pradesh,Krishna,SphoorthisriCold storage,NH-9 KEESARA VILLKANCHI KACHERLA MANDAL,Avsvprasad,5500.0,77.4658481,17.6924784
665,665,Andhra Pradesh,Krishna,Sri Arekapudi Ramakrishna Rao,"Angaluru Village, Gudlavalleru Mandal, Krishna District",,151.0,80.7214417,16.6099914
666,666,Andhra Pradesh,Krishna,Sri Bonda Prabhui Kumar,Pamarru/Krishna,,367.0,80.9608356,16.3228769
667,667,Andhra Pradesh,Krishna,Sri Chitikineni Mahakala Rao,"Penduru (V), Bantumilli (M), Krishna Dist.",,205.15,80.7214417,16.6099914
668,668,Andhra Pradesh,Krishna,Sri Durga Cold Storage,Munagacherla Village Nandigama Mandal Krishna Dist,Ch Srinivasa Rao,57000.0,80.2620418,16.7952819
669,669,Andhra Pradesh,Krishna,Sri Kanaparthy Titupataiah,"Penduru (V), Bantumilli (M), Krishna Dist.",,250.12,80.7214417,16.6099914
670,670,Andhra Pradesh,Krishna,Sri Sai Himaja Cold Storage,,Shri Vasireddy Narendra Dev,5000.0,,
671,671,Andhra Pradesh,Krishna,Sridurga Cold Storage,"MUNAGACHARLA, NANDI GAMMA",Vrameshbabu,4690.0,80.2859096,16.7724159
672,672,Andhra Pradesh,Krishna,Srisaibhargava Cold Storage,NHK[Dot]HARI007[At]GMAIL[Dot]COM,Harikrishna,2610.0,,
673,673,Andhra Pradesh,Krishna,Srisaihimaja Cold Storage,VATSAVAI VILAGE MANDAL,K.Veerababu,0.0,80.2445234,16.9803242
674,674,Andhra Pradesh,Krishna,Srisaiyogananda Cold Storage,ANUMANCHIPALLY VILAGE JAGGAIAHPETA MANDAL,P.Suresh,0.0,80.103347,16.898534
675,675,Andhra Pradesh,Krishna,Srivyshnavi Cold Storage,THORAGUNTA PALEM VILAGE JAGGIAHPETA MANDAL,K.Gopi,0.0,80.103347,16.898534
676,676,Andhra Pradesh,Krishna,The Krishna Districtmilk Producers Mutually Aided,MILKP ROJECT CHITTI NAGAR VIJAYWADA,B.V.Venugopal,1000.0,80.5986914,16.5308282
677,677,Andhra Pradesh,Krishna,V Kasturi,"Billapadu Panchyat , Mandapadu Road , Gudivada",,4769.62,80.9931388,16.4344461
678,678,Andhra Pradesh,Krishna,V Krishna Kishore,"Billapadu Panchyat , Mandapadu Road , Gudivada",,4769.62,80.9931388,16.4344461
679,679,Andhra Pradesh,Krishna,V Rama Mohan Rao,"Billapadu Panchyat , Mandapadu Road , Gudivada",,4769.62,80.9931388,16.4344461
680,680,Andhra Pradesh,Krishna,V Satishkumar,"Billapadu Panchyat , Mandapadu Road , Gudivada",,4769.62,80.9931388,16.4344461
681,681,Andhra Pradesh,Krishna,VIJAYWADA-I,,M.Nagendra Kumar,3180.0,,
682,682,Andhra Pradesh,Krishna,VIJAYWADA-II,,S.S.V.Prasad Narra,15000.0,,
683,683,Andhra Pradesh,Krishna,Vasu Cold Storage,Munagacharla,,6401.0,80.2620418,16.7952819
684,684,Andhra Pradesh,Krishna,VasuCold Storage,BESIDE NH-9 MUNAGACHERLA VILL-NANDIGAMA MANDAL,Rameshbabu,6000.0,80.272293,16.7840869
685,685,Andhra Pradesh,Krishna,Vijayawada,Gollapudi And Kankipadu Market Yard,,3000.0,80.7679058,16.4343545
686,686,Andhra Pradesh,Krishna,Vijayawada Cold Storage,SURAYAPALEMPO-GOLLAPUDI,Ravi,6500.0,80.5827599,16.5400016
687,687,Andhra Pradesh,Krishna,Vijaykrishna Cold Storage,"TUMMALA PALEM RAVINDRA COMPLEX 3RD FLOOR, ELURU RO",Pbapuji,5400.0,81.0952431,16.7106604
688,688,Andhra Pradesh,Krishna,Yelamanchili Cold Storage,KESARA NH9 KANVHADAL,Psrini,6000.0,77.6205846,28.7021006
689,689,Andhra Pradesh,Kurnool,"A.V. Rural Warehouse (Atla Venkata Subba Reddy, S/O Subba Reddy & Mrs. Atla Rukminamma, W/O A.V. Subba Reddy )","Survey No. 384/B, Nh-18, Kadapa Road, Allagada",,10000.0,78.5127559,15.1305389
690,690,Andhra Pradesh,Kurnool,ADONI,,B.Muniratnam,22520.0,,
691,691,Andhra Pradesh,Kurnool,APSWC Godown At Allagada,Allagada,,7400.0,78.5127559,15.1305389
692,692,Andhra Pradesh,Kurnool,"AVR Rural Farmers Warehouse - II, Shri Arasu Venkatarami Reddy, Smt. K Rama Lakshmi","S.No.274,Village Gadigarevula Gadivemula Mandal,Kurnool District",,1708.0,78.1108279,15.6443434
693,693,Andhra Pradesh,Kurnool,Ak. Fruits,"SUREY NO 265/3, GADICIBANDA, PUNGANOOR, KOILAKUNRL",A.Krishnaiah,13.0,78.3161236,15.2325828
694,694,Andhra Pradesh,Kurnool,Al Fruits,"ANDHARA BANK, BACK SIDE, EAMMI",Moha Mohammad Ali,24.0,,
695,695,Andhra Pradesh,Kurnool,Alichambers,"S MOHD ALI, AH ROAD, , MCH HOSPITAL",S.Rahamatullah,0.0,,
696,696,Andhra Pradesh,Kurnool,Am Fruit Ripening Chamber,"28-8-86, NANDYAL, NAVATH TRUST POST",Z. Althaf Hussain,30.0,,
697,697,Andhra Pradesh,Kurnool,Andhara Fruits Raipiling Chambers,HARIJANAWADA NANDYAL,Abdulrasheed,4.0,78.4853125,15.4639375
698,698,Andhra Pradesh,Kurnool,B Bnr Brother,"18 TH WARD, BESIDE WATER, WORKS BESIDE, EMMAI",B.Nagaraj,25.0,,
699,699,Andhra Pradesh,Kurnool,"B. Subba Reddy, S/O B. China Subba Reddy & Smt. M. Subbarameswaramma","Gundupapala Village, Dornipadu Mandal",,3395.0,78.4492191,15.2063057
700,700,Andhra Pradesh,Kurnool,BLR Rural Farmers Warehouse(Bhuma Linga Reddy,"Chakarajavemula, Dornipadu Mandal",,552.0,78.4492191,15.2063057
701,701,Andhra Pradesh,Kurnool,BODHAN,,G.Hanumantha Rao,38333.0,,
702,702,Andhra Pradesh,Kurnool,Baskarbananacompany,"FLAT NO 38, MARKET ROAD",P.Bhaskar,0.0,,
703,703,Andhra Pradesh,Kurnool,Bhavani Rural Farmers WH - II,"Survey No.474/2, Jammalamadugu Road, Village : Koilkuntala, Mandal : Koilkuntala,, Kurnool Dist.",,2765.0,78.1108279,15.6443434
704,704,Andhra Pradesh,Kurnool,Bhavani Rural Farmers Warehouse,"Jammalamadugu Road, Koilkuntla Village",,2819.0,78.3161236,15.2325828
705,705,Andhra Pradesh,Kurnool,Bojja Konda Reddy ( M/S Sri Lakshmi Siva Rama Krishna Rural Godown ),"Nehru Nagar Village, Gospadu Mandal, Kurnool District",,1637.0,78.1108279,15.6443434
706,706,Andhra Pradesh,Kurnool,CHITYAL,,D.Sridhara Rao,8600.0,,
707,707,Andhra Pradesh,Kurnool,Dsl Fruits,"KOHILUNTLA ROAD, ALLAGADDA,",D.Babu,0.0,,
708,708,Andhra Pradesh,Kurnool,Fruit Mandi,"ADONI, VEGETABLE MARKET BAZAR,",Basha,0.0,,
709,709,Andhra Pradesh,Kurnool,G Nagalakshmamma (Guru Raghavendra RFWH),"M/S Guru Raghavendra Rural Farmers Warehouse, S.No.46/B, Nandyal-Koilkuntla State Highway, Kalugotla Village, Koilkuntla Tehsil, Kurnool District",,791.29,78.1108279,15.6443434
710,710,Andhra Pradesh,Kurnool,"G Pitchi Reddy, S/O Hasan Reddy","M/S Pushpavathi, Warehouse -II, S.No.107, Nehru Nagar, Gospadu Mandal, Kurnool District",,1223.0,78.1108279,15.6443434
711,711,Andhra Pradesh,Kurnool,G. Pitchi Reddy,"Nehru Nagar Village, S. Nagulavaram Post, Gospadu Mandal",,515.0,78.4166456,15.3566821
712,712,Andhra Pradesh,Kurnool,GADWAL,,T Srinivasa Rao,10000.0,,
713,713,Andhra Pradesh,Kurnool,GMR Rural Farmers Warehouse ( Gali Maddiletty Reddy),"Survey No. 153/2B, Owk Road, Banganpalle Village And Mandal, Kurnool District",,4471.0,78.1108279,15.6443434
714,714,Andhra Pradesh,Kurnool,GMR Rural Farmers Warehouse-II (Galli Madduletty Reddy ),"Survey No. 153/2B, Owk Road, Banaganapalli Village And Mandal",,5000.0,78.2279193,15.318372
715,715,Andhra Pradesh,Kurnool,Ganesh Rural Farmers Warehouse C/O A V S Raghavendra,"Survey No.203, NH - 18 Govindapally Village Sirvella Mandal, Kurnool District",,5085.0,78.1108279,15.6443434
716,716,Andhra Pradesh,Kurnool,Gundupapala PACS Ltd.,"Gundupapala Village, Dornipadu Mandal",,900.0,78.4492191,15.2063057
717,717,Andhra Pradesh,Kurnool,Hanuman Cold Storage,"FLAT 12, D & P ROAD, ADONI, OPP VEG MARKET,",Manish,0.0,,
718,718,Andhra Pradesh,Kurnool,Jaibhavanibanana Cold Storage,"FLAT NO 118, VEGETABALE MARKET, MANTHRALAYAM ROAD,",Raju,0.0,,
719,719,Andhra Pradesh,Kurnool,KADAPA,0891-2558162,G. Mohan Rao,25000.0,,
720,720,Andhra Pradesh,Kurnool,KISAN Cold Storage A UNIT OF KISAN RURAL WARE HOUS,KIRAN[Dot]YERRAM[At]GMAIL[Dot]COM,Y.KIRAN KUMAR REDDY,88.0,,
721,721,Andhra Pradesh,Kurnool,Kaleel Shabber Cold Storage,"KARNAMADDIN COLONY, BANAGANAPALLY,",Arif,0.0,,
722,722,Andhra Pradesh,Kurnool,Karshkamitra Cold Storage,MURALIKRISHNA[Dot]MBA[At]GMAIL[Dot]COM,G.Naga Murali Krishna,8000.0,,
723,723,Andhra Pradesh,Kurnool,Koilakunta,Koilakunta,,2000.0,78.3161236,15.2325828
724,724,Andhra Pradesh,Kurnool,Laxmiamrutha Cold Storage,"9-19-27-8, GANDHI NAGAR, KOTHAPETA, AYYAPPA TEMPLE",P.Ramesh,50.0,77.0820015,9.4320761
725,725,Andhra Pradesh,Kurnool,M.Basheer Ahmed Riplingchambers,"GYATHREE STREE, KADAPA ROAD, ALLAGADDA,",M. Basheer Ahmeed,0.0,,
726,726,Andhra Pradesh,Kurnool,M.Govindamma,"S.No.789/2, Village & Mandal : Gudur",,349.0,,
727,727,Andhra Pradesh,Kurnool,M/S A V R Rural Farmers Warehouse (Arasu Venkata Ramana Reddy And Kamireddy Ramalakshmi),"S.No.274, Gadigarevula Village, Kurnool Dist.",,1632.0,78.1108279,15.6443434
728,728,Andhra Pradesh,Kurnool,"M/S A.R. Rural Farmers Warehouse (Atla Subba Reddy, S/O Atla Dastagiri Reddy )","Survey No. 386 & 387, Ayyalur Village, Nandyal Mandal",,10000.0,78.487285,15.4776876
729,729,Andhra Pradesh,Kurnool,"M/S Agrim Rural Warehouse ( E. Eswara Reddy, E.Vasundhara Devi, K.T. Srinivasa Reddy & K. Sailaja","Survey No. 712/A3, Akumalla Village, Sanjamala Mandal",,3390.0,78.2994969,15.1476221
730,730,Andhra Pradesh,Kurnool,M/S Aiswrya Rural Farmers Warehouse ( Shri O. Venkateswar Reddy ),"Survey No. 100/1, Mittapalli Vilage, Banaganapalle Mandal, Kurnool District",,417.0,78.1108279,15.6443434
731,731,Andhra Pradesh,Kurnool,M/S Arikatla Rural Farmers Warehouse,"Survey No. 206/A, Koilkuntla To Jammalamadugu Road, Alluru Village, Uyyalawada Mandal,",,4826.0,,
732,732,Andhra Pradesh,Kurnool,M/S B.N.R. Rural Farmers Warehouse,"Survey No. 1053/2, Dornipadu Village And Mandal, Kurnool District",,4826.0,78.1108279,15.6443434
733,733,Andhra Pradesh,Kurnool,M/S BER Rural Farmers Warehouse(Smt Bujuti Sujatha),"Sy.No.253, Bhanumukkala Village, Banganapalle G P And Mandal,Kurnool",,9008.0,78.0372792,15.8281257
734,734,Andhra Pradesh,Kurnool,"M/S Bharathi Rural Enterprises Phase- 1 Promoted By D. Sudhakar Reddy, P. Madhava Reddy, K. Venkateswara Reddy, K. Rama Mohan Reddy And G. Sankar Reddy","Nandikotukuru, Nandyal Road",,4775.0,78.2692804,15.8420763
735,735,Andhra Pradesh,Kurnool,"M/S Bharathi Rural Enterprises Phase-II Promoted By D. Sudhakar Reddy, P. Madhava Reddy, K. Venkateswara Reddy, K. Rama Mohan Reddy And G. Sankar Reddy","Nandikotkuru, Nandyal Road",,4775.0,78.2692804,15.8420763
736,736,Andhra Pradesh,Kurnool,M/S Brahma Rural Agri Godowns (Smt.K.Venkata Subbamma),"Mayaluru Village, Uyyalawada Mandal",,5000.0,78.3966865,15.1010766
737,737,Andhra Pradesh,Kurnool,M/S D N R Rural Farmers' Ware House,"Sy. No.203/2 & 203, Parnapalle Village, Bandi Atmakur Mandal, Kurnool Dist",,4005.0,78.1108279,15.6443434
738,738,Andhra Pradesh,Kurnool,M/S Dhanyalakshmi Rural Farmers Warehouse ( Mr. M. Swamy Reddy),"Survey No. 420, Ayyalur Village, KG Road, Nandyal Mandal, Kurnool District",,3402.0,78.1108279,15.6443434
739,739,Andhra Pradesh,Kurnool,M/S Divyasri Farmers Warehouse (Smt. G Lakshmi Devi),"Survey No.150, Rythu Nagar GP Chabolu Road, Nandyal Mandal, Kurnool District",,5000.0,78.1108279,15.6443434
740,740,Andhra Pradesh,Kurnool,M/S G.Kashinath Rural Godown,"Sy.No.431/B, Pyki, Holagunda Village & Mandal, Kurnool",,241.0,78.0372792,15.8281257
741,741,Andhra Pradesh,Kurnool,M/S Gurudatta Yogesh Warehouse,"Rudravaram Village, Rudravaram Mandal",,2919.0,78.6046022,15.2413503
742,742,Andhra Pradesh,Kurnool,"M/S K.Star Rural Farmers Warehouse, Smt.N.S.Shekun Bee, Sy.No. 23/4, Near SRBC Colony, Karivena Village, Atmakur Mandal, Kurnool Dist.","M/S K.Star Rural Farmers Warehouse, Smt.N.S.Shekun Bee, Sy.No. 23/4, Near SRBC Colony, Karivena Village, Atmakur Mandal, Kurnool Dist.",,10000.0,78.1108279,15.6443434
743,743,Andhra Pradesh,Kurnool,"M/S Kapileswara Farmers Warehouse, M Parvathamma, B. Prameela Devi, S Krishnaveni, A Thara Padmavathi, A Pushpavathi","M/S Kapileswara Farmers Warehouse, Survey No.178/1, Nandyal - Atmakur Road, Parnapalli Village, Kurnool District",,4961.6,78.1108279,15.6443434
744,744,Andhra Pradesh,Kurnool,M/S Kisan Rural Warehouse,"Survey No. 147, Kurnool-Kadapa Highway, Maseedupuram Village, Nandyal Taluk",,10000.0,78.487285,15.4776876
745,745,Andhra Pradesh,Kurnool,M/S Lakshmi Venkateswar Rural Framers Warehouse ( S. Dastagiri Reddy ),"Palukur Village, Banaganapalle Mandal",,4150.0,78.2279193,15.318372
746,746,Andhra Pradesh,Kurnool,M/S Lakshmi Venkateswara Rural Farmers Warehouse,"W.Kothapalli, Dornipadu Mandal",,995.25,78.4492191,15.2063057
747,747,Andhra Pradesh,Kurnool,M/S Lakshmi Venkateswara Rural W.House ( Shri K.Venkata Rami Reddy),"Sr.No.145, Yagantipalle Road, Banaganapalli Village And Mandal",,750.0,78.2279193,15.318372
748,748,Andhra Pradesh,Kurnool,M/S M.J.H. Rural Farmers Warehouse,"Survey No. 672, Jillella Village, Gospadu Mandal, Allagada Taluk,",,1814.4,,
749,749,Andhra Pradesh,Kurnool,M/S M.M.B. Rural Farmers Warehouse (Shri Mulla Shabbir Basha),"Survey No. 994/1A, W.Govindinne Village, Dornipadu Mandal, Kurnool District",,980.0,78.1108279,15.6443434
750,750,Andhra Pradesh,Kurnool,M/S N.S.M. Rural Farmers Warehouse ( N. Kodanda Ramaiah ),"Survey No. 204/2Chaboli Road, Nunepalli Village, Nandyal Mandal",,525.0,78.487285,15.4776876
751,751,Andhra Pradesh,Kurnool,"M/S NVR Rural Warehouse ( 1. U.M. Natraj ( Managing Partner) , 2. U.M. Venkobulu, 3. U.M. Rajaram, 4. U. M. Janakamma )","Mugathi Village, Nandavaram Mandal",,4853.0,,
752,752,Andhra Pradesh,Kurnool,M/S Nandi Cold Storage Pvt. Ltd.,Alur,,5000.0,75.9913141,12.979283
753,753,Andhra Pradesh,Kurnool,M/S Navodaya Farmers Rural Warehouse Godown,"Survey No. 378 & 379, NH Road, Chagalamarri Village, Kurnool District",,583.0,78.1108279,15.6443434
754,754,Andhra Pradesh,Kurnool,M/S Noor Tobaco Enterprises ( Managing Partner-L. Noorullah Khan),"Survey No. 200/1, Orvakal Village, Orvakal Mandal, Kurnool",,3888.0,78.0372792,15.8281257
755,755,Andhra Pradesh,Kurnool,M/S P R R Rural Farmers Warehouse (Shri P Raja Reddy),"Sy.No.488/3,780/3, Nandyal To Atmakur Road, Bandi Atmakur (V & M), Kurnool District",,4938.88,78.1108279,15.6443434
756,756,Andhra Pradesh,Kurnool,M/S PVSR Rural Farmers Warehouse,"Survey No. 716, Kadapa-Kurnool Road, Deebaguntla Village, Gospadu Mandal",,5000.0,78.4166456,15.3566821
757,757,Andhra Pradesh,Kurnool,M/S Rabbani Rural Enterprises,"Survey No. 14/B, Tartur Village, Jupadu Bunglow",,9657.0,78.3856447,15.8656956
758,758,Andhra Pradesh,Kurnool,M/S Radhika Rural Warehouse(Smt K Radhika),Sudepalle/Kurnool,,5487.0,77.9274578,15.4909073
759,759,Andhra Pradesh,Kurnool,M/S Raghavendra Rural Farmers Warehouse ( Shri M. Jayarami Reddy ),"Survey No. 457 &226, Koilkuntla-Jammalamadugu Road, Nossam Village,",,3260.0,,
760,760,Andhra Pradesh,Kurnool,M/S Raghavendra Rural Farmers Warehouse (Smt. M Swapna),Kalugotla/Kurnool,,1200.0,78.3508594,15.2848901
761,761,Andhra Pradesh,Kurnool,M/S Raithumithra Rural Farmers Warehouse ( Challa Surya Prakash Reddy),"Survey No. 787/1,788, Owk To Mettupalli Road, Owk Village And Mandal",,3300.0,,
762,762,Andhra Pradesh,Kurnool,M/S Rayalaseema Cold Storage Pvt Ltd,Dornipadu,,5200.0,78.4492191,15.2063057
763,763,Andhra Pradesh,Kurnool,M/S Rekha Rural Farmers Warehouse-II,"Sr.No.439/1, 422, Ayyalur Metta, Ponnapuram Village, Kurnool-Kadapa Road, Nandyal Mandal",,1590.48,78.487285,15.4776876
764,764,Andhra Pradesh,Kurnool,M/S Rythu Mithra Rural Farmers Warehouse ( Partners-Smt. C Sirisha & Smt. B Sreevani),Gulladurthy/Kurnool,,5999.0,78.354355,15.1632676
765,765,Andhra Pradesh,Kurnool,M/S S.S.V. Rural Farmers Warehouse ( B. Srinivasa Reddy),"Survey No. 365, Ayalur Metta, Ayyalur Village, Kurnool-Kadapa Road",,10000.0,78.0372792,15.8281257
766,766,Andhra Pradesh,Kurnool,M/S SBM Fruits Ripening Chambers,NASIRSBM[At]GMAIL[Dot]COM,Muhammad Nasir Basha,0.0,,
767,767,Andhra Pradesh,Kurnool,M/S SRS Rural Ware House (Smt.B.Geetha),"Sy No 138/A4, 139/1, Mugathi Village, Nandavaram Mandal",,5182.0,,
768,768,Andhra Pradesh,Kurnool,"M/S Sai Lakshmi Venkateswara Rural Farmers Warehouse ( G. Ravinder Reddy, K. Siva Sankaraiah, K. Vishnuvardhan Reddy & M. Ratnama )","Survey No. 367, Ayyaluru Village, Kurnool-Kadapa Road, Nandyal Mandal",,4850.0,78.487285,15.4776876
769,769,Andhra Pradesh,Kurnool,M/S Sai Ram Rural Farmers Warehouse,"M/S Sai Ram Rural Farmers Warehouse Survey No.265, 266, Chabolu Gram Panchayath, Nandyal Mandal , Kurnool District",,8286.0,78.1108279,15.6443434
770,770,Andhra Pradesh,Kurnool,"M/S Sanjamala Rural Farmers Ware House ( Smt K Harithamma, Smt. H Ramanamma, Smt. D Lakshmi Devi, Smt. T Priyanka)","Survey No.345/1, 346/5A, 346/6A Sanjamala Village And Mandal Kurnool District",,5000.0,78.2994969,15.1476221
771,771,Andhra Pradesh,Kurnool,M/S Seshikala Rural Warehouse(Smt M Seshikala),Sudepalle/Kurnool,,6000.0,77.9274578,15.4909073
772,772,Andhra Pradesh,Kurnool,M/S Shri Lakshmi Venkateswara Rural Farmers W.House,"S.Nagulavaram, Gospadu Mandal,",,957.0,,
773,773,Andhra Pradesh,Kurnool,"M/S Sree Lakshmi Narasimha Rural Farmers Warehouse (Smt. V Sarala Allas Sarala Devi, Managing Partner)","M/S Sree Lakshmi Narasimha Rural Farmers Warehouse, Sy.No.228/1, Allagadda To Jammalamadugu Road, Vengampalli (V), Kurnool District",,6178.72,78.1108279,15.6443434
774,774,Andhra Pradesh,Kurnool,M/S Sree Lakshmi Sairam Warehouse Godown,"Survey No. 616/3, Chaglamari Village, Kurnool District",,3328.0,78.1108279,15.6443434
775,775,Andhra Pradesh,Kurnool,M/S Sree Rajya Lakshmi Rural Farmers Warehouse (Smt Badri Rajeswari & Smt Badri Lakshmi Devi),Nallagatla/Kurnool,,7000.0,78.5009102,15.215247
776,776,Andhra Pradesh,Kurnool,M/S Sree Varalakshmi Rural Farmers Warehouse (Smt M Kalyani & 3 Partners),Santhajuturu/Kurnool,,5160.0,78.0372792,15.8281257
777,777,Andhra Pradesh,Kurnool,M/S Sri Bala Venkatarama Warehouse,"Nandikotkur, Kurnool Dist",,2090.0,78.1108279,15.6443434
778,778,Andhra Pradesh,Kurnool,M/S Sri Balaji Rural Farmers Warehouse,"W.Govindina Village, Dornipadu Mandal",,1070.0,78.4492191,15.2063057
779,779,Andhra Pradesh,Kurnool,M/S Sri Lakshmi Prasanna Rural FWH (Sri Sainath Reddy),"Survey No 127, Konidedu Village, Panyam Mandal, Kurnool District",,971.0,78.1108279,15.6443434
780,780,Andhra Pradesh,Kurnool,M/S Sri Lakshmi Ramana Farmers Warehouse ( Shri Sattaru Chinna Konda Reddy),"Sy.No.429/1A, 429/2, Yerraguntla Village, Sirivel Mandal",,1322.08,78.5338597,15.3197774
781,781,Andhra Pradesh,Kurnool,"M/S Sri Lakshmi Sreenivasa Rural Farmers Warehouse, Survey No. 51, 52/1, 52/2, 53, Govindapalli Village, Sirvella Mandal, Kurnool","M/S Sri Lakshmi Sreenivasa Rural Farmers Warehouse, Survey No. 51, 52/1, 52/2, 53, Govindapalli Village, Sirvella Mandal, Kurnool",,1650.0,78.0372792,15.8281257
782,782,Andhra Pradesh,Kurnool,M/S Sri Lakshmi Venkateswara Padmavati Rural Farmers Warehouse (Shri Tadi Siva Reddy And 4 Others),"Sy.No.951/Ponnapuram, Nandyal Mandal",,10000.0,78.487285,15.4776876
783,783,Andhra Pradesh,Kurnool,M/S Sri Laxmivenkateswara Rural Farmers Warehouse (Smt.K.Narmada),"RS NO.35A, 1B, Maddikera Village & Mandal, Kurnool Dt",,3350.0,78.1108279,15.6443434
784,784,Andhra Pradesh,Kurnool,M/S Sri Mallikarjuna Rural Farmers Warehouse (Shri S.G.K.Kullai Reddy),"Kanala, Nandyal Mandal",,1733.0,78.487285,15.4776876
785,785,Andhra Pradesh,Kurnool,M/S Sri Ramananda Rural Godown ( M. Kanaka Lingeswara Rao & M. Krishna Rajan),"Survey No. 153/2B, Owk Road, Banaganapalli Village And Mandal",,1048.7,78.2279193,15.318372
786,786,Andhra Pradesh,Kurnool,M/S Sri Sai Ram Rural Farmers Warehouse (Smt. P. Sreedevi),"S. Nagulavaram Village, Gospadu Mandal",,634.0,78.4166456,15.3566821
787,787,Andhra Pradesh,Kurnool,M/S Sri Sanjeev Rural Farmers Warehouse,"Survey No. 177, Gopavaram Village, Mahanandi Mandal",,5000.0,,
788,788,Andhra Pradesh,Kurnool,M/S Sri Subramanyeswara Rural Farmers Warehouse(Sri A.Subbareddy),"Sy. No. 454/2-Up, Nandavaram Village, Banaganapalle Mandal, Kurnool",,6732.0,78.0372792,15.8281257
789,789,Andhra Pradesh,Kurnool,"M/S Suresh Rural Farmers Warehouse (G. Suresh Reddy, S/O B. China Venkata Reddy And G. Eshwara Reddy, S/O Ranga Reddy)","Kalugotla Village And Post, Koilkuntla Mandal",,860.0,78.3161236,15.2325828
790,790,Andhra Pradesh,Kurnool,"M/S Thirumala Rural Farmers Warehouse ( Partners - M. Chandra Sekhar Reddy, M. Raja Sekhar Reddy, M. Vijaya Bhaskar Reddy)","D. No. 1-57, Pedda Kottala Village, Nandyal Mandal, Kurnool District",,4676.0,78.1108279,15.6443434
791,791,Andhra Pradesh,Kurnool,M/S Vaishnavi Rural Warehouse(Smt C Srilatha),Sudepalle/Kurnool,,6000.0,77.9274578,15.4909073
792,792,Andhra Pradesh,Kurnool,M/S Velgode Farmers Warehouse,"RS.No. 90/1, Nandyal-Atmakur Road, Velgode",,5325.0,78.574602,15.7183119
793,793,Andhra Pradesh,Kurnool,M/S Vishnu Sai Farmers Warehouse,"Sy No 380/1, 380/2, 375, 376 & 377, Sambavaram Village, Gospadu",,6163.9,78.4166444,15.3566805
794,794,Andhra Pradesh,Kurnool,M/S Zam Zam Rural Agri Agencies,"S.No.5/1, 9B,10, Village : Bollavaram, Mandal : Nandikotkur",,9329.0,78.2649533,15.8555909
795,795,Andhra Pradesh,Kurnool,M/S. Lakshmi Narasimha Rural Farmers' Warehouse,"S.No.60/3, Julepalle Ti Mitnala Rd., A Sivara Puram (V), Mitnala Gram Panchayat, Nandyal (M), Kurnool Dist.",,214.694,78.1108279,15.6443434
796,796,Andhra Pradesh,Kurnool,M/S. MVN Reddy Warehouse,"Survey No.44, D.No.4-52, Santhajuturu (V), Bandi Atmakru (M)",,124.34,78.5222961,15.580406
797,797,Andhra Pradesh,Kurnool,M/S. Nandi Rural Farmers Warehouse,"Sy.No.647/2, Koilkuntla Jammalamadugu Road, Nossam Village, Sanjamala Mandal, Kurnool",,3250.0,78.0372792,15.8281257
798,798,Andhra Pradesh,Kurnool,M/S. Nirmala Farmers Warehouse,"Sy.No.608, 633 & 636 Sirivilla Village, Sirivilla Mandal",,4860.0,78.5338597,15.3197774
799,799,Andhra Pradesh,Kurnool,M/S. Raghavendra Rural Farmers Warehouse,"Nossam (V), Sanjamala (M)",,2573.0,78.2994969,15.1476221
800,800,Andhra Pradesh,Kurnool,M/S. Sindhu Rural Farmars Warehouse(Smt. M Malleshwari),"Sy.No.250, Chinnakambalur Village, Rudravaram Mandal",,994.0,78.6046022,15.2413503
801,801,Andhra Pradesh,Kurnool,M/S. Sree Ganesh Rural Godown,"Sy.No.150/2, 151/5, Dhanapuram Village, Adoni",,5000.0,77.2758833,15.6318824
802,802,Andhra Pradesh,Kurnool,MAHABUBNAGAR,,G. Dastagir,40000.0,,
803,803,Andhra Pradesh,Kurnool,MEDAK,,G.R.K.Prasad,11250.0,,
804,804,Andhra Pradesh,Kurnool,MS Karshaka Mitra Cold Storage,10 Sy No 167 2A Munagalapadu V Kurnool Dist,Smt C Maheswari Devi,8000.0,78.0011088,15.8592397
805,805,Andhra Pradesh,Kurnool,Madina Fruitscompany,"KOTHAPETA, SBH BANK BESIDE, DHONI",S.Abdulrawoof,0.0,,
806,806,Andhra Pradesh,Kurnool,Mahathi Fruits & Cold Storage,MARKET ADONI,P.Dinesh,0.0,77.2758833,15.6318824
807,807,Andhra Pradesh,Kurnool,Mahesh Rural Farmers Warehouse,"Jammalamadugu Road, Koilkuntla Village, Kurnool District",,4781.0,78.1108279,15.6443434
808,808,Andhra Pradesh,Kurnool,Mehboobmiya Abdulrasool & Sons.,GADIYARAM CENTRE,Md.Khiser,3.0,79.6794971,15.7699737
809,809,Andhra Pradesh,Kurnool,Mhb Ripling Chambers,"CHAGALAMARRI, OPP BUS STAND",M.Kareem Mulla,0.0,75.5897084,31.3127127
810,810,Andhra Pradesh,Kurnool,Ms Rabbani Cold Storage,,Shri M Fazul Rahiman,7500.0,,
811,811,Andhra Pradesh,Kurnool,Muthayala Krishna Murthy,"Ibrahimpuram Village, Nandavaram Mandal",,300.0,,
812,812,Andhra Pradesh,Kurnool,NAMPALLY (HYD-I),,K.S.S. Rao,10000.0,,
813,813,Andhra Pradesh,Kurnool,NANDIKOTKUR,,C.Narendra Prasad,10000.0,,
814,814,Andhra Pradesh,Kurnool,NANDYAL,,B.Rama Mohan,43000.0,,
815,815,Andhra Pradesh,Kurnool,NARSANNAPALLY/Kamarede,,B.V.R. Reddy,5000.0,,
816,816,Andhra Pradesh,Kurnool,NDL AGRI Cold CARE,,Shri Y Vishnu Vardhan Reddy,3780.0,,
817,817,Andhra Pradesh,Kurnool,NIZAMABAD,,G.Vijaya Kumar,37200.0,,
818,818,Andhra Pradesh,Kurnool,Nandi Cold Storage,AILURU METTA NANDYLA,By.Venugopal Reddy,0.0,78.487285,15.4776876
819,819,Andhra Pradesh,Kurnool,Nandikotkur,Nandikotkur,,1000.0,78.2649533,15.8555909
820,820,Andhra Pradesh,Kurnool,Nandyal Rural Farmers Ware House,"Ayyalur Village, Nandyal Mandal",,4530.0,78.487285,15.4776876
821,821,Andhra Pradesh,Kurnool,Nekkanti Rural Farmers Warehouse (Proprietorship:Nekkanti Madhavi W/O Nekkanti Satyanarayana),"S.Y.No.55/3, Village : Ammireddy Nagar, Mandal : Allagadda, District : Kurnool",,998.0,78.1108279,15.6443434
822,822,Andhra Pradesh,Kurnool,P. Brahmananda Reddy,"Uyyalawada Village, Uyylawada Mandal",,4769.0,78.3966865,15.1010766
823,823,Andhra Pradesh,Kurnool,P. Brahmananda Reddy ( Bharathi Rural Wrehouse,Koilkuntla Village And Mandal,,4775.0,78.3161236,15.2325828
824,824,Andhra Pradesh,Kurnool,PVSR Rural Farmers Warehouse ( P. V. Subba Reddy & P. Madhavi Latha ),"Survey No. 1564/1, 1564/3, K. C. Road, N. H. -18, P. Chintakunta Village, Allagada Mandal",,4779.0,78.5031743,15.1348056
825,825,Andhra Pradesh,Kurnool,PVSR Rural Farmers Warehouse ( PV Subba Reddy & P. Madhavi Latha ),"P. Chintakuntla Village, Allagada Mandalam",,3256.91,78.5031743,15.1348056
826,826,Andhra Pradesh,Kurnool,R. K. Ware House ( N. Rama Krishna Reddy),"Gunjalapadu Road, Koilkuntla",,4791.0,78.3161236,15.2325828
827,827,Andhra Pradesh,Kurnool,Rabbani,NH18,Hussainbasha,0.0,86.4358831,22.6362319
828,828,Andhra Pradesh,Kurnool,Raghavendra Rural Farmers Warehouse-II ( M. Jaya Rami Reddy),"Nossam Village, Sanjamala Mandal",,1633.0,78.2994969,15.1476221
829,829,Andhra Pradesh,Kurnool,Royalaseema Cold Storage Pvt Ltd,"297-298/1, NH7, BANGALORE, VENKANA BAVI,",N.Mohan R Mohan Rao,3000.0,,
830,830,Andhra Pradesh,Kurnool,S B R Rural Farmers' Warehouse ( Sri S B Md. Mustaq),"Survey No.312/1, Kranthi Nagar, Rythunagar, Nandyal(Mandal), Kurnool",,1655.46,78.0372792,15.8281257
831,831,Andhra Pradesh,Kurnool,S.Shahinoor . S.Kalam,NANDYAL,S.Kalam,1.0,78.487285,15.4776876
832,832,Andhra Pradesh,Kurnool,SARANGPUR,,G.Sitarami Reddy,41000.0,,
833,833,Andhra Pradesh,Kurnool,SGVB Rural Farmers Warehouse (Smt. M Salam),"Sy.No.649/A, Peruru Village, Rudravaram Mandal",,3350.0,78.6046022,15.2413503
834,834,Andhra Pradesh,Kurnool,SIDDIPET,,D.Butchi Reddy,22290.0,,
835,835,Andhra Pradesh,Kurnool,SURYAPET,,N.Sathi Reddy,60000.0,,
836,836,Andhra Pradesh,Kurnool,Sampadhaagri Cold Storage tec,"SNO 113/C1, KOSGI ROAD, YEMMIGANUR,",S.Sivasakar,0.0,,
837,837,Andhra Pradesh,Kurnool,"Sangisetty Farmers Warehouse, Smt. S Indira W/O Laxmaiah,Survey No.418/2","Survey No.418/2, Pasupala Village, Banaganapally Mandal, Kurnool District",,999.0,78.1108279,15.6443434
838,838,Andhra Pradesh,Kurnool,Shree Mahayogi Lakshmamma Warehouse(Smt. R Mahalakshmi & 2 Partners),Madire/Kurnool,,5000.0,77.2121169,15.647817
839,839,Andhra Pradesh,Kurnool,Shri M.Madhusudhan Reddy And Shri M.Ramu Subba Reddy (M/S Raghavendra Rural F. W.House),"Koilkuntla, Mandal Koilkuntla",,1201.0,78.3161236,15.2325828
840,840,Andhra Pradesh,Kurnool,Shri Pittam Chinna Maddilete Reddy S/O P Rami Reddy,"S.No.174/C1, Omkaram Village, Ernapadu Village, Bandi Atmakur Mandal, Kurnool District",,269.0,78.1108279,15.6443434
841,841,Andhra Pradesh,Kurnool,"Shri T Rama Rao, Parvathipuram Chabolu Post, Gospadu, Mandal, Kurnool District","M/S Sri Sai Ram Rural Farmers' Warehouse, (Promoter Shri T Rama Rao, Sy.No.74/1/, 74/2 And 73, Parvathipuram (V), Chabolu Post, Sambavaram Mazara Gospadu Mandal, Kurnool District",,215.4,78.1108279,15.6443434
842,842,Andhra Pradesh,Kurnool,Shri Venkata Sai Rural Farmers' Warehouse / Shri Gali Satyanarayana,"Survey No. 72(P), Paravathipuram Village, Chabolu Post, Gospadu Mandal, Kurnool Dist",,253.52,78.1108279,15.6443434
843,843,Andhra Pradesh,Kurnool,Sitharama Rural FarmersWarehouse (V Rama Rao),Sambavaram Village,,300.0,78.4936632,15.4124784
844,844,Andhra Pradesh,Kurnool,Smt. B. Tulassamma (M/S Sri Rekha Rural Farmers Warehouse),"Poonapuram Village, Nandyal Mandal",,3200.0,78.487285,15.4776876
845,845,Andhra Pradesh,Kurnool,Smt. P.Ramapullamma(M/S Brahma Rural Enterprises),Nandikotkur,,5082.75,78.2649533,15.8555909
846,846,Andhra Pradesh,Kurnool,"Smt. Somisetty Suvarna, Smt. Aitha Subbalaxmi & 5 Others","Survey No. 380/1, 375, 376, 377. Sambavaram Village, Gospad Mandal, Kurnool Dist",,7282.0,78.1108279,15.6443434
847,847,Andhra Pradesh,Kurnool,Sr Cold Storage,"D.S.P. BUNGALOW, ESI HOSPITAL, ADONI",R.Surajagarwal,80.0,77.2758833,15.6318824
848,848,Andhra Pradesh,Kurnool,Sree Rama Rural Enterprises ( K. Ramalingeswar Reddy And C. Ashok Kumar Reddy ),"10 Bollavaram Village, Nandikotkur Mandal, Kurnool",,9595.4,78.0372792,15.8281257
849,849,Andhra Pradesh,Kurnool,Sri Harshini Rural Farmers Warehouse (Partners- Smt. P Manjula & Smt. P Saritha),Peddapadu/Kurnool,,8725.0,77.9810028,15.8059313
850,850,Andhra Pradesh,Kurnool,Sri Jayalakshmi Rural FWH ( Smt B.K.Nageswaramma),Nandikotkur/Kurnool,,2225.0,78.2649533,15.8555909
851,851,Andhra Pradesh,Kurnool,Sri Laxmi Venkateswar Fertilisers,"Ayyaluru, K.C Road, NH-18, Nandyal",,5902.0,78.487285,15.4776876
852,852,Andhra Pradesh,Kurnool,Sri Mahesh Rural Farmers Warehouse,"Survey No. 432/1, 432/2, Jammalamadugu Road, Koilkuntla Village, Koilkuntla Mandal",,5100.0,78.3161236,15.2325828
853,853,Andhra Pradesh,Kurnool,Sri Malikarjuna Rural Farmers Warehouse ( S.G.K. Kulla Reddy ),"Survey No. 1081, Kanala Village, Nandyal Mandal",,1665.0,78.487285,15.4776876
854,854,Andhra Pradesh,Kurnool,"Sri Maruthi Farmers Warehouse - Smt. Papasani Nagamma,Chippagiri (V & M), Kurnool District","S.No.275/4, 277 A/2, Beside MPDO Office, Yerur Road, Chippagiri (V &M), Kurnool District]",,2500.0,78.1108279,15.6443434
855,855,Andhra Pradesh,Kurnool,"Sri Nandi Farmers Warehouse ( C. Chandra Sekhar Reddy, M. Maheswara Reddy And M. Sekhar Reddy)","Survey No. 380 & 405, Ayyalur Village, Nandyal Mandal, Kurnool District",,5148.0,78.1108279,15.6443434
856,856,Andhra Pradesh,Kurnool,Sri Phaneendra Rural Farmers Warehouse ( M. Subba Reddy ),"Nehru Nagar Village, Gospadu Mandal",,628.0,78.4166456,15.3566821
857,857,Andhra Pradesh,Kurnool,Sri Sai Lakshmi Rural Godown ( A. Nageswara Rao & 5 Others ),"Karivena Village, Atmakur Mandal",,8350.0,,
858,858,Andhra Pradesh,Kurnool,Sri Sri Veera Bhrahmendra Swamy Rural Farmers Warehouse,"S.No.434, Jamalamadugu Road, Koilkuntla Mandal, Kurnool",,969.03,78.0372792,15.8281257
859,859,Andhra Pradesh,Kurnool,Sri Srinivasa Rural Warehouse ( K. Balavenkata Reddy ),"Survey No. 30 & 32/3, Alvakonda Village, Sanjamala Mandal",,2150.0,78.2994969,15.1476221
860,860,Andhra Pradesh,Kurnool,Sri Uma Maheswara Rural Farmers Warehouse,"R S No. 310, Kampamalla Village, Koilakuntla Mandal, Kurnool Dist",,1907.39,78.1108279,15.6443434
861,861,Andhra Pradesh,Kurnool,Sri Venkateshwara Rural Farmers Ware House - Smt K Suseelamma,"S.No.267/A, 268/A, 269, Near Police Station, Yerur Road, Chippagiri (V & M) , Kurnool District",,2500.0,78.1108279,15.6443434
862,862,Andhra Pradesh,Kurnool,Sri Venkateswara Rural Farmers Cold Storage,Allagadda Vill Mandal Kurnool Dist,Shri S V Shirisha,5000.0,78.5127559,15.1305389
863,863,Andhra Pradesh,Kurnool,Srilakshmi Fruits,SEGHU COMPLEX,Ramaanjaneyulu,0.0,,
864,864,Andhra Pradesh,Kurnool,Srilakshmi Warehouse (Shri Davuluri Rama Rao),"Rythunagar, Nandyal",,686.43,78.487285,15.4776876
865,865,Andhra Pradesh,Kurnool,Star RuralFarmers' Warehouse (Shri Samudrala Janardhana & 5 Partners),"M/S Star Rural Farmers Ware House, Sy.No.455/1A, Sirivella Village, Sirivella Mandal Kurnool",,2800.0,78.5338597,15.3197774
866,866,Andhra Pradesh,Kurnool,Sv Rural Farmars Cold Storage,CHINNAKANDUKUR ROAD,S.Rajagopalreddy,10000.0,79.0176551,17.6016811
867,867,Andhra Pradesh,Kurnool,"TA Sattar Rural Farmers Warehouse (Smt. Tapal Jafreen), Sy.No.167-1, 167-2, Behind SRBC Colony, Karivena Village, Atmakur Mandal, Kurnool Dist.","TA Sattar Rural Farmers Warehouse (Smt. Tapal Jafreen), Sy.No.167-1, 167-2, Behind SRBC Colony, Karivena Village, Atmakur Mandal, Kurnool Dist.",,5000.0,78.1108279,15.6443434
868,868,Andhra Pradesh,Kurnool,Taherbasha,"SHANKUNTHALA CIRCLE, EAMMIGANOOR",Mehboobbasha,4.0,77.4719551,15.7734175
869,869,Andhra Pradesh,Kurnool,"The Kothapalli Farmers Warehouse, B. Pedda Laxmi Reddy & Three Others","S. No. 1248, Kothapalli Village, Nandyal Mandal, Kurnool District",,4788.0,78.1108279,15.6443434
870,870,Andhra Pradesh,Kurnool,The Nandyal Rural Farmers Warehouse,"Survey No. 373, Ayyalur Village, Nandyal, Kurnool",,4530.0,78.0372792,15.8281257
871,871,Andhra Pradesh,Kurnool,Tr Cold Storage,"OLD BUS STAND, BANGANPALLE",Saleembasha,0.0,78.2279193,15.318372
872,872,Andhra Pradesh,Kurnool,Vani Venkateswara Rural Farmers Warehouse,"Survey No. 373, Ayyalur Meta Village And Mandal, Kurnool District",,5653.0,78.1108279,15.6443434
873,873,Andhra Pradesh,Kurnool,"YSR Godown (Smt T.Lakshmi Devi, Smt T.Lakshmi)",Kothapally/Kurnool,,305.0,78.3251902,15.1351347
874,874,Andhra Pradesh,Prakasam,"AMC, Parchur","Parchur, Inkollu & Pusapadu",,3000.0,80.2284844,15.9038848
875,875,Andhra Pradesh,Prakasam,Addanki,J. Pangulur,,1000.0,,
876,876,Andhra Pradesh,Prakasam,Aditya Cold Storage,VELGATURU VILAGE PONNALURU MANDAL,Mahesh,1800.0,79.1718731,18.8458347
877,877,Andhra Pradesh,Prakasam,Aditya Cold Storage,,Shri Konijety Ravi Kumar,5000.0,,
878,878,Andhra Pradesh,Prakasam,Arja Lakshmimanohari,"R S No.14, Lakkavaram Village, Kollapudi Panchayat, Martur Mandal , Prakasam District",,10000.0,79.560344,15.348463
879,879,Andhra Pradesh,Prakasam,Bodawada Cold Storage,Upputur,,5954.38,80.2887736,15.952998
880,880,Andhra Pradesh,Prakasam,Bodawafda Cold Storage,UPPUTURVILAGEPARCHURUMANDAL,Raja,8500.0,,
881,881,Andhra Pradesh,Prakasam,Chappidihanumanthrao Cold Storage,PAMIDIPADU ROAD RAVI NUTRHALA KORISAPADU,Veeranjaneyulu,8000.0,80.1078799,15.6941826
882,882,Andhra Pradesh,Prakasam,Cherukuri Cold Storage,EDUMUDI ROAD UPPUGUNDURU,D.Srikanth,0.0,80.1684258,15.6705674
883,883,Andhra Pradesh,Prakasam,Chirala,China Ganjam Market Yard,,1000.0,80.2418578,15.6929955
884,884,Andhra Pradesh,Prakasam,Cumbum,Cumbum Market Yard,,2000.0,77.2843835,9.7347251
885,885,Andhra Pradesh,Prakasam,Darsi,Darsi And Kurichedu Market Yard,,3000.0,79.5773632,15.9047135
886,886,Andhra Pradesh,Prakasam,Dasari Radhakrishna,"S.No.76, Keertipadu Village, Madipadu Mandal Prakasam",,9878.53,80.0214829,15.6206676
887,887,Andhra Pradesh,Prakasam,Dasari Uma Naveena,"S.No.77, Keertipadu Village, Madipadu Mandal Prakasam",,9878.53,80.0214829,15.6206676
888,888,Andhra Pradesh,Prakasam,Dornala Cold Storage,KESINENIPALLY VILAGE TRIPARANTAKAM MANDAL,Maheshreddy,0.0,79.4560047,16.001235
889,889,Andhra Pradesh,Prakasam,Friends Godown,"Ranga Reddy Palli, Racherla Mandal,",,2838.92,,
890,890,Andhra Pradesh,Prakasam,Giddalur,Giddalur Market Yard,,1000.0,78.9349705,15.3847257
891,891,Andhra Pradesh,Prakasam,Inkollu Cold Storage Pvt. Ltd.,Inkollu,,6171.0,80.1944375,15.8283739
892,892,Andhra Pradesh,Prakasam,Jayagopala Cold Storage,306/2 306/3 SURAVARAPALLE VILLAGE,Srinivas,5000.0,,
893,893,Andhra Pradesh,Prakasam,Jonnalagadda Storages,Nayanapalli Village / Vetapalem Mandal,,4769.62,80.3057484,15.7823353
894,894,Andhra Pradesh,Prakasam,K. Murali Krishna,"Yedugundlapadu Village And Post, Madipadu Mandal",,5129.13,,
895,895,Andhra Pradesh,Prakasam,Kandukur,Kandukur Market Yard,,2000.0,79.9048922,15.2161475
896,896,Andhra Pradesh,Prakasam,Kanigiri,Kanigiri Market Yard,,1000.0,79.5069344,15.4048553
897,897,Andhra Pradesh,Prakasam,Kanneganti Lakshmi Rajeswari,"S.No.57/2 & 75, Keertipadu Village, Madipadu Mandal Prakasam",,9878.53,80.0214829,15.6206676
898,898,Andhra Pradesh,Prakasam,Kanneganti Siva Prasad,"S.No.57/1 & 75, Keertipadu Village, Madipadu Mandal Prakasam",,9878.53,80.0214829,15.6206676
899,899,Andhra Pradesh,Prakasam,Karnati Chandrasekhar Babu,"Survey No.155/2B,155/1A & 155/2A, Doddavaram Panchavat, Maddipadu (M), Prakasam District",,4106.0,79.560344,15.348463
900,900,Andhra Pradesh,Prakasam,Karnati Rohini Devi,"Survey No.155/1B, 155/2B & 155/1A, Doddavarappadu Village & Panchayat, Maddipadu (M), Prakasam",,6152.95,79.560344,15.348463
901,901,Andhra Pradesh,Prakasam,Karumudi Hanumayamma,"Yedugundlapadu Village And Post, Madipadu Mandal",,5129.13,,
902,902,Andhra Pradesh,Prakasam,Karumudi Usha Rani,"Yedugundalapadu Village And Post, Madipadu Mandal, Prakasam District",,5154.0,79.560344,15.348463
903,903,Andhra Pradesh,Prakasam,Kokila Cold Storage,NAGULUPPALAPADU VILAGE MANDAL,B.Srinivasrao,72.0,80.1114512,15.6394647
904,904,Andhra Pradesh,Prakasam,Kolla Nageswara Rao,"Survey No. 197/2, Kunkalamarru , Karamchedu Mandal",,273.0,80.3162572,15.8847028
905,905,Andhra Pradesh,Prakasam,Kolla Venkateswarlu,"D. No. 1-23, Kunkalamarruu Village And G.P., Karamchedu Mandal",,286.36,80.3162572,15.8847028
906,906,Andhra Pradesh,Prakasam,Komala Cold Storage Pvt Ltd,"INKOLLU VILAGE MANDAL, PARCHUR ROAD",Srinivasrao,6000.0,80.2767779,15.9684068
907,907,Andhra Pradesh,Prakasam,Kona Krishna Kumari,"R S No.14, Lakkavaram Village, Kollapudi Panchayat, Martur Mandal , Prakasam District",,10000.0,79.560344,15.348463
908,908,Andhra Pradesh,Prakasam,Kondepi,Singarayakonda Market Yard,,1000.0,80.0150777,15.2467176
909,909,Andhra Pradesh,Prakasam,Kondragunta Nagabhushanam Cold Storage,Nagupalem,,4524.41,,
910,910,Andhra Pradesh,Prakasam,Kondraguntanagabushanam,NAGULA PALEM VILAGE PARCHUR MANDAL,Subramanyam,0.0,80.2728588,15.9546319
911,911,Andhra Pradesh,Prakasam,Latha Cold Storage,NEAR MARKET YARD ROAD ONGOLE,Sanjeevrao,5000.0,80.049922,15.5057232
912,912,Andhra Pradesh,Prakasam,Lavanya Cold Storage,Inkollu,,5761.81,80.1944375,15.8283739
913,913,Andhra Pradesh,Prakasam,Laxminarayana Cold Storage,PERNAMITTA VILAGE S NPADU MANDAL,Ch.Nagesh,4000.0,80.0115701,15.5284503
914,914,Andhra Pradesh,Prakasam,Lingisetty Cold Storage,,,4900.0,,
915,915,Andhra Pradesh,Prakasam,M/S Jayagopala Cold Storage (P) Ltd. ( Promoters- Smt. K Nagamani Devi And K Susmith),Suravarapupalli,,5449.0,80.1414627,16.0318943
916,916,Andhra Pradesh,Prakasam,M/S K Yellamandaiah,Uppugundur,,5000.0,80.1684258,15.6705674
917,917,Andhra Pradesh,Prakasam,M/S Keerthana Rural Godowns,"Sy No 142/4, Yedugundalapadu GP, Madipadu Mandal",,10000.0,,
918,918,Andhra Pradesh,Prakasam,M/S Kodadarama Agriculture Rural Godown (Smt. A.Siva Parvati),"RS NO.650/1, Inkollu Village & Mandal, Prakasam Dt",,1107.0,79.560344,15.348463
919,919,Andhra Pradesh,Prakasam,M/S Lakshmi Narayana Cold Storage,Pernamitta,,4000.0,80.0115701,15.5284503
920,920,Andhra Pradesh,Prakasam,M/S Latha Cold Storage,Mukthinuthalapadu,,4800.0,80.0576834,15.5377821
921,921,Andhra Pradesh,Prakasam,M/S Neeli Cold Storage,Yedugundlapadu,,6934.0,80.049301,15.5634751
922,922,Andhra Pradesh,Prakasam,M/S Omkar Cold Storage,Mukthinuthalapadu,,5161.0,80.0576834,15.5377821
923,923,Andhra Pradesh,Prakasam,M/S Parchoor Cold Storage (P) Ltd.,Parchoor,,4992.0,80.2767779,15.9684068
924,924,Andhra Pradesh,Prakasam,M/S Pothula Chenchaiah Cold Storage,Tangutur,,5205.0,80.0346878,15.3417343
925,925,Andhra Pradesh,Prakasam,M/S Raghavendra Raw And Boiled Rice Mill,"Sy. No. 704/A, GT Road, Medarmetla Village, Korisapadu Mandal, Prakasam",,2500.0,79.560344,15.348463
926,926,Andhra Pradesh,Prakasam,M/S Rama Cold Storage Pvt. Ltd.,Addanki,,5000.0,79.9714467,15.8148706
927,927,Andhra Pradesh,Prakasam,M/S Sri Haritha Cold Storage Pvt. Ltd.,Pernamitta,,5000.0,80.0115701,15.5284503
928,928,Andhra Pradesh,Prakasam,M/S Sri Mahalakshmi Cold Storage,Throvagunta,,5485.0,80.0576834,15.5522666
929,929,Andhra Pradesh,Prakasam,M/S Sri. Cold Storage (Promoter- Shri. B S V Reddy),Gundalapalli,,6200.0,78.7419528,12.9801557
930,930,Andhra Pradesh,Prakasam,M/S. Anjaneya Enterprises,"Sy.No.504/1, 505/3 & 505/4, Valluru Gram Panchayat, Tanguturu Mandal",,10000.0,80.0346878,15.3417343
931,931,Andhra Pradesh,Prakasam,MS Bala Venkata Channa Cold Storage Pvt Ltd,Sy No 246 A Ganapavaram V Tripurantakam M Prakasham Dist,Shri Ramesh N,5100.0,79.4746284,16.0361282
932,932,Andhra Pradesh,Prakasam,MS Rythu Mithra Cold Storage,Somavarappadu V Medarametla Prakasham District,Shri Gude Panduranga Rao,5000.0,80.0273939,15.7203593
933,933,Andhra Pradesh,Prakasam,MS Sri Dattasai Cold Storage Pvt Ltd,,Shri Kavuri Vasu,9000.0,,
934,934,Andhra Pradesh,Prakasam,MS Sri Nidhi Cold Storage,,Shri Kolla Hari Babu,9798.0,,
935,935,Andhra Pradesh,Prakasam,MS Sri Rama Agri Cold Storage,Pusalapadu Gram Panchay Prakasam Distt,Shri M Ramesh Babu,6940.0,79.0969841,15.5009017
936,936,Andhra Pradesh,Prakasam,MS Uma Maheswara Cold Storage,,Shri T Surya Prakash Rao,6580.0,,
937,937,Andhra Pradesh,Prakasam,Maddipadu,Santhanuthalapadu,,1000.0,79.9413199,15.5425351
938,938,Andhra Pradesh,Prakasam,Mahi Agro Enterprises,Singarayakonda,,5982.0,80.0205089,15.2476081
939,939,Andhra Pradesh,Prakasam,Mahi agro enterprizes,"INDUSTIAL PARK, SOUTH BY PASS ROAD SHINGARAYA KOND",Kondalrao,6000.0,,
940,940,Andhra Pradesh,Prakasam,Markapur,Dornala Market Yard,,1000.0,79.0955723,15.9072455
941,941,Andhra Pradesh,Prakasam,Martur,S. Maguluru,,1000.0,,
942,942,Andhra Pradesh,Prakasam,Ms Srawani Cold Storage Private Ltd,,Shri Thunugunta Mallikharjuna Rao,7700.0,,
943,943,Andhra Pradesh,Prakasam,Ms Uppugunduru Cold Storage Pvt Ltd,,Shri M Venkata Rao,6470.0,,
944,944,Andhra Pradesh,Prakasam,Munagachennaiah Cold Storage,SANTANOOTALAPADU,M.V Krishnarao,8000.0,79.9413199,15.5425351
945,945,Andhra Pradesh,Prakasam,Munnangi Venkata Subbaiah & Munnangi Upendra Rao,"Komarnenivaripalem , Parchur Mandal, Prakasam",,330.0,79.560344,15.348463
946,946,Andhra Pradesh,Prakasam,Myneni Storages,Nayanapalli Village / Vetapalem Mandal,,4769.62,80.3057484,15.7823353
947,947,Andhra Pradesh,Prakasam,Omkar Cold Storage,MUKTI NUTALAPADU VILAGE,Gopichand,6000.0,80.2301487,15.9348116
948,948,Andhra Pradesh,Prakasam,Ongole,Ongole And Vuppugundru Market Yard,,3000.0,80.049922,15.5057232
949,949,Andhra Pradesh,Prakasam,Ongole Cold Storage Pvt Ltd,THROVAGUNTA VILAGE ONGOLE MANDAL,Rafi,7000.0,80.0576834,15.5522666
950,950,Andhra Pradesh,Prakasam,Parachuri Storages,Nayanapalli Village / Vetapalem Mandal,,4769.62,80.3057484,15.7823353
951,951,Andhra Pradesh,Prakasam,Parchuru Cold Storage Pvt Ltd,LNKOLLU ROAD PARCHUR VILAGE & MANDAL,Srinivasrao,5500.0,80.1438126,15.9279297
952,952,Andhra Pradesh,Prakasam,Raavirangaiah Cold Storage Pvt Ltd,NAGULUP PALAPADU VILAGE MANDAL,K.Srinivasrao,9000.0,80.1114512,15.6394647
953,953,Andhra Pradesh,Prakasam,Rama Cold Storage,ADDANKI VILAGE MANDAL ONGOL ROAD,G.Subbarao,5000.0,79.9181672,15.5652845
954,954,Andhra Pradesh,Prakasam,Ravavarapu Storages,Nayanapalli Village / Vetapalem Mandal,,4769.62,80.3057484,15.7823353
955,955,Andhra Pradesh,Prakasam,Ravi Rangaiah Cold Storage,Naguluppalapadu,,5850.0,80.1114512,15.6394647
956,956,Andhra Pradesh,Prakasam,Rythumitra Cold Storage,"SOMAVARARAPPADU VILAGE, KORSEPADU MANDAL, RAVI N",Ravikiran,6750.0,,
957,957,Andhra Pradesh,Prakasam,Shri Doppalapuri Ramesh Babu,"Thikkarajupalem, Parchur Mandal",,300.0,80.2767779,15.9684068
958,958,Andhra Pradesh,Prakasam,"Shri K. Venkata Subba Rao, S/O Anjaneyulu","Yedugundlapadu Village, Maddipadu Mandal, Prakasam District",,5154.0,79.560344,15.348463
959,959,Andhra Pradesh,Prakasam,Shri Kolla Srinivasa Rao,"Kunkalamarru, Karamchedu Mandal",,375.0,80.3162572,15.8847028
960,960,Andhra Pradesh,Prakasam,Shri N V Subba Rao & Shri S V Ratnam,Edugundipadu/Prakasam,,2598.0,,
961,961,Andhra Pradesh,Prakasam,Shri Nidumusali Srinivasula Reddy,Keerthipadu/Prakasam,,12293.0,80.0293896,15.6433437
962,962,Andhra Pradesh,Prakasam,Shri Syed Moula,Mukthinuthalapadu/Prakasam,,4267.6,80.0576834,15.5377821
963,963,Andhra Pradesh,Prakasam,Shri Syed Sultan,Mukthinuthalapadu/Prakasam,,2691.67,80.0576834,15.5377821
964,964,Andhra Pradesh,Prakasam,Smt Anusha Rural Godown ( Smt Somepalli Anusha),Naganola/Prakasam,,255.0,,
965,965,Andhra Pradesh,Prakasam,Smt Kakumanai Anansuya,"Sy. No. 249, M.Nidamluru GP, Tanguturu Mandal, Prakasam Dt",,2454.0,79.560344,15.348463
966,966,Andhra Pradesh,Prakasam,Smt Pamidi Anitha,"Sy.No.700,720/3, 721 & 722, Tangattur, Prakasam Dt.",,9907.0,79.560344,15.348463
967,967,Andhra Pradesh,Prakasam,Smt Pamidi Krishnamma & Smt Adhilaxmi,"Sy.No.700,720/3, 721 & 722, Tangattur, Prakasam Dt.",,9838.0,79.560344,15.348463
968,968,Andhra Pradesh,Prakasam,Smt Pamidi Radhika,"Sy.No.700,720/3, 721 & 722, Tangattur, Prakasam Dt.",,9907.0,79.560344,15.348463
969,969,Andhra Pradesh,Prakasam,Smt Pamidi Suguna,"Sy.No.700,720/3, 721 & 722, Tangattur, Prakasam Dt.",,9922.0,79.560344,15.348463
970,970,Andhra Pradesh,Prakasam,Smt Yarlagadda Sujatha Rural Godowns,"Sy. No.289/8, Veerannapalem Village, Parchur Mandal, Prakasam Dt",,380.0,79.560344,15.348463
971,971,Andhra Pradesh,Prakasam,Smt. Anubrolu Satyavathi,"Sy.No.636/1& 636/2, Anubroluvaripalem Village, Korisapadu Mandal, Prakasam Dist.",,1432.0,79.560344,15.348463
972,972,Andhra Pradesh,Prakasam,Smt. Cherukuri Anjana Devi,"S. No. 302/1B, Upugundhuru Village, Naguluppalapadu Mandal, Prakasam Dist",,1174.3,79.560344,15.348463
973,973,Andhra Pradesh,Prakasam,"Smt. Kolla Raghavamma, W/O Somasekhar Rao,","Near Door No.2-11, Survey No.528/1, Kunkalamarru Panchavat, Karamchedu Mandal, Prakasam",,367.75,79.560344,15.348463
974,974,Andhra Pradesh,Prakasam,Sravani Cold Storage Pvt Ltd,"NEAR AUTO NAGAR, YEDUGUNDCA PADU",T.V.S.R.K.Prasad,6000.0,,
975,975,Andhra Pradesh,Prakasam,Sreegayatri Cold Storage,SANTHANOOTALAPADU VILAGE & MANUAL,Rammohanrao,6000.0,79.9413199,15.5425351
976,976,Andhra Pradesh,Prakasam,Sri Mandava Adinarayana & Chinnam Koteswara Rao,"S.No.346, M.Muppala Village, Naguluppalapadu Mandal, Prakasm District",,528.0,79.560344,15.348463
977,977,Andhra Pradesh,Prakasam,Sri Pamidi Chaitanya,"Sy.No.700,720/3, 721 & 722, Tangattur, Prakasam Dt.",,9907.0,79.560344,15.348463
978,978,Andhra Pradesh,Prakasam,Sri Pamidi Chakradhar,"Sy.No.700,720/3, 721 & 722, Tangattur, Prakasam Dt.",,9838.0,79.560344,15.348463
979,979,Andhra Pradesh,Prakasam,Sri Pamidi Jagadeesh,"Sy.No.700,720/3, 721 & 722, Tangattur, Prakasam Dt.",,9907.0,79.560344,15.348463
980,980,Andhra Pradesh,Prakasam,Sri Pamidi Madhusudhana Rao,"Sy.No.700,720/3, 721 & 722, Tangattur, Prakasam Dt.",,9922.0,79.560344,15.348463
981,981,Andhra Pradesh,Prakasam,Sri Syed Moula Rural Godown,"Sy No 716/C, Bodduvanipalem, Korispadu Mandal",,10000.0,80.042722,15.7525204
982,982,Andhra Pradesh,Prakasam,Sri Venkata Sai Boiled And Raw Rice Mill (Partnership),"Medarametla, Korisepadu Mandal",,2800.0,80.042722,15.7525204
983,983,Andhra Pradesh,Prakasam,Srichandana Cold Storage Pvt Ltd,VANKAYALAPADU VILLAGE EINKOLE MANDAL PUSAPADU ADDA,G.V.R.N..Prasad,10000.0,80.2223596,15.9117451
984,984,Andhra Pradesh,Prakasam,Sridurga Cold Storage,EDUMUDI ROAD UPPUGONDURU VILAGE NAGULUPPALAPADU MA,Mohanreddy,4600.0,80.1114512,15.6394647
985,985,Andhra Pradesh,Prakasam,Srihariths Cold Storage,YENDLUR DONKA PERNA MITTA,Narayanarao,5000.0,,
986,986,Andhra Pradesh,Prakasam,Srimahalaxmi Cold Storage,NH-5 THROVAGUNTA ONGOLE,B.Nagaraju,5485.0,80.0558551,15.55229
987,987,Andhra Pradesh,Prakasam,Srinidhi Cold Storage,PARCHOOR VILAGE MANDAL INKOLLU ROAD,K.Srinivasrao,10000.0,80.1438126,15.9279297
988,988,Andhra Pradesh,Prakasam,Sriramaagri Cold Storages Pvt Ltd,ONDUTLA VILAGE BEST AVARIPET MANDAL,Rameshbabu,7000.0,79.1026315,15.5503073
989,989,Andhra Pradesh,Prakasam,Srisaibalaji Cold Storage,LAXMIPURAM VILAGE PODILI MANDAL,J.Kumar,5000.0,79.6181592,15.6069505
990,990,Andhra Pradesh,Prakasam,Sunder Storages,Nayanapalli Village / Vetapalem Mandal,,4769.62,80.3057484,15.7823353
991,991,Andhra Pradesh,Prakasam,Tadi Lakshmiprasanna,"R S No.14, Lakkavaram Village, Kollapudi Panchayat, Martur Mandal , Prakasam District",,10000.0,79.560344,15.348463
992,992,Andhra Pradesh,Prakasam,Tulasi Cold Storage Pvt Ltd,MUKTINOOTALAPADU VILAGE ONGOLU MANDAL,Venkatrao,8000.0,80.049922,15.5057232
993,993,Andhra Pradesh,Prakasam,Varun Storages,Nayanapalli Village / Vetapalem Mandal,,4769.62,80.3057484,15.7823353
994,994,Andhra Pradesh,Prakasam,Venumadhav Cold Storage,,Shri Sripathi Subba Rao,5000.0,,
995,995,Andhra Pradesh,Prakasam,Venumadhava Cold Storage,INKOLLU VILAGE MANDAL KONIKI ROAD,S.Subbarao,8000.0,80.0700171,15.7875971
996,996,Andhra Pradesh,Prakasam,Vijaya Purna Agro Cold Storage,Mukyhinuthalapadu,,6251.29,80.0576834,15.5377821
997,997,Andhra Pradesh,Prakasam,Vijayapurnaagro Cold Storage,"MUKTINOOTALAPADU VILAGE, NEAR MARKET YARD ONGOL",V.Ramesh,7000.0,,
998,998,Andhra Pradesh,Prakasam,Yakkati Aruna Kumari,"R S No.14, Lakkavaram Village, Kollapudi Panchayat, Martur Mandal , Prakasam District",,10000.0,79.560344,15.348463
999,999,Andhra Pradesh,Prakasam,Yalavarthi Cold Storage,NH5 RAJUPALEM VILAGE MARTUR MANDAL,Ramesh,4500.0,80.1085206,16.0057834
1000,1000,Andhra Pradesh,Prakasam,Yalawarthy Cold Storage,Rajupalem,,6649.0,79.2445265,14.2319201
1001,1001,Andhra Pradesh,Spsr Nellore,CO Aquatic Culture India Put Ltd,TUPILLI PALEM,Sasidharan,0.0,,
1002,1002,Andhra Pradesh,Spsr Nellore,Fivestarmarineexportsprivatelimited,NARAYANA REDDY PETA,Nandakumar,5.0,80.0506981,14.4677602
1003,1003,Andhra Pradesh,Spsr Nellore,Pallavy Agri Forms Put Ltd,TUPALLI PALEM,K Konda Babu,0.0,,
1004,1004,Andhra Pradesh,Spsr Nellore,RR Hachries,TUPILI PALEM,Hari Prasad,0.0,,
1005,1005,Andhra Pradesh,Spsr Nellore,Saimarineexports Pvt Ltd,NARAYANA REDDY PETA,Sundaram,15.0,80.0506981,14.4677602
1006,1006,Andhra Pradesh,Spsr Nellore,Santhi Hachari,"TUPALLI PALEM, VAKADU MANDALEM",Nagaraju,0.0,80.068424,14.0021277
1007,1007,Andhra Pradesh,Spsr Nellore,Siri Cold Storage,POTTE PALEM VALAR,Prasad,8000.0,,
1008,1008,Andhra Pradesh,Spsr Nellore,Sri Hari Hara Hacharies,"TUPALLI PALEM, VAKADU MANDALEM",Satyanarayana,0.0,80.068424,14.0021277
1009,1009,Andhra Pradesh,Spsr Nellore,Star Agrparineexportspvt.Ltd,"NARAYANA REDDY PETA, 5STAR AKNVA",Abdulaleemsyed,1293.0,,
1010,1010,Andhra Pradesh,Srikakulam,K. Vijaya Madhavi,"Nimmada Village, Kotaboombali Mandal",,4769.62,84.162498,18.520034
1011,1011,Andhra Pradesh,Srikakulam,K.Harivara Prasad,"Kotabommali, Srikakulam",,4769.62,83.8938018,18.2949165
1012,1012,Andhra Pradesh,Srikakulam,Kotha China Ramana Rao,"16-1-3, Opposite Railway Godowns, Amadalavalsa",,3377.5,83.902951,18.4101166
1013,1013,Andhra Pradesh,Srikakulam,M.Venkateshwara Rao,"Rajam Village, Rajam Panchayat",,4769.62,83.660774,18.4497303
1014,1014,Andhra Pradesh,Srikakulam,M/S Sri Vijayadurga Godown,"RS No.1003/1, Ampolu Village, Gara Mandal, Srikakulam",,675.0,83.8938018,18.2949165
1015,1015,Andhra Pradesh,Srikakulam,M/S Srikakulam District Rice Millers Association,"Sy. No.61-17, 29, 64-6, 65-5 To 21, 66-3 To 21, 67-1 To 20, 68-1,2,11,12, Ravipadu Village, Jalumuru Mandal, Srikakulam",,10000.0,83.8938018,18.2949165
1016,1016,Andhra Pradesh,Srikakulam,M/S Vedamatha Cold Storage Pvt. Ltd,Munasabpeta,,3420.0,83.9512721,18.3341039
1017,1017,Andhra Pradesh,Srikakulam,Shri K. H. V. Prasad,"Nimmada Village, Kotaboombali Mandal",,4769.62,84.162498,18.520034
1018,1018,Andhra Pradesh,Srikakulam,Sri S. Rama Rao,"Loddabhadra Village, Palasa",,4769.62,84.4109252,18.7723549
1019,1019,Andhra Pradesh,Srikakulam,Sri Venkatasai Rural Farmers Warehouse,"Survey No.72, Parvathipuram (V), Gospadu (M)",,253.5,78.4166444,15.3566805
1020,1020,Andhra Pradesh,Srikakulam,SrisaiCold Storage,"M G ROAD , CHELLURU",Trinadh,3.0,81.9916586,16.8092991
1021,1021,Andhra Pradesh,Srikakulam,T. Vaikuntha Rao And T. Veera Raju,"Loddabhadra Village, Palasa",,4769.62,84.4109252,18.7723549
1022,1022,Andhra Pradesh,Srikakulam,T.B.Gupta,"Rajam Village, Rajam Panchayat",,4769.62,83.660774,18.4497303
1023,1023,Andhra Pradesh,Srikakulam,Vedmathainfraproject Pvt Ltd,VEDMATHACOLDSTORGE,Ravikumar,36.0,,
1024,1024,Andhra Pradesh,Srikakulam,Vihakadary,"PLOT NO-2, EENADUPRESS, PEDAPADU",Rajasekhar,15.0,81.038783,16.64175
1025,1025,Andhra Pradesh,Visakhapatanam,ANKAPALLY,,D.Laxmana Rao,10000.0,,
1026,1026,Andhra Pradesh,Visakhapatanam,Konathala Cold Storage Pvt Ltd,"S.NO.210&211, NH5, BAYYAVARAM, KASIMKOTA, ANAKAPAL",Jaggaraonaidu,9000.0,,
1027,1027,Andhra Pradesh,Visakhapatanam,M/S Bapaig Agro Products Cold Storage,Tallavalasa,,3600.0,83.4032804,17.9034148
1028,1028,Andhra Pradesh,Visakhapatanam,MS Sri Nookambika Cold Storage,Dibba Street Gavarapalem Anakapalli V Visakhapatnam District,Shri Konatala Govinda Appala Naidu,4446.0,83.0129244,17.6831783
1029,1029,Andhra Pradesh,Visakhapatanam,Sprintexportspvpltd,08562- 244149,Subbarao,0.0,-74.5814773,40.0723409
1030,1030,Andhra Pradesh,Visakhapatanam,"Sri S L Nooka Raju, Anakapalle","Survey No.54/2A, 54/3A, 54/4A. 54/2B, 54/2G, 554/4B, 54/2C, 54/2F, 54/4C, 54/2D, 54/4D, 54/2E, 54/D, 54/17B, 54/7B, 54/1C, 54/7A, 54/17A, 54/2H At Sankaram Village And Panchayat, Anakapalle Mandal, Visakhapatnam District",,9500.0,82.7347142,17.7240124
1031,1031,Andhra Pradesh,Visakhapatanam,Sri Sai Agencies,APPARAO[At]CORNCLUB[Dot]INFO,Apparao,120.0,,
1032,1032,Andhra Pradesh,Visakhapatanam,Sweets Dairy Foods,RAJUVVN171[At]YAHOO[Dot]CO[Dot]IN,Raju,350.0,,
1033,1033,Andhra Pradesh,Visakhapatanam,VIZAG-I,"Kancherapaem,Vizag-530008",P Bharathi,36330.0,83.2746836,17.7343985
1034,1034,Andhra Pradesh,Visakhapatanam,VIZAG-II,"Near New Calltex Gate Unit 2 , Navel Base Port - 530014",D Laxamana Rao,53970.0,83.277359,17.6785358
1035,1035,Andhra Pradesh,Vizianagaram,B. Appala Narasaiah,"Survey No. 11/1,11/3, K.L.Puram Panchayat, Vizianagaram Mandal",,4769.62,83.3955506,18.1066576
1036,1036,Andhra Pradesh,Vizianagaram,Bandaru Satyanarayanamurthy,"R.S No.93/2, Palagara Village, Balajipeta Mandal, Vizianagaram",,810.0,83.3955506,18.1066576
1037,1037,Andhra Pradesh,Vizianagaram,K. Laxmi Kiran,"Survey No. 11/3, K.L.Puram Panchayat, Vizianagaram Mandal",,4769.62,83.3955506,18.1066576
1038,1038,Andhra Pradesh,Vizianagaram,M/S Gruha Deepika Constructions (K. Venkata Nageswara Rao ),"Survey No. 11/3, K.L.Puram Panchayat, Vizianagaram Mandal",,4769.62,83.3955506,18.1066576
1039,1039,Andhra Pradesh,Vizianagaram,M/S Harshartna Industries Pvt. Ltd.,Mutcherlavalasa,,3150.0,83.2960831,18.4546713
1040,1040,Andhra Pradesh,Vizianagaram,M/S Satya Constructions ( M. Srinivasa Rao ),"Survey No. 11/1,11/3, K.L.Puram Panchayat, Vizianagaram Mandal",,4769.62,83.3955506,18.1066576
1041,1041,Andhra Pradesh,Vizianagaram,SSSVK Cold Storage,Gajularega,,4727.08,83.4009712,18.1270587
1042,1042,Andhra Pradesh,Vizianagaram,Sri Satya Srinivasa Cold Storage Pvt Ltd,,Shri B Ramakrishna,7000.0,,
1043,1043,Andhra Pradesh,West Godavari,A Ramakrishna,"Tetali, Tanuku Mandal",,4769.0,81.6868177,16.7541306
1044,1044,Andhra Pradesh,West Godavari,A Ramakrishna & A Radhakrishna,"Tetali, Tanuku Mandal",,4769.0,81.6868177,16.7541306
1045,1045,Andhra Pradesh,West Godavari,A Sudha Rani,"Tetali, Tanuku Mandal",,4769.0,81.6868177,16.7541306
1046,1046,Andhra Pradesh,West Godavari,A Vivekananda & Suresh,"Tetali, Tanuku Mandal",,4769.0,81.6868177,16.7541306
1047,1047,Andhra Pradesh,West Godavari,A.Krishna Rao,Vamguru Eluru Mandal,,4769.62,81.0952431,16.7106604
1048,1048,Andhra Pradesh,West Godavari,A.Sri Geeta,Vamguru Eluru Mandal,,4769.62,81.0952431,16.7106604
1049,1049,Andhra Pradesh,West Godavari,Alluri Venkateswara Rao,"RS No.70/1, 70/13, DNo.3-96, Kurela Gudem Village, Bhimadole Mandal, West Godavri District",,262.0,81.3399414,16.9174181
1050,1050,Andhra Pradesh,West Godavari,B Narendra Kumar,"Tetali, Tanuku Mandal",,4769.0,81.6868177,16.7541306
1051,1051,Andhra Pradesh,West Godavari,B Veera Venkateswara Rao & B Krishnamurthy,"R S No.504/13, Near Panchayat Road, Kamavarapukota Village And Mandal, West Godavari",,567.34,81.3399414,16.9174181
1052,1052,Andhra Pradesh,West Godavari,B.Subhashini,Vamguru Eluru Mandal,,4769.62,81.0952431,16.7106604
1053,1053,Andhra Pradesh,West Godavari,"Bolla Veeraswamy, Bolla Laxmana Swamy, Bolla Venkata Swamy And Bolla Raghuramaiah","RS No. 37/6, Near NagarajuPeta, Palakol",,2400.0,81.7253474,16.5179401
1054,1054,Andhra Pradesh,West Godavari,Ch. Kamala Devi,"Kata Koteswaram Village, Nidadavolu Mandal",,4769.62,81.6634478,16.8970864
1055,1055,Andhra Pradesh,West Godavari,Ch. Rajendra Prasad,"Kata Koteswaram Village, Nidadavolu Mandal",,4769.62,81.6634478,16.8970864
1056,1056,Andhra Pradesh,West Godavari,Ch.Ranganadha Raju,Vamguru Eluru Mandal,,4769.62,81.0952431,16.7106604
1057,1057,Andhra Pradesh,West Godavari,D.K.P.U.V.Satyanarayana Raju,"Y.S. Palem, Lakshmaneswaram Post, Narsapur Mandal",,4769.0,78.2829603,17.7386289
1058,1058,Andhra Pradesh,West Godavari,Godithi Jyothi,"S.No.35/2, Village :Badampudi, Mandal:Ungutur",,1241.0,81.4230383,16.8218926
1059,1059,Andhra Pradesh,West Godavari,Golla Venkata Satyanarayana,"R S No.463/2, Bondadapeta Kalla Mandal , West Godavari District",,229.0,81.3399414,16.9174181
1060,1060,Andhra Pradesh,West Godavari,K Annapurna,"Bhimavaram, Akividu (M)",,4769.62,81.3767431,16.5817724
1061,1061,Andhra Pradesh,West Godavari,K Bapi Raju,"Bhimavaram, Akividu (M)",,4769.62,81.3767431,16.5817724
1062,1062,Andhra Pradesh,West Godavari,K Krishnam Raju,"Bhimavaram, Akividu (M)",,4769.62,81.3767431,16.5817724
1063,1063,Andhra Pradesh,West Godavari,K Ranga Raju,"Bhimavaram, Akividu (M)",,4769.62,81.3767431,16.5817724
1064,1064,Andhra Pradesh,West Godavari,K S C R Jhansi Rani,"Siddapuram, Akividu",,4769.62,81.3767431,16.5817724
1065,1065,Andhra Pradesh,West Godavari,K. Bindu Madhuri,"Kata Koteswaram Village, Nidadavolu Mandal",,4769.62,81.6634478,16.8970864
1066,1066,Andhra Pradesh,West Godavari,K. Nanda Kishore,"Kata Koteswaram Village, Nidadavolu Mandal",,4769.62,81.6634478,16.8970864
1067,1067,Andhra Pradesh,West Godavari,K. Suryanarayana Raju,"Y.S. Palem, Lakshmaneswaram Post, Narsapur Mandal",,4769.0,78.2829603,17.7386289
1068,1068,Andhra Pradesh,West Godavari,KR K Murthy Raju,"Siddapuram, Akividu",,4769.62,81.3767431,16.5817724
1069,1069,Andhra Pradesh,West Godavari,Kamarsu Rajendra Prasad,"S.No.504/2, Duvva Village, Old NH 5 Road, Mandal: Tanuku",,530.89,81.6769714,16.7565815
1070,1070,Andhra Pradesh,West Godavari,M. Achimamba,"Arugolanu Village , Tadepalligudem Mandal",,9539.24,81.5258027,16.815269
1071,1071,Andhra Pradesh,West Godavari,M. Gopal Krishna Gokhale,"Arugolanu Village , Tadepalligudem Mandal",,9539.24,81.5258027,16.815269
1072,1072,Andhra Pradesh,West Godavari,M. Gopala Krishna,"Vijjeswaram, Nidadavolemandal, West Godavari District",,144.0,81.3399414,16.9174181
1073,1073,Andhra Pradesh,West Godavari,M. Sridevi,"Arugolanu Village , Tadepalligudem Mandal",,9539.24,81.5258027,16.815269
1074,1074,Andhra Pradesh,West Godavari,M. Sridevi,"Kata Koteswaram Village, Nidadavolu Mandal",,4769.62,81.6634478,16.8970864
1075,1075,Andhra Pradesh,West Godavari,M. Venkateswara Rao,"Arugolanu Village , Tadepalligudem Mandal",,9539.24,81.5258027,16.815269
1076,1076,Andhra Pradesh,West Godavari,M/S Abhiruchi Foods,"Mallipudi, West Godavari District",,931.0,81.3399414,16.9174181
1077,1077,Andhra Pradesh,West Godavari,"M/S Chaitanya Traders (Shri Pulagam Satti Reddy), R.S.No. 351,352, Kunchinapally Village, Tadepalligudem Town & Mandal, West Godavari","M/S Chaitanya Traders (Shri Pulagam Satti Reddy), R.S.No. 351,352, Kunchinapally Village, Tadepalligudem Town & Mandal, West Godavari",,6208.0,81.3399414,16.9174181
1078,1078,Andhra Pradesh,West Godavari,M/S Gudimetla Rami Reddy And Co.,"Mallipudi, West Godavari District",,929.0,81.3399414,16.9174181
1079,1079,Andhra Pradesh,West Godavari,M/S Kakarla Neelaveni Rural Godowns(Smt Kakarla Neelaveni),"RS.No.351/3, Sanjeevapuram Village & Panchayat, Nandhigudem Revenue Village, Gopalapuram Mandal, West Godavari",,4181.0,81.3399414,16.9174181
1080,1080,Andhra Pradesh,West Godavari,"M/S Penmatsa Valli Kalyani Rural Godowns,","RS No 185, Mettauppaaragudem, Kunchinapalli Village, Tadepalligudem",,5517.13,81.5316033,16.8072523
1081,1081,Andhra Pradesh,West Godavari,M/S Rajya Lakshmi Modern Rice Mill (Shri Gottumukkala Sri Rama Raju And 9 Others),"Near West Railway Gate, Akividu",,2000.0,81.3767431,16.5817724
1082,1082,Andhra Pradesh,West Godavari,M/S Sri Venkata Rama Krishna Rice Mill,"RS No. 309/1 To4, 310/1 To4, Akividu, West Godavari",,1005.87,81.3399414,16.9174181
1083,1083,Andhra Pradesh,West Godavari,Manihamsa Storage Yards,"Penumadam Road., Sabby Vari Peta,Palakollu",,4769.0,81.7253474,16.5179401
1084,1084,Andhra Pradesh,West Godavari,"Mrs.VV Padmavathi, M/S Satya Durga Storages","Pathipadu, Pentapadu Mandal, West Godavari",,9600.0,81.3399414,16.9174181
1085,1085,Andhra Pradesh,West Godavari,N. Rama Parwathi,"Arugolanu Village , Tadepalligudem Mandal",,9539.24,81.5258027,16.815269
1086,1086,Andhra Pradesh,West Godavari,P Lakshmi Kantham,"Siddapuram, Akividu",,4769.62,81.3767431,16.5817724
1087,1087,Andhra Pradesh,West Godavari,P Ramachandra Rao,"Tetali, Tanuku Mandal",,4769.0,81.6868177,16.7541306
1088,1088,Andhra Pradesh,West Godavari,P. Harinath & P. Sesharatnam,"Saripalle Village, Ganapavaram Mandal",,3608.55,,
1089,1089,Andhra Pradesh,West Godavari,P. Jagannadha Raju & 7 Others,"Mattaparu Village, Poduru Mandal, West Godavari",,10000.0,81.3399414,16.9174181
1090,1090,Andhra Pradesh,West Godavari,P.N.V. Ramana,"Kata Koteswaram Village, Nidadavolu Mandal",,4769.62,81.6634478,16.8970864
1091,1091,Andhra Pradesh,West Godavari,P.Nagendra Prasad,Vamguru Eluru Mandal,,4769.62,81.0952431,16.7106604
1092,1092,Andhra Pradesh,West Godavari,P.Satyavani,Vamguru Eluru Mandal,,4769.62,81.0952431,16.7106604
1093,1093,Andhra Pradesh,West Godavari,P.V. Ramakrishna Rao & P. Hema Laxmi Shakuntala,"Saripalle Village, Ganapavaram Mandal",,3608.55,,
1094,1094,Andhra Pradesh,West Godavari,Penumatsa Radhika,"S.No.125/5, Village : Komaravaram, Mandal : Tanuku",,201.0,81.6769714,16.7565815
1095,1095,Andhra Pradesh,West Godavari,Perumalla Venkata Rama Krishna Rao & Smt. Perumalla Hema Laxmi Shakuntala,"Prathipadu Village, Pentapadu Mandal, West Godavari District",,2611.0,81.3399414,16.9174181
1096,1096,Andhra Pradesh,West Godavari,Ramanjajneya Modern Rice Mill ( Managing Partner- P. Ramanjanenya,"RS. NO. 292,293, Cherukuvada Village, Undi Mandal, West Godavari District",,3366.0,81.3399414,16.9174181
1097,1097,Andhra Pradesh,West Godavari,S. Deepa Devi,"Kata Koteswaram Village, Nidadavolu Mandal",,4769.62,81.6634478,16.8970864
1098,1098,Andhra Pradesh,West Godavari,S. Sailaja,"Kata Koteswaram Village, Nidadavolu Mandal",,4769.62,81.6634478,16.8970864
1099,1099,Andhra Pradesh,West Godavari,S. Sashikala,"Kata Koteswaram Village, Nidadavolu Mandal",,4769.62,81.6634478,16.8970864
1100,1100,Andhra Pradesh,West Godavari,S. Satyanarayan Reddy,"Kata Koteswaram Village, Nidadavolu Mandal",,4769.62,81.6634478,16.8970864
1101,1101,Andhra Pradesh,West Godavari,Shri Bonda Venkata Kanaka Ratnam,"Bhimavaram To Narasapuram Road, Taderu Village, Bhimavaram Mandal",,1860.0,81.521241,16.544893
1102,1102,Andhra Pradesh,West Godavari,Shri Burugupalli Naga Vara Prasad,"RS No.650/3, Samisragudem, Nidadavole, West Godavri",,167.0,81.3399414,16.9174181
1103,1103,Andhra Pradesh,West Godavari,Shri Chitturi Subbarayudu,"RS No. 163/8, Undrajavaram Mandal, Velivennu",,403.0,81.687621,16.8416183
1104,1104,Andhra Pradesh,West Godavari,Shri Gadiraju Narayana Raju,"S.No.171/9, Apparaopeta, Akividu Mandal, West Godavri District",,241.0,81.3399414,16.9174181
1105,1105,Andhra Pradesh,West Godavari,Shri Panduri Durga Rao S/O Gopayya,"Survey No.18-4, K Gokavaram Village & Panchayat Lingapalem Mandal, West Godavari District",,179.0,81.3399414,16.9174181
1106,1106,Andhra Pradesh,West Godavari,Shri Penumarthi Bapi Raju,"Survey No.82/2A2, 2A3, 2A4, Velpur Railway Station Road, Velpur Village, Tanuku Mandal, West Godavri District",,1289.71,81.3399414,16.9174181
1107,1107,Andhra Pradesh,West Godavari,Shri Reddy Satyanarayana And Smt. Reddy Venkata Lakshmi,"Survey No. 936, Prathipadu, Tadepalligudem",,2000.0,81.5316033,16.8072523
1108,1108,Andhra Pradesh,West Godavari,Shri Veeravalli Lakshmana Rao,"Survey No.728/1, Village : Bandadapeta, Kalla Mandal, West Godavari District",,299.0,81.3399414,16.9174181
1109,1109,Andhra Pradesh,West Godavari,Shri. Gandraju Ramakrishnam Raju,"Survey No. 630/2A, 641/5, Jaganadhapuram, Village, Tadepalligudem Rural Mandal, West Godavari Dist",,270.0,81.3399414,16.9174181
1110,1110,Andhra Pradesh,West Godavari,Smt Batchu Venkata Mutya Pushpavati RG,Velpur/West Godavari,,1123.49,81.6684208,16.7161242
1111,1111,Andhra Pradesh,West Godavari,Smt Bodapati Venkatalakshmi,Velpur/West Godavari,,315.89,81.6684208,16.7161242
1112,1112,Andhra Pradesh,West Godavari,Smt Dantuluri Saraswati,"R S No.229/1, L V N Puram Village, Anakoderu Village, Bhimavaram Mandal, W G District",,285.0,81.3399414,16.9174181
1113,1113,Andhra Pradesh,West Godavari,Smt. Banda Padmavathi And Smt. Banda Lavanya,"Tenali, Tanuku Mandal",,8777.0,81.6868177,16.7541306
1114,1114,Andhra Pradesh,West Godavari,Smt. Godithi Lakshmi,"Badampudi VIII, Unguturu Mandal, West Godavari Dist",,1240.0,81.3399414,16.9174181
1115,1115,Andhra Pradesh,West Godavari,Smt. Nukala Nagabala And Smt. Nukala Savitri,"Kommarada Village, Bhimvaram",,707.0,81.521241,16.544893
1116,1116,Andhra Pradesh,West Godavari,Sri Balaji Godowns,Velpur/West Godavari,,596.37,81.6684208,16.7161242
1117,1117,Andhra Pradesh,West Godavari,Sri K.S.Bramhaji,"Sy. No. 435/1, 435/2, 434/1, 454/11, Lankalakoderu Village, Palakol Mandalam, West Godavari Dt.",,2562.0,81.3399414,16.9174181
1118,1118,Andhra Pradesh,West Godavari,Sri Kovuri Gandhi,"Prathipadu Village, Pentapadu Mandal, W.Godavari",,6311.0,,
1119,1119,Andhra Pradesh,West Godavari,Sri Kunaparaju Seetaramanjaneya Varma,"R.Sy.No.397, 396 Of Aredu Village, Undi Mandal, West Godavari District",,411.264,81.3399414,16.9174181
1120,1120,Andhra Pradesh,West Godavari,"Sri Kurella Durga Prasad, S/O Guru Raju","R.S. No. 70/1 Kurellagudem Village, Bhimadole Mandal, West Godavari District",,500.0,81.3399414,16.9174181
1121,1121,Andhra Pradesh,West Godavari,"Sri Lahari Godowns, Sri Vudimudi Srinivasa Raju, Sy.No. 125/1, 2B, 2C, Arulla Panchayat, Tadepalligudem Mandal, West Godavari Dist.","Sri Lahari Godowns, Sri Vudimudi Srinivasa Raju, Sy.No. 125/1, 2B, 2C, Arulla Panchayat, Tadepalligudem Mandal, West Godavari Dist.",,2582.36,81.3399414,16.9174181
1122,1122,Andhra Pradesh,West Godavari,Sri Oblisetty Nagabhusanam,"RS.No.413/2, Near Door No. 4-37, Bayyanagudem Village And Panchayat, Koyyalagudem Mandal, West Godavari",,100.0,81.3399414,16.9174181
1123,1123,Andhra Pradesh,West Godavari,Sri P K V V V Satyanarayana,"Kagulampadu, Prathipadu(V), Pentapadu(M), West Godavari",,615.0,81.3399414,16.9174181
1124,1124,Andhra Pradesh,West Godavari,Sri Perumalla Srinivasa,"Prathipadu Village, Pentapadu Mandal, West Godavari District",,1734.0,81.3399414,16.9174181
1125,1125,Andhra Pradesh,West Godavari,Sri Sagiraju Srinivasa Raju,"RS. No. 273/3, 273/4, Jinnuru Village, Poduru Mandal",,962.28,,
1126,1126,Andhra Pradesh,West Godavari,Sri Tangella Ranga Rao,"RS No.753/7, Mutyalapalli Rd., Mogaltur (V & M)",,200.0,81.6064007,16.4129245
1127,1127,Andhra Pradesh,West Godavari,Sri Venkateswara Modern Boiled And Rice Mill,"Sy No 277/2, 228/4, Vuradallapalem, Attili Mandal",,937.0,81.6078597,16.6870077
1128,1128,Andhra Pradesh,West Godavari,T.Subramanyamma,Vamguru Eluru Mandal,,4769.62,81.0952431,16.7106604
1129,1129,Andhra Pradesh,West Godavari,V Jayalakshmi Devi,"Bhimavaram, Akividu (M)",,4769.62,81.3767431,16.5817724
1130,1130,Andhra Pradesh,West Godavari,V Kishore Kumar Varma,"Bhimavaram, Akividu (M)",,4769.62,81.3767431,16.5817724
1131,1131,Andhra Pradesh,West Godavari,V.Kamala,Adivipalem Palakol,,4769.62,81.7595603,16.5106147
1132,1132,Andhra Pradesh,West Godavari,V.Narasimha Raju,Vamguru Eluru Mandal,,4769.62,81.0952431,16.7106604
1133,1133,Andhra Pradesh,West Godavari,V.Narasimha Raju,Vamguru Eluru Mandal,,4769.62,81.0952431,16.7106604
1134,1134,Andhra Pradesh,West Godavari,V.Padmaja,Adivipalem Palakol,,4769.62,81.7595603,16.5106147
1135,1135,Andhra Pradesh,West Godavari,V.Ramachandra Raju,Adivipalem Palakol,,4769.62,81.7595603,16.5106147
1136,1136,Andhra Pradesh,West Godavari,V.Ranga Raju,Adivipalem Palakol,,4769.62,81.7595603,16.5106147
1137,1137,Andhra Pradesh,West Godavari,V.Ravi Varma,Adivipalem Palakol,,4769.62,81.7595603,16.5106147
1138,1138,Andhra Pradesh,West Godavari,V.Suhita,Adivipalem Palakol,,4769.62,81.7595603,16.5106147
1139,1139,Andhra Pradesh,West Godavari,V.Sundaraiah,Adivipalem Palakol,,4769.62,81.7595603,16.5106147
1140,1140,Andhra Pradesh,West Godavari,Venkata Storage Yards,"Penumadam Road., Sabby Vari Peta,Palakollu",,4769.0,81.7253474,16.5179401
1141,1141,Andhra Pradesh,West Godavari,Vijayanthi,Vamguru Eluru Mandal,,4769.62,81.0952431,16.7106604
