STATE,DISTRICT,Storage name,Address,Manager Name,capacity,Longitude,Latitude
Andaman And Nicobar Islands,South Andamans,Islander Marine Pvt Ltd,PORT BLAIR,Senthil O R,99,92.7264828,11.6233774
Andaman And Nicobar Islands,South Andamans,Joy Josephs,GOVIND NAGAR,Joy Josephs,15,80.3093914,26.4492218
Andaman And Nicobar Islands,South Andamans,New India Marine Pvt Ltd,NEW WANDOOR,Vincent Alvbiua,99,76.2360376,11.1955096
Andaman And Nicobar Islands,South Andamans,Ranjit Paul,B/85 INDUSTRIAL STATE DOLLYGUNJ,Ranjit Paul,60,92.7120575,11.6357989
Andaman And Nicobar Islands,South Andamans,Ten Tonne Cold Storage Ice Plant,LITTLE ANDAMAN,D. Mukherjee,99,2.1521917,41.3923703
Andaman And Nicobar Islands,South Andamans,Ten Tonne Cold Storage Ice Plant,CYLONE BASTHI LITTLE ANDAMAN,D Mukherjee,999,2.1521917,41.3923703
Andhra Pradesh,Chittoor,Bismilla Fruits,"KALLUR, BACK SIDE POLICE STATION, KALLUR",Nabisahab,6,79.0004517,13.5583316
Andhra Pradesh,Chittoor,G.Venkatramana Reddy Fruits,PUNGANOOR OLD BUS STAND,B.Sudhakar,5,78.5712022,13.3664136
Andhra Pradesh,Chittoor,Jain Unit 1,GOLLPALLI,Gollapalli,17000,80.90931479999999,16.7269099
Andhra Pradesh,Chittoor,KSA AGRI Cold Storage PVT LTD.,PUNGANOOR,Iftekhr Ali Ahmed,9000,78.5713232,13.368608
Andhra Pradesh,Chittoor,Madina Fruits,"PILLERU ROAD, MAIN ROAD, KALLUR",Ps.Sayed Basha,10,79.0004517,13.5583316
Andhra Pradesh,Chittoor,Mkb Cold Storage Pvt Ltd,"PUNGANUR, ROYALPETA ROAD",M.Jagdish,4000,80.2640711,13.0539587
Andhra Pradesh,Chittoor,Murgan Cold Storage Pvt Ltd,RAMASAMUDRAM ROAD PUNGANUR,K.Vasu,4500,78.5713232,13.368608
Andhra Pradesh,Chittoor,Sab Cold Storage,GUDURPALLI VILLEGE PUNGANUR,S.Afzal,8000,78.5713232,13.368608
Andhra Pradesh,Chittoor,Said Sairam Cold Storage Pvt Ltd,"2/250/B, AMMACHERU MITTA, KADIRI ROAD, MADANAPALLY",Co.Nagarajgupta,2500,78.50100069999999,13.5560496
Andhra Pradesh,Chittoor,Sri Lakshmivinayaka Fruits Mundi A/C Chamber,"FLAT NO 17, MANGO MARKET, TIRUCHANOOR ROAD, TIRUPA",B.Purushothamreddy,30,79.4191795,13.6287557
Andhra Pradesh,Chittoor,Sri.Lakshmivenkateshwarabanana Traders,"SHOP NO 5, AMC MARKET YARD, MARKET YARD, TIRUPATHI",S.Jayakrishana,8615,79.4191795,13.6287557
Andhra Pradesh,Chittoor,Srinifoodpark,MOGILI,Bhanu,300,78.8364948,13.1847107
Andhra Pradesh,Guntur,Amaralingeswara Cold Storage Pvt Ltd,MACHARLAROAD NADIKUDI VILAGE DACHEPALLY MANDAL,Vankayala1 Satyanarayana,6000,79.7068596,16.5879495
Andhra Pradesh,Guntur,Amaravathi Cold Storage,"578/3, LAAPURAM, NEAR MIRCH YARD ANKI REDDY PALEM",Srinivadarao,6636,80.41071389999999,16.2864231
Andhra Pradesh,Guntur,Amulya Cold Storage m,DNO9-82 NH-5 LALPURAM BY PASS ROAD,Venkateswrao,4099,80.22192609999999,13.1425492
Andhra Pradesh,Guntur,Boppudi Cold Storage Pvt Ltd,NH 5 BOPPUDI VILAGE CHILAKALURIPET MANDAL,Kumar,3200,80.1656205,16.0948008
Andhra Pradesh,Guntur,Brahmari Cold Storage,ANKIREDDYPALLI,Nagaraju,7943,79.0072883,15.3960875
Andhra Pradesh,Guntur,Chilakaluripet Cold Storage Pvt Ltd,NH5 TATA PUDI VILAGE CHPETA MANDAL,Ramarao,8000,80.1655471,16.0944603
Andhra Pradesh,Guntur,Dasu,ANKIREDDY PALEM NH-5BY PASS ROAD,Syam,8086,-71.5723953,43.1938516
Andhra Pradesh,Guntur,Dhanyalaxmi Cold Storage Pvt Ltd,GURAJALA VILAGE MANDAL,V.Suresh,5000,79.6371314,16.5580212
Andhra Pradesh,Guntur,Driveway Cold Storage,LALPURAM NH-5 PROGRAM BY PAS,A Subbarao,4510,80.4494344,16.2868497
Andhra Pradesh,Guntur,G.S.R. Cold Storage Pvt Ltd,CHPETA ROAD LAALAPURAM PANVHAITI,Sriharirao,10000,82.0031455,16.5774798
Andhra Pradesh,Guntur,Guntur Cold Storage,"SUBBAREDDY NAGAR,ANKIREDDY PALEM",Ramesh,2833,80.39230789999999,16.2876751
Andhra Pradesh,Guntur,Himagiri Cold Storage,NALLAPADU ROAD,Srimanrayanaa,3500,80.3939109,16.3063385
Andhra Pradesh,Guntur,Jaibalaji Cold Storage Pvt Ltd,GUNTUR ROAD KOTANEMALIPURI VILAGE RAJUPALEM MANDAL,K.Rameshbabu,4000,79.9296871,16.4532676
Andhra Pradesh,Guntur,Jayalakshmi Cold Storages,"AGRICULTURAL MARKET YARD PREMISES, NALLAPADU ROAD",P Srinivas,2744,80.3939109,16.3063385
Andhra Pradesh,Guntur,JyothiswaroopaColddivison Pvt Ltd,NH5DNO9-134 ANKI REDDY PALEM,Venkatreddy,6300,80.2091128,15.9060837
Andhra Pradesh,Guntur,Kanipakavigneswara Cold Storage,NH-5 BOPUDI CHILAKALURIPET,Haribabu,6000,80.1655471,16.0944603
Andhra Pradesh,Guntur,Karempudi Cold Storage Pvt Ltd,"JULLAKOL ROAD, PETASANNI GANDLAKARAMPUDI",Mallikarjunrao,4800,79.7568107,16.4191158
Andhra Pradesh,Guntur,Kaveri,GT ROAD,Arun,2000,74.2390965,31.8847743
Andhra Pradesh,Guntur,Kaveri Multi Purpose,NH 5 MARCHI YARD,Arun,3000,77.1031998,31.0306204
Andhra Pradesh,Guntur,Kommineni Cold Storage,NH5 DN O5-72 ANKIREDDY PALEM,Swamydhar,4000,83.9275643,18.3159269
Andhra Pradesh,Guntur,Kondaveedu Cold Storage,MIRCH YARDNALLAPADU ROAD,Rambabu,4000,80.3939109,16.3063385
Andhra Pradesh,Guntur,KurriAnnapurnammaGovindaReddy Cold Storage,ANKIREDDY PALEM NH-5,K Sambireddy,7000,83.9275643,18.3159269
Andhra Pradesh,Guntur,Kurriannapurnammagovindareddy Cold Storage Pvt Ltd,NH5 DN O5-45 ANKIREDDY PALEM,Sambireddy,5625,83.9275643,18.3159269
Andhra Pradesh,Guntur,Lakshminarasimha Cold Storage,ANKIREDDY PALEM VILLAGE,Satyanarayana,5438,80.39230789999999,16.2876751
Andhra Pradesh,Guntur,Lakshmiprasanna Cold Storage,"LALPURAM, NH-5",Anasuya,5000,77.1031998,31.0306204
Andhra Pradesh,Guntur,Laxmi Vidhya Cold Storage,LALAPURAM,Bhanu,4000,80.32827379999999,17.2181353
Andhra Pradesh,Guntur,Laxminarasimha Cold Storage,"D NO 658/A 659B, 660/A ANKIREDDY PALEM VILLAGE",Venkatapathiraju,5400,80.39230789999999,16.2876751
Andhra Pradesh,Guntur,Laxmivallabha Cold Storage,NH5 LALAPURAM BY PASS ROAD,B Hanumantharao,9763,82.0031455,16.5774798
Andhra Pradesh,Guntur,MS K S R Cold Storage Pvt Ltd,D No 466 3 Nadikudi V Dachepalli M Guntur District,Shri K Sreenivasa,11000,79.7068596,16.5879495
Andhra Pradesh,Guntur,MS Vasaviratna Cold Storage Pvt Ltd,Thikkireddypalem V Parthipadu M Guntur District,Shri Kothuri Venkata Appa Rao,7000,80.3358008,16.1813812
Andhra Pradesh,Guntur,Mahalaxmi Cold Storage Pvt Ltd,DURGI ROAD MACHARLA VILAGE MANDAL,S.K.Ameer,4675,79.4365006,16.4760816
Andhra Pradesh,Guntur,Mittapalemnarayanaswamy Cold Storage,ANKIREDDY PALEM NH-5,Prasadrao,4000,83.9275643,18.3159269
Andhra Pradesh,Guntur,Ms Palanadu Cold Storage,Rentachintala Village Guntur Dist,Ch Madhu Babu,7000,79.5524538,16.5544667
Andhra Pradesh,Guntur,Ms Uday Agro Technology Pvt Ltd,Sy No 66 B Etukur Village Old Guntur Guntur Distt,Shri J K Praveena Kumari,5000,80.44675889999999,16.2896415
Andhra Pradesh,Guntur,Nandini,ANKIREDDIPALEM VILLAGE,Satishverma,5000,80.39230789999999,16.2876751
Andhra Pradesh,Guntur,Nandini Cold Storage,ANKIREDDYPALEM VILLAGE,B Subhash,4700,80.39230789999999,16.2876751
Andhra Pradesh,Guntur,Palanadu Cold Storage,RENTACHINTALA VILAGE NEAR MARKET YARD MACHARLA ROA,A.Somasekhar,5400,79.5524538,16.5544667
Andhra Pradesh,Guntur,Panchamukha Cold Storage,"NH-5, ANKIREDDY PALEM",Srinivasarao,4000,80.39230789999999,16.2876751
Andhra Pradesh,Guntur,Pranathi Cold Storage,NH 5 MARCHI YARD,Naraaimharao,5000,77.1031998,31.0306204
Andhra Pradesh,Guntur,PsrsonsCold Storage,8-282 TENALI VDALAMUDI,Umasankarrao,3600,80.5605111,16.2355855
Andhra Pradesh,Guntur,Pushpa Athi,KANUPARRU,Krishnamurthy,8000,80.110827,16.209323
Andhra Pradesh,Guntur,Raghavendra Cold Storage,ANKIREDDY PALEM NH-5 NALLAPADU ROAD,Venkayeswarareddy,4500,80.39188949999999,16.3002007
Andhra Pradesh,Guntur,Raghavendra Cold Storage,LALAPURAM,Srinivasarao,1681,80.32827379999999,17.2181353
Andhra Pradesh,Guntur,RamyaCold Storage,"IST LANE LAKSHMIPURAM, VIJAYA TOWERS",Amarswamy,2565,80.2491427,13.0538525
Andhra Pradesh,Guntur,Ratan Cold Storage,"G.N.T. ROAD,RAJAHMUNDRY",Raja,1500,81.8040345,17.0005383
Andhra Pradesh,Guntur,S.V. Cold Storage,NH5 ANKI REDDY PALEM,Surendrababu,5000,80.2091128,15.9060837
Andhra Pradesh,Guntur,Sai Cold Storage,"LALPURAM, NH-5 BY PASS ROAD",Malleswarao,5850,77.1031998,31.0306204
Andhra Pradesh,Guntur,SaisankarCold Storage,LALAPURM,Srinivasaarao,5000,80.32827379999999,17.2181353
Andhra Pradesh,Guntur,Saisivam Cold Storage,"270/1 LALPURAM BY-PASS ROAD, NH-5",Sivaramakrishna,4500,77.1031998,31.0306204
Andhra Pradesh,Guntur,Saisivam Cold Storage,NALLAPADU ROAD,Tagjavrao,3000,80.3939109,16.3063385
Andhra Pradesh,Guntur,Sambhavi,CHILAKALURIPET ROAD NEAR MARCHIYARD,Sathish,3000,80.0702897,16.2227265
Andhra Pradesh,Guntur,Sambhavi Cold Storage,ANKIREDDY PALEM NH-5,Anilkumar,3000,83.9275643,18.3159269
Andhra Pradesh,Guntur,Sambhavi Cold Storage,ANKI REDDY PALEM BY-PASS ROAD CHEK POST,Rajesh,5400,80.2091128,15.9060837
Andhra Pradesh,Guntur,Sangamdairy,VADLAMUDI VILAGE CHEBROLU MANDAL,V.Chandrasekhar,1,80.5605111,16.2355855
Andhra Pradesh,Guntur,Sarachandra Cold Storage pvttd,DNO9-63 ANKI REDDY PALEM BY PASS ROAD,Mvvrprasad,4000,80.2091128,15.9060837
Andhra Pradesh,Guntur,Sarada,NARASARAOPETA,Raghavarao,2000,80.04964989999999,16.2359181
Andhra Pradesh,Guntur,Shambavi Cold Storage,NH5 DNO 6-75 ANKI REDDY PALEM,Subbareddy,3000,80.39230789999999,16.2876751
Andhra Pradesh,Guntur,Shivaparwathi Cold Storage Pvt Ltd,GANGAVARAM VILAGE NEAR AMBAPUR AMGURAJAL MANDAL,A.Prasad,4000,72.608464,23.1509255
Andhra Pradesh,Guntur,Sindhuri Cold Storage Pvt Ltd,ANKIREDDY PALEM NH-5,Sivaramprasad,6000,83.9275643,18.3159269
Andhra Pradesh,Guntur,Sivasai Cold Storage,4-191 NALLAPADU ROAD ANKIREDDY PALEM,Tnarasi Harao,5000,80.3919698,16.3002171
Andhra Pradesh,Guntur,Sravanthi Cold Storage,BY-PASS JUNCTION ANKI REDDY PALEM NH-5,Ramarao,9350,80.2091128,15.9060837
Andhra Pradesh,Guntur,Sravanti Cold Storage,"NH 5, ANKIREDDY PALEM",Chaitanya,9350,80.39230789999999,16.2876751
Andhra Pradesh,Guntur,Sreeneelanpatilakshmiammavari,"394/1, NEW AMC YARD, DUGGIRALA",Narayana,11700,80.6271912,16.3273225
Andhra Pradesh,Guntur,Sri Ganapathi Drug Intermediates Pvt Ltd,Industrial Park Nadikudi V Dachepalli M Guntur Dt,Shri Thatikonda Koti Reddy,5400,79.7068596,16.5879495
Andhra Pradesh,Guntur,Sri Ganapathi Drug Intermediates Pvt Ltd,Industrial Park Nadikudi V Dachepalli M Guntur Dt,Shri Thatikonda Koti Reddy,5400,79.7068596,16.5879495
Andhra Pradesh,Guntur,Sri Ramachandra Deep Cold Storages,"303,SAI TOWERS, 1ST LINE,, SANTHI NAGAR",Ramesh Babu,4500,77.5992505,12.9577549
Andhra Pradesh,Guntur,Sribuvaneswari Cold Storage,NH 5 TATAPUDI VILAGE CHPETA MANDAL,Venkatewarao,14000,80.1655471,16.0944603
Andhra Pradesh,Guntur,Srichaitanya Cold Storage,NH5 DN O9-91 ANKI REDDY PALEM,Sambasivarao,3300,80.39230789999999,16.2876751
Andhra Pradesh,Guntur,Srichandrasekhara Cold Storage Pvt Ltd,LINGAYA PALEML ALUPURAM PANCHAITI,Ramana,4000,80.3940473,16.2772029
Andhra Pradesh,Guntur,Sridevi Cold Storage,LALPURAM,Ramataao,5116,80.4494344,16.2868497
Andhra Pradesh,Guntur,Sriganapathi Cold Storage,PLOT NO 2B INDUSTRIAL PARKMIRYALAGUDA ROAD NADIKUD,V.Krishnareddy,4950,72.86336349999999,22.6915853
Andhra Pradesh,Guntur,Sriharihara Cold Storage,AMARAVATHI ROAD PEDAKURAPADU VILAGE MANDAL,B.Ravichandran,6440,80.2593253,16.4697857
Andhra Pradesh,Guntur,SrimanjunadaCold Storage,BY PASS ROAD LALPURAM NH-5,Sarathbabu,10487,83.9275643,18.3159269
Andhra Pradesh,Guntur,Sripuspavathi Cold Storage Pvt Ltd,KANAPARRU VILAGE CHPETA ROAD NADENDLA MANDAL,Krishnamurthy,3400,80.110827,16.209323
Andhra Pradesh,Guntur,Sriramnjaneya Cold Storage,"NH 5, ANKIREDDY PALEM",Ramanjaneelu,8650,80.39230789999999,16.2876751
Andhra Pradesh,Guntur,Srisaitirumala Cold Storage Pvt Ltd,PIDUGURALLA ROAD DACHEPALLY VILAGE DACHEPALLY MAND,N.Venkateswarlu,7500,79.9336279,16.2955978
Andhra Pradesh,Guntur,Srisaividhya Cold Storage,CHUTTUGUNTA,Bhanychans,3600,80.645438,16.5175347
Andhra Pradesh,Guntur,SrisaradaCold Storage unit,"BODIAM X ROAD,TENALI ROAD",Sudheer,7500,80.5718682,16.4306645
Andhra Pradesh,Guntur,SriseetaramaCold Storage,"B-125, BEHIND MIRCHI YARD NALLAPADU",Venugopalrao,3292,80.41071389999999,16.2864231
Andhra Pradesh,Guntur,Srishirisrinivasa Cold Storage Pvt Ltd,GUNTUR ROAD REPUDI VILAGE PHIRAMGI PURAM MANDAL,Veerareddy,4400,80.25321360000001,16.2882459
Andhra Pradesh,Guntur,Srisneha Cold Storage,"SRI KRUPA MARKET,MAHBOOB MANSION, MALAKPET",P Anjaneelu,2000,78.49097669999999,17.3716458
Andhra Pradesh,Guntur,Srithirumala Cold Storage,NALLAPADU ROAD NEAR NH-5,Parayya,4000,80.3939109,16.3063385
Andhra Pradesh,Guntur,Srivenkateswara Cold Storage,PRATTIPADU VILAGE MANDAL,Ch.Seshaiah,5000,82.1917781,17.2294723
Andhra Pradesh,Guntur,Srivenkateswara Cold Storage,NARASARAOPETA,Venkatrssaerao,5000,80.04964989999999,16.2359181
Andhra Pradesh,Guntur,Srivenkatrswaracooperative,DNO-C-158 VILL-KOMMURU MANDAL KAKUMANU,Venkatrsearao,4000,80.3982025,16.054913
Andhra Pradesh,Guntur,Srosaitulasicodstorage,ANKIREDDY PALEM NH-5 BY PAAS ROAD,Chandrasekhar,8700,83.9275643,18.3159269
Andhra Pradesh,Guntur,Subhammaheswari Cold Storage,"NARSARAOPETA, CHENNAI ROAD",Maheswarao,6500,80.2704622,13.0843007
Andhra Pradesh,Guntur,Sv Cold Storage,ANKI REDDY PALEM ROAD NH-5,Surendrababu,5000,83.9275643,18.3159269
Andhra Pradesh,Guntur,TheandhrabankFarmers Servicecooperativesociety,NALLAPADU ROAD NEAR NH-5,Subbaiah,2400,80.3939109,16.3063385
Andhra Pradesh,Guntur,Tiyaguru Cold Storage,NALLAPADU ROAD NEAR NH-5,Tiyaguru,3500,80.3939109,16.3063385
Andhra Pradesh,Guntur,Vanadurga Cold Storage,NEAR BYPAS ROAD MIRCHI YARD ROAD ANKI REDDY PALEM,G Spring Astral,2000,80.39230789999999,16.2876751
Andhra Pradesh,Guntur,Vardhani Cold Storage,NALLAPADU ROAD,Subtahmanyam,3500,80.3939109,16.3063385
Andhra Pradesh,Guntur,Vasaviratna Cold Storage Pvt Ltd,"THIKKA REDDY PALAM, PRATHIPADU MANDAL",A.Gopalrao,7000,82.1917781,17.2294723
Andhra Pradesh,Guntur,Vasthsalya Cold Storage M,"NH-5 BY PASS ROAD, ANKI REDDY PALEM",Lappireddy,6000,80.2091128,15.9060837
Andhra Pradesh,Guntur,VasundaraColdstorage,NH5ANKIREDDYPALEMGUMTUR,Hanmanthrao,4000,83.9275643,18.3159269
Andhra Pradesh,Guntur,Vengamamba Cold Storage,NALLAPADU ROAD,G Satyanaraya,3000,80.3939109,16.3063385
Andhra Pradesh,Guntur,Vigneswara Cold Storage,NANDIGAMA VILAGE SATTENAPALLY MANDAL AMARAVATHI RO,Y.Mutyanjayarao,5000,77.7523039,20.9319821
Andhra Pradesh,Guntur,Vijayasaradhi Cold Storage,ANKI REDDY PALEM BY-PASS ROAD CHEK POST,P Nageswara Rao,2000,80.2091128,15.9060837
Andhra Pradesh,Guntur,VijayasriCold Cold Storage,"270/1,LALPURAM, NH-5BY PASS ROAD",Srinivasrao,5000,-71.5723953,43.1938516
Andhra Pradesh,Guntur,Vijaysri Cold Storage,LALPURAM,Shripal,5060,80.4494344,16.2868497
Andhra Pradesh,Guntur,Vinukonda Cold Storage Pvt Ltd,VINUKONDA TOWN MANDAL,R.Srinivasrao,6600,79.7405355,16.0498456
Andhra Pradesh,Guntur,Vyjanthi Cold Storage,"D. NO. 283/1, LALPURAM VILLAGE, GUNTUR RURAL MANDA",V Krishnamohan,7500,80.0087746,16.3905692
Andhra Pradesh,Guntur,Y.C.R. Cold Storage Pvt Ltd,MEDIKONDURU VILAGE PIDUGURALLA ROAD,Arogyam,4800,80.29895839999999,16.3466357
Andhra Pradesh,Krishna,Gayatri Cold Storages,6-62 RAYTHUPET NANDIGAMMA,Kasivisweswarao,5000,80.2901487,16.7652868
Andhra Pradesh,Krishna,Gsr Cold Storage,GOLLPUDI,Datatrsya,5000,80.5827599,16.5400016
Andhra Pradesh,Krishna,LankaCold storage,106/2 A MYLAVARAM ROAD OPP-LDA KONDAPALLY,Krishna,4200,80.84505949999999,16.7914644
Andhra Pradesh,Krishna,Lucky Cold Storage,RAYANAPADU VIJAYAADA,G Mohanrao,4000,80.5688428,16.5710275
Andhra Pradesh,Krishna,MS Yellamanchili Cold Storage P Ltd,Keesara Distt Krishna,Y S L Prasad,5000,80.3235373,16.7186661
Andhra Pradesh,Krishna,Madhavahitech Cold Storage Pvt Ltd,16-139 VINAY NAGAR AUTO NAGAR VIJAYWADA,K.Koteswarao,5500,80.6779426,16.5016969
Andhra Pradesh,Krishna,Ms Sri Sai Lakshmi Cold Storage,Keesara Distt Krishna,Sabbasani Nagalakshmi,5000,80.3235373,16.7186661
Andhra Pradesh,Krishna,Paramount Cold Storage Private Limited,Nawabpet Village Penuganchiprolu Mandal Krishna Dist,Shri Chirumamilla Ramaiah,6500,80.23167749999999,16.8195101
Andhra Pradesh,Krishna,Rasana Cold Storage,RAYANPADU ROAD PO-GOLLAPUDI,Venkateswarai,3200,80.57624729999999,16.5418979
Andhra Pradesh,Krishna,SaisagarColdstorgs,NANDIGAMA TOWN NANDIGAMA MANDAL,Haribabh,3100,80.2859096,16.7724159
Andhra Pradesh,Krishna,SphoorthisriCold storage,NH-9 KEESARA VILLKANCHI KACHERLA MANDAL,Avsvprasad,5500,77.4658481,17.6924784
Andhra Pradesh,Krishna,Sri Durga Cold Storage,Munagacherla Village Nandigama Mandal Krishna Dist,Ch Srinivasa Rao,57000,80.26204179999999,16.7952819
Andhra Pradesh,Krishna,Sridurga Cold Storage,"MUNAGACHARLA, NANDI GAMMA",Vrameshbabu,4690,80.2859096,16.7724159
Andhra Pradesh,Krishna,The Krishna Districtmilk Producers Mutually Aided,MILKP ROJECT CHITTI NAGAR VIJAYWADA,B.V.Venugopal,1000,80.59869139999999,16.5308282
Andhra Pradesh,Krishna,VasuCold Storage,BESIDE NH-9 MUNAGACHERLA VILL-NANDIGAMA MANDAL,Rameshbabu,6000,80.272293,16.7840869
Andhra Pradesh,Krishna,Vijayawada Cold Storage,SURAYAPALEMPO-GOLLAPUDI,Ravi,6500,80.5827599,16.5400016
Andhra Pradesh,Krishna,Vijaykrishna Cold Storage,"TUMMALA PALEM RAVINDRA COMPLEX 3RD FLOOR, ELURU RO",Pbapuji,5400,81.0952431,16.7106604
Andhra Pradesh,Krishna,Yelamanchili Cold Storage,KESARA NH9 KANVHADAL,Psrini,6000,77.6205846,28.7021006
Andhra Pradesh,Kurnool,Ak. Fruits,"SUREY NO 265/3, GADICIBANDA, PUNGANOOR, KOILAKUNRL",A.Krishnaiah,13,78.3161236,15.2325828
Andhra Pradesh,Kurnool,Andhara Fruits Raipiling Chambers,HARIJANAWADA NANDYAL,Abdulrasheed,4,78.48531249999999,15.4639375
Andhra Pradesh,Kurnool,Laxmiamrutha Cold Storage,"9-19-27-8, GANDHI NAGAR, KOTHAPETA, AYYAPPA TEMPLE",P.Ramesh,50,77.08200149999999,9.4320761
Andhra Pradesh,Kurnool,MS Karshaka Mitra Cold Storage,10 Sy No 167 2A Munagalapadu V Kurnool Dist,Smt C Maheswari Devi,8000,78.0011088,15.8592397
Andhra Pradesh,Kurnool,Mehboobmiya Abdulrasool & Sons.,GADIYARAM CENTRE,Md.Khiser,3,79.6794971,15.7699737
Andhra Pradesh,Kurnool,S.Shahinoor . S.Kalam,NANDYAL,S.Kalam,1,78.487285,15.4776876
Andhra Pradesh,Kurnool,Sr Cold Storage,"D.S.P. BUNGALOW, ESI HOSPITAL, ADONI",R.Surajagarwal,80,77.27588329999999,15.6318824
Andhra Pradesh,Kurnool,Sri Venkateswara Rural Farmers Cold Storage,Allagadda Vill Mandal Kurnool Dist,Shri S V Shirisha,5000,78.5127559,15.1305389
Andhra Pradesh,Kurnool,Sv Rural Farmars Cold Storage,CHINNAKANDUKUR ROAD,S.Rajagopalreddy,10000,79.0176551,17.6016811
Andhra Pradesh,Kurnool,Taherbasha,"SHANKUNTHALA CIRCLE, EAMMIGANOOR",Mehboobbasha,4,77.4719551,15.7734175
Andhra Pradesh,Prakasam,Aditya Cold Storage,VELGATURU VILAGE PONNALURU MANDAL,Mahesh,1800,79.1718731,18.8458347
Andhra Pradesh,Prakasam,Chappidihanumanthrao Cold Storage,PAMIDIPADU ROAD RAVI NUTRHALA KORISAPADU,Veeranjaneyulu,8000,80.1078799,15.6941826
Andhra Pradesh,Prakasam,Kokila Cold Storage,NAGULUPPALAPADU VILAGE MANDAL,B.Srinivasrao,72,80.11145119999999,15.6394647
Andhra Pradesh,Prakasam,Komala Cold Storage Pvt Ltd,"INKOLLU VILAGE MANDAL, PARCHUR ROAD",Srinivasrao,6000,80.2767779,15.9684068
Andhra Pradesh,Prakasam,Latha Cold Storage,NEAR MARKET YARD ROAD ONGOLE,Sanjeevrao,5000,80.049922,15.5057232
Andhra Pradesh,Prakasam,Laxminarayana Cold Storage,PERNAMITTA VILAGE S NPADU MANDAL,Ch.Nagesh,4000,80.01157010000001,15.5284503
Andhra Pradesh,Prakasam,MS Bala Venkata Channa Cold Storage Pvt Ltd,Sy No 246 A Ganapavaram V Tripurantakam M Prakasham Dist,Shri Ramesh N,5100,79.4746284,16.0361282
Andhra Pradesh,Prakasam,MS Rythu Mithra Cold Storage,Somavarappadu V Medarametla Prakasham District,Shri Gude Panduranga Rao,5000,80.02739389999999,15.7203593
Andhra Pradesh,Prakasam,MS Sri Rama Agri Cold Storage,Pusalapadu Gram Panchay Prakasam Distt,Shri M Ramesh Babu,6940,79.0969841,15.5009017
Andhra Pradesh,Prakasam,Munagachennaiah Cold Storage,SANTANOOTALAPADU,M.V Krishnarao,8000,79.9413199,15.5425351
Andhra Pradesh,Prakasam,Omkar Cold Storage,MUKTI NUTALAPADU VILAGE,Gopichand,6000,80.2301487,15.9348116
Andhra Pradesh,Prakasam,Ongole Cold Storage Pvt Ltd,THROVAGUNTA VILAGE ONGOLE MANDAL,Rafi,7000,80.0576834,15.5522666
Andhra Pradesh,Prakasam,Parchuru Cold Storage Pvt Ltd,LNKOLLU ROAD PARCHUR VILAGE & MANDAL,Srinivasrao,5500,80.1438126,15.9279297
Andhra Pradesh,Prakasam,Raavirangaiah Cold Storage Pvt Ltd,NAGULUP PALAPADU VILAGE MANDAL,K.Srinivasrao,9000,80.11145119999999,15.6394647
Andhra Pradesh,Prakasam,Rama Cold Storage,ADDANKI VILAGE MANDAL ONGOL ROAD,G.Subbarao,5000,79.9181672,15.5652845
Andhra Pradesh,Prakasam,Sreegayatri Cold Storage,SANTHANOOTALAPADU VILAGE & MANUAL,Rammohanrao,6000,79.9413199,15.5425351
Andhra Pradesh,Prakasam,Srichandana Cold Storage Pvt Ltd,VANKAYALAPADU VILLAGE EINKOLE MANDAL PUSAPADU ADDA,G.V.R.N..Prasad,10000,80.22235959999999,15.9117451
Andhra Pradesh,Prakasam,Sridurga Cold Storage,EDUMUDI ROAD UPPUGONDURU VILAGE NAGULUPPALAPADU MA,Mohanreddy,4600,80.11145119999999,15.6394647
Andhra Pradesh,Prakasam,Srimahalaxmi Cold Storage,NH-5 THROVAGUNTA ONGOLE,B.Nagaraju,5485,80.0558551,15.55229
Andhra Pradesh,Prakasam,Srinidhi Cold Storage,PARCHOOR VILAGE MANDAL INKOLLU ROAD,K.Srinivasrao,10000,80.1438126,15.9279297
Andhra Pradesh,Prakasam,Sriramaagri Cold Storages Pvt Ltd,ONDUTLA VILAGE BEST AVARIPET MANDAL,Rameshbabu,7000,79.1026315,15.5503073
Andhra Pradesh,Prakasam,Srisaibalaji Cold Storage,LAXMIPURAM VILAGE PODILI MANDAL,J.Kumar,5000,79.6181592,15.6069505
Andhra Pradesh,Prakasam,Tulasi Cold Storage Pvt Ltd,MUKTINOOTALAPADU VILAGE ONGOLU MANDAL,Venkatrao,8000,80.049922,15.5057232
Andhra Pradesh,Prakasam,Venumadhava Cold Storage,INKOLLU VILAGE MANDAL KONIKI ROAD,S.Subbarao,8000,80.0700171,15.7875971
Andhra Pradesh,Prakasam,Yalavarthi Cold Storage,NH5 RAJUPALEM VILAGE MARTUR MANDAL,Ramesh,4500,80.1085206,16.0057834
Andhra Pradesh,Spsr Nellore,Fivestarmarineexportsprivatelimited,NARAYANA REDDY PETA,Nandakumar,5,80.05069809999999,14.4677602
Andhra Pradesh,Spsr Nellore,Saimarineexports Pvt Ltd,NARAYANA REDDY PETA,Sundaram,15,80.05069809999999,14.4677602
Andhra Pradesh,Srikakulam,SrisaiCold Storage,"M G ROAD , CHELLURU",Trinadh,3,81.9916586,16.8092991
Andhra Pradesh,Srikakulam,Vihakadary,"PLOT NO-2, EENADUPRESS, PEDAPADU",Rajasekhar,15,81.038783,16.64175
Andhra Pradesh,Visakhapatanam,MS Sri Nookambika Cold Storage,Dibba Street Gavarapalem Anakapalli V Visakhapatnam District,Shri Konatala Govinda Appala Naidu,4446,83.0129244,17.6831783
Andhra Pradesh,Visakhapatanam,VIZAG-I,"Kancherapaem,Vizag-530008",P Bharathi,36330,83.2746836,17.7343985
Andhra Pradesh,Visakhapatanam,VIZAG-II,"Near New Calltex Gate Unit 2 , Navel Base Port - 530014",D Laxamana Rao,53970,83.27735899999999,17.6785358
Assam,Chirang,Chirang Logistics Compani Private Limited,"VILL,PALASBARI,PO,KAJALGAON ,DIST,CHIRANG",Mahabir Agarwal,7500,90.6850972,26.5388578
Assam,Golaghat,Balajee Cold Storage,"EKRONIA, DERGAON",Jay Prakash,3000,93.9852916,26.6968752
Assam,Jorhat,Hanuman Spices & Herbal Pvt Ltd,"CINNAMARI, JORHAT",Partha Pratim Dutta,4000,94.2036696,26.7509207
Assam,Jorhat,Upperassam Cold Storage,"VILL,DUKLONGIA,PO,MORIANI DIST,JORHAT",Jeet Kumar,6000,94.2036696,26.7509207
Assam,Kamrup,Amul Cold Storage,RUKMANI GAON GUWAHATI,P.D Singh,100,91.79683349999999,26.1361511
Assam,Kamrup,Eden Cold Store,JAWARNAGAR KHANA PARA,Surya Ghosh,2400,91.8208179,26.121255
Assam,Kamrup,Maligaon,"Opp. N.F.Railway Headquaters,Mali Gaon , Guwahati-781011",D Dasgupta,8600,91.69064829999999,26.1437991
Assam,Kamrup,Singhimari Cold Storage,"HALO ROAD. SINGHIMARI, GUWAHATI",Kamlesh Surana,2000,91.7085933,26.1157917
Assam,Sonitpur,Suniti Prava Cold Storage,ZINGIA.SONITPUR,Srimanta Deka,5200,92.6983868,26.6769864
Assam,Tinsukia,Green Field Cold Storage,"VILL-LAIPULI ,PO-DO, PS-PANITALADIST-TINSUKIA",Manoj Kr Saha,700,95.355758,27.4885539
Assam,Tinsukia,M/S Assam Cold Storage,GANDHI PARK RD .TINSUKIA,Mihir Dutta,14000,95.355758,27.4885539
Bihar,Begusarai,BHUSARI Cold Storage PVT LTD,KORJANA,UMAKANT SINGH,2800,86.04531229999999,25.6184167
Bihar,Begusarai,HIMGANGA Cold Storage LTD,RAMJANPUR,SATYAKAM SHARMA,6000,83.45768609999999,25.477213
Bihar,Begusarai,MRIGENDRA Cold Storage,MCS[Dot]BARAUNI[At]GMAIL[Dot]COM,MRIGENDRA KUMAR,10000,87.0111932,24.9944763
Bihar,Begusarai,SUDHANSU Cold Storage PVT LTD,ULAO,CHANDRAPRAKSH MISHRA,7500,86.091184,25.4186255
Bihar,Begusarai,SWASTIK Cold Storage,ULAO,SATYANARAYAN TANTI,700,86.091184,25.4186255
Bihar,Bhagalpur,GRAMIN Cold Storage PVT LTD,SALEHPUR,SUNIL SHEKHAR,3100,77.1060464,30.26441029999999
Bihar,Bhojpur,Mohamad Lsrail Cold Storage,GIDHA BHOJPUR,Nitya Nand Prasad,7100,84.74461459999999,25.5953023
Bihar,Bhojpur,Shri GaninathBhojpur Freejing Cold Storage,GIDHA BOJPUR,Ravi Bhuson Singh,7500,84.74461459999999,25.5953023
Bihar,Bhojpur,Sushila Cold Storage,GIDHA AARA BHOJPUR,Manoj Kumar Singh,7000,84.75766999999999,25.5869149
Bihar,Buxar,Durga Cold Storage Buxar,DURGA COLD STORAGE SANDAYKETE BUXAR,Parmeshwar Rai,3750,83.9892237,25.5787256
Bihar,Darbhanga,DARBHANGA,"APMC Yard, Shiv Dhara, Darbhanga - 846004",B. B. MISHRA,6220,85.89722619999999,26.1515782
Bihar,Gaya,Chinmay Cold Store.,MANPUR. JAIPUR.,Brijnandan Passed.,2500,75.7872709,26.9124336
Bihar,Gaya,Magadh Cold Store,MAGADH COLD STORE KUJAPI GAYA,Kumar Anish Ranjan,2500,84.9803854,24.8141044
Bihar,Gaya,Prakash Cold Storage,GAYA TEKARO,Anil Kumar,4000,85.0002336,24.7913957
Bihar,Gaya,Ramble Cold Storage,MOCHARIM BODHGAYA.,Ramasrey Yadav,6000,84.9915049,24.6807426
Bihar,Gaya,Ruvi Cold Stor,MOCHARIM BODHGAYA,Ram Lakhan Parsad.,5000,84.9915049,24.6807426
Bihar,Gaya,Sri Visnu Cold Stor,AMAMA BODHGAYA,Dhirendra Parsad,3000,84.9869547,24.6961343
Bihar,Gaya,Swadesi Cold Storage,SWADESI COLDSTORAGE BHITO GAYA,Mahadev Parsad.,1650,85.0002336,24.7913957
Bihar,Gaya,Triraj Cold Store,BODH GAYA.,Ganesh Sinha.,5000,84.9869547,24.6961343
Bihar,Gopalganj,Maa Amby Agro Tek,PIPARA KHAS MIRGANJ,Ajay Ku Singh,6600,84.32227879999999,26.3798159
Bihar,Gopalganj,May Ambay Cold Storage,LINEBAZAR,Ajay Kumar,5600,84.27232149999999,26.4240437
Bihar,Gopalganj,Parbhu Cold Satorge,GOPALGANJ LANE B,Nathaniel Sing,2600,85.3177725,23.3772134
Bihar,Gopalganj,Sardar Cold Storage,SASAMUSA,Harishankar,2000,84.36079850000002,26.5250495
Bihar,Katihar,Amala Devi Cold Storage Hapla Katihar,AMALA DEVI COLD STORAGE HAPLA KATIHAR,Sarad Gaur,6900,87.5591073,25.5540648
Bihar,Katihar,Anu Shree Cold Storage Bathana Katihar,ANU SHREE COLD STORAGE BATHANA KATIHAR,Saroj Kumar,80,87.5591073,25.5540648
Bihar,Katihar,Neha Cold Storage Chitoriya Katihar,NEHA COLD STORAGE CHITORIYA KATIHAR,Rajiv Ranjan Jha,6000,87.5591073,25.5540648
Bihar,Kishanganj,Shrestha Cold Storagesimalwari Kishanganj,SHRESTHA COLD STORAGE SIMALWARI KISHANGANJ,Hanuman Maheshwari,12000,87.9450379,26.0982167
Bihar,Madhepura,Sona Dubhlopur Cold Storage,SONA DUBHLOPUR COLD STORAGE UDDA KISHUNGANG,M.D Irshad Alam,7100,77.8907576,26.6965521
Bihar,Muzaffarpur,Ms Bela Cold Storage,Muzaffarpur Bihar,Shri Samir Kumar,6000,85.390982,26.1196607
Bihar,Nalanda,Asanagar Cold Storage industrise P V T Ltd,ASANAGAR,Ranjeet Kumar,2000,88.50454769999999,23.3975669
Bihar,Nalanda,MAA GAYATRI Cold Storage P.LTD,EKANGAR SARAI,CHAUBE JEE,2650,85.2294002,25.2208896
Bihar,Nalanda,PAWAN SOOT Cold Storage,PATNARANCHI ROAD,SRI KESHAW PRASAD,2400,85.4878404,24.411424
Bihar,Nalanda,Ravi Sankar Cold Storage,BYPASSED BIHARSARIF NALANDA,Vijay Kumar,4000,85.517437,25.2049738
Bihar,Nalanda,SANKAT MOCHAN Cold STORE,HEGANPURA KST COLAGE,NARESH KUMAR,9500,85.5011455,25.2281716
Bihar,Nalanda,Shreejan Cold Storage Pvt Ltd,RAJGIR ROAD DEEP NAGAR,Sashikant Mehta,2400,85.4173739,25.0261746
Bihar,Nalanda,Sohkisan Cold Storage ltd,SOHSARAI,Premchandra,6700,85.5161612,25.2263512
Bihar,Nalanda,Sohlaxmi Cold Storage Pvt Ltd,BABURBANNA,Sujit Kumar,1500,85.516805,25.233025
Bihar,Nalanda,Sriramchandra Cold Storage Pvt Ltd,DEVISARAI,Satyanarayanprasad,7500,85.5032832,25.1934274
Bihar,Patna,Kisan Cold Storage,BAZARSAMITI MUSALLAHPUR PATNA,Rakesh Kr,2200,85.1774012,25.6061884
Bihar,Patna,Kisan Cold Storage And Refrigeration,MUSALLAHPUR PATNA,Kashi Pd Sah,2200,85.16932229999999,25.6135985
Bihar,Patna,Mahavir Cold Storage,KHAGARI ROAD TAKIYAPAR DANAPUR,Sivkimar Singh,1300,85.0605164,25.6391619
Bihar,Patna,Mundrsha Cold,KHJPURA BELY ROAD PATNA,Dipak Kumar,3500,85.0847119,25.6050106
Bihar,Patna,RAJ LAXMI Cold Storage PVT LTD,GOLA ROAD DANAPUR,BIJENDRA PD SINGH,600,85.0557876,25.6254416
Bihar,Patna,Rajesh Kumar,MOGALPURA,Vijay Kumar,4957,85.4852488,25.4530514
Bihar,Patna,Surendra Yadav,BYPASSROAD ANISHABAD,M Asraf,25200,85.1238584,25.5843828
Bihar,Saharsa,Wiscomansheet Bhandar Saharsa,WISCOMAN SHEET BHANDAR SAHARSA,Sambhu Prasad Singh,4000,86.5927887,25.8773651
Bihar,Samastipur,ARVIND Cold Storage (P)LTD,KHALISH PUR SAMASTIPUR,AMARDIP KUMAR,6000,85.6858616,25.7249554
Bihar,Samastipur,CHANDNA Cold Storage (P)LTD,MUKATAPUR SAMASTIPUR,BHOLA PRASHAD,5100,85.7890879,25.8748479
Bihar,Samastipur,DHANIK LAL Cold Storage (P)LTD,GOSHPUR DALSINSRAI,DEVENDRA PRASHAD,5000,85.8518225,25.6743755
Bihar,Samastipur,LOHIYA Cold Storage (P)LTD,PATORI,RAJESH LOHIYA,4100,85.6054762,25.6381282
Bihar,Samastipur,MASINA Cold Storage,MUKATAPUR SAMASTIPU,RATNESH KUMAR,7500,85.7890879,25.8748479
Bihar,Samastipur,MISRISHA Cold Storage (P)LTD,VASHERIYA FATAK DALSINGSARAI,RAHUL KUMAR,8000,85.8382697,25.668551
Bihar,Samastipur,MOHAN Cold Storage (P)LTD,TAJPUR NH28,SUSHANT ANIL,2750,85.6666046,25.8498572
Bihar,Samastipur,MOHAN Cold Storage (P)LTD,TAJPUR,KAILASH RAY,12000,87.6120531,21.6443962
Bihar,Samastipur,Ms Arvind Cold Storage,Samastipur Bihar,Shri Amar Kumar,6000,85.7868233,25.8560271
Bihar,Samastipur,YOGA SAAV Cold Storage (P)LTD,VIBHUTIPUR BELSANDI,GHANSYAM PANDEY,11000,85.9723005,25.7036863
Bihar,Saran,SHRI NARAYAN Cold Storage,CHETAN CHHAPRA,KAUSHAL KUMAR SINGH,3500,84.1402157,26.3168822
Bihar,Sitamarhi,MS.RAMSATI Cold Storage (P)LTD,INDUSTRIAL AREA SITAMARHI,RAMCHANDRA PODAR,5000,85.5118489,26.586045
Bihar,Siwan,Bhagban Cold S,THARWA SIWAN,Parmanad Singh,15,84.3599953,26.2243204
Bihar,Siwan,Kishan Cold Storage,DINDAYALPUR SIWAN,Oshwar,3100,84.4828838,26.2281811
Bihar,Supaul,SUPAUL,"Gaurav Garh, Supaul Pipra Road Near Jawahar Novoday Vidyalaya Distt:- Supaul",SAHID HASAN,5000,86.7016679,26.1497267
Bihar,Vaishali,Arr Pee Cold Storage And Icc Plant,INDUSTROAL AREA,Ravindra Kumar,65,51.43489870000001,25.2029096
Bihar,Vaishali,Balaji Agro Exim And Cold Storage,INDUSTRIAL AREA HAJIPUR,Ramesh Kumar,5800,85.24011639999999,25.6927811
Bihar,Vaishali,James Cold Storage And Agrotek(P)Ltd,MAIL BIDUPUR,Shailendra Kumar,6000,85.3335997,25.6451821
Bihar,Vaishali,Jigsaw Cold Storage,NAWANGAR BIDHUPUR,Abhishek Kumar,2000,85.3335997,25.6451821
Bihar,Vaishali,Lachhbi Fruits India(P)Ltd.,INDUSTRIAL AREA HAJIPUR,Virendra Kr Shingh,13500,85.24011639999999,25.6927811
Bihar,Vaishali,Lagurao Bilandpur Prathamik Krishi Sahayog Samiti,BILAND PUR RANIPOKHAR,Subodh Kumar,4000,79.75540889999999,27.1461053
Bihar,Vaishali,Loma Cold Storage,VILL-LOMA JANDAHA,Paras Kumar,6000,85.52517399999999,25.7422705
Bihar,Vaishali,MINKASHI RURAI AGRI BIGNESH (P)LTD,CHANDPURA BALIGANW PATEPUR,PANKAJ KUMAR,5000,75.7254947,29.7787853
Bihar,Vaishali,Pasupati Cold Storage,IDUSTRIAL AREA HAJIPUR,Ashis Kumar,6100,85.2455445,25.6886309
Bihar,Vaishali,RAJMATI Cold Storage,CHAKYAJ JHURKIYA MAHNAR,RAMAGAR PANDEY,7000,85.494145,25.6100369
Chhattisgarh,Bemetara,Surya Cold Storage,Ms Surya Cold Storage Village Kadarka Raipur Berla Marg District Bemetara,Mr Siddharth And Mrs Madhu Trehan,5000,81.62964130000002,21.2513844
Chhattisgarh,Bilaspur,J P Agrawal Sons Cold Storage Pvt Ltd,P No 40 Anjani Industiral Area Marwahi Bilaspur,Shri Gayaprashad Agrawal,5000,82.1409152,22.0796545
Chhattisgarh,Dhamtari,Ms Om Cold Storage,Bhothali Dist Dhamtari,Shri Prakash Chand Chimnani,5000,81.5489077,20.7101344
Chhattisgarh,Dhamtari,Ms Shreenath Sheetgrih,Bhakhara Road Telinsatti Dhamtari,Shri Jignesh Thakkar,5000,81.55415789999999,20.7014999
Delhi,East,PATPARGANJ-ICD,"Inland Container Depot,Near Ghazipur Village , Raod No. 56 , Patparganj, Delhi",Anangpal,38105,77.10249019999999,28.7040592
Delhi,North,Agro ReezeCold Satorge,RAJSTHANI ADOYOG NAGAR,Rajesh,700,77.16217689999999,28.723413
Delhi,North,Agro ReezeCold Satorge,RAJSTHANI ADOYOG NAGAR,Rajesh,700,77.16217689999999,28.723413
Delhi,North,R.P.BAGH,"G.T. Karnal Road Opp. SBI Colony R.P Bagh, Delhi ï¿½ 110035",Lntzar Hussain,38153,77.1642584,28.6738274
Delhi,South,SAFDARJANG FLYOVER,"Under Safdurjung Flyover Bridge, Near Laxmi Bai Nagar Market, New Delhi-110023",R.P. Singh,3780,77.199129,28.5748119
Delhi,South West,PALAM,"Accompanied Baggage Warehouse, Terminal-Ii(Arrival), IGI Airport New Delhi 110037",Rakesh Bahl,500,77.0999623,28.5561437
Gujarat,Ahmadabad,Guru Cold Storage Pvt Ltd,Opp Indus Hospital Near Adani CNG Pump Sabarmati Ahmedabad,Shri Ashish Guru,2200,72.58991329999999,23.0912391
Gujarat,Ahmadabad,MS Hapa Cold Storage Pvt Ltd,National High Way No 8 GIDC Estate Ahmedabad,Shri Jayantbhai Devjibhai Nakum,5000,72.5085319,23.2292225
Gujarat,Ahmadabad,Mother Shree Cold Storage Pvt Ltd,Plot No 49 50 Phase I GIDC Naroda Ahmedabad,Shri Hasmukh Karshanbhai Nakum,2319,72.629733,22.965323
Gujarat,Ahmadabad,Ms Umiya Cold Storage,At Chandrala Nr Hanumanji Temple Ahmedabad Himmatnagar Highway Ta Gandhinagar,Shri Yogeshbhai Babubhai Patel,6000,72.763921,23.5608132
Gujarat,Amreli,Shree Hari Krushn Cold Storage,"NEAR SURYODAY PATROL PUMP,AMRELI ROAD,SAVARKUNDLA",Chchattarsing,3000,71.3052383,21.3376984
Gujarat,Anand,Amar Cold Storage,LAMBHVEL AT LAMBHVEL TA ANNAD,Surendra D Patel,12000,72.937198,22.5813959
Gujarat,Anand,Gocool Cold Storage,NH 8 AT BORIAVI,Virag Patel,250,72.9327686,22.611204
Gujarat,Anand,Jay Gurudev Cold Storage Unit-I,NH 8 BORIAVI AT BORIAVI,Dipeshbhai Patel,5000,72.9327686,22.611204
Gujarat,Anand,Kaival Krupa Cold Storage,AJARPURA SAMARKHA ROAD AT AJARPURA,Bachubhai Pandya,2000,72.9844401,22.6384657
Gujarat,Anand,Mahalaxmi Cold Storage,"SUN VILLEY 09,DR.ANIBESANT RD,WORLI MUM.18",Rajeahbhai Patel,4500,72.816242,19.008254
Gujarat,Anand,Mansadevi Cold Storage,SAMARKHA CROSSING BHALEJ ROAD AT SADANAPURA PO SAM,Damjibhai Patel,3500,73.0114031,22.6011546
Gujarat,Anand,New Laxmi Cold Storage,VASAD AASODARA ROAD AT KANTHARIYA TA AANKALAV,Anishbhai D Talsani,2500,72.9320718,22.449241
Gujarat,Anand,Sandip Cold Storage,AJARPURA SAMARKHA ROAD AT AJARPURA,Devendra R Patel,2750,72.9844401,22.6384657
Gujarat,Anand,Shri Umiya Cold Storage,NH 8 OPP SWAMINARAN TAMPLE BORIAVI,Ravindrakumar Patel,3000,72.9327686,22.611204
Gujarat,Anand,Shri Vimal Cold Storage,NH 8 AT BORIAVI TA ANAND,Sureshbhai V Patel,4000,72.9327686,22.611204
Gujarat,Arvalli,Aditya Cold storage,AT RASULPUR PO MAHADEVPURA TAMPLE MODASA,Dipakbhai,3,73.29875779999999,23.464311
Gujarat,Arvalli,Balram Cold Storage,BALRAM COLD storageE NRMAJUM BRIGE VADAGAM TALOD RO,Paresh Bhai,2,73.1258781,23.3260113
Gujarat,Bhavnagar,Neminath Cold Storeje,BORAGORI. BOINCHI. PS- PANDUA. HOOGLI,Ravibhai Kanara,15,88.1620708,23.1320135
Gujarat,Bhavnagar,Reliable Cold Storage,4 Mahendi Baug Society Bhadrod District Bhavnagar,Shri Shafinraza Barkatali Sabuwala,5000,71.8022812,21.1369344
Gujarat,Bhavnagar,Shakti Cold Storage,Village Haripara District Bhavnagar,Shri Narendrasinh Dilavarsinh Zala,5000,71.68698739999999,21.0993931
Gujarat,Bhavnagar,Shree Ram Cold Storage,Vill Haripura Road Mahuha Distt Bhavnagar,Shri P M Patel,6399,71.767602,21.0919215
Gujarat,Bhavnagar,Universal Cold Storage,Village Bhanvad District Bhavnagar,Shri Vijaybhai Narshibhai Bhalariya,5000,71.6988523,21.0870787
Gujarat,Gandhinagar,Jalaram Cold Storage,"TRA (RAKHIYAL) G.E.B.NEAR, TA. DEHGAM.",Vasantbhai,5000,72.81024500000001,23.1637196
Gujarat,Gandhinagar,Kitchen Xpress Overseas Ltd Expansion,Vadsar Road Santej Kalol Distt Gandhi Nagar,Shri Arvindbhai Patel,2700,72.474632,23.1018926
Gujarat,Gandhinagar,Ms Umiya Cold Storage,Chandrala Dist Gandhinagar,Shri Yogesh Babubhai Patel,3509,72.7954159,23.3383901
Gujarat,Gandhinagar,Ramjyoti Shitalay Cold Storage,"VILLAGE SAMPA, BEHGAM MODASA HIGHWAY",Rameshbhai,9000,73.29875779999999,23.464311
Gujarat,Gandhinagar,Saradar Patel Cold Storage,"AHEMDPURA, MODASA ROAD,TAL.DEHGAM.",Gopalbhai,3500,72.81024500000001,23.1637196
Gujarat,Gandhinagar,Shiv Shakti Cold Storage,"DEHGAM-MODASA HIGJWAY,VILL:SAMPA,DEHGAM.",Kalicharan Mulchand,4000,72.81024500000001,23.1637196
Gujarat,Gandhinagar,Shree Kalindi Cold Storaeg,ADALAJ,Atulbhai,2123,72.58095,23.1667043
Gujarat,Gandhinagar,Shree Krishna Cold Storage,"SURVEY NO.8/A,VILL.SAMPA,TA.DEHGAM",Pinakinbhai,22500,72.81024500000001,23.1637196
Gujarat,Gandhinagar,Sree Rameswar Cold Storaeg,"ADJAN COBA ROAD,ADAJAN,AMBAPURA",Jitendrabhai Rathod,313,75.4315594,25.8107933
Gujarat,Gandhinagar,Sreeji Cold Storaeg,"RAKHIYAL ROAD, DAHAGAM",Mukesh Cuhan,3300,82.74280569999999,19.7342893
Gujarat,Gandhinagar,Vinod Cold storages Pvt. Ltd,"TO -LIMADIA, HIMATNAGAR ROAD",Ravi Sharma,3000,72.9630378,23.5968857
Gujarat,Gandhinagar,Vunayak Cold Storage,"AHMEDPURA,MODASA ROAD,TAL.DEHGAM",Chinubhai Patel,20000,72.81024500000001,23.1637196
Gujarat,Gandhinagar,Yougeswar Cold Storeag,"RAKHIYALROAD,TO-AHMEDPURA,DAHEGAM",Bhvinbhai,4200,72.81024500000001,23.1637196
Gujarat,Jamnagar,Ganesh Cold Storage Co,"SUBHASHBRIG,JAMNAGAR",Bharatbhai,2500,70.05773,22.4707019
Gujarat,Jamnagar,Hr Cold Storage,UTTAR BHUSKADANGA JALPESH MANDIR,Saurabh,12,88.8667972,26.5257021
Gujarat,Jamnagar,Khambhadiya Cold Storage,GIDC PLOT NO 1 SALAYA ROAD JAMKHAMBHADIYA,Babubhai,2000,69.6447703,22.213934
Gujarat,Jamnagar,Kishan Cold Storage,DHUVAV NE.SUBHSHBRIJ,Bharatbhai Khubchandani,1700,70.1515342,22.4902844
Gujarat,Jamnagar,Prakash Ice & Cold Storage,C-8 MO C-8 MP SHAH IND.ESATE SARU SECTION ROAD,Prakashbhai,1200,70.0510873,22.4795983
Gujarat,Jamnagar,Saurastra Cold Storage,PLOT 1 NEAR MARKETING YARD OPP. CENTRAL WERE HOUSE,Harunbhai,4000,70.83106579999999,22.3040294
Gujarat,Jamnagar,Shree Vinayak Cold Storaga,VINAYK COLD STORAGE,Mukashbhai,1000,77.8066521,27.2497051
Gujarat,Jamnagar,Vinayak Cold Storage,"58,SHANKAR TEKARI,UDHYOGNAGAR",Mukashbhai,16000,70.821286,22.2914969
Gujarat,Junagadh,AFTAB EXPORTS,1004 GIDC VERAVAL,Fayaz Karatela,600,70.3942937,20.9065396
Gujarat,Junagadh,AFTAF MARINE FOODS,1005 GIDC VERAVAL,RAFIQ MALEK,500,70.3943267,20.9068298
Gujarat,Junagadh,AJMERI SEA FOOD AND ICE FACTORY,601 GIDC VERAVAL,HAJI USMAN,100,70.3922008,20.9015768
Gujarat,Junagadh,ALRAHEMAT SEA FOODS,GIDC VERAVAL,KADERBHAI RAHEMAN,800,70.3628516,20.9158979
Gujarat,Junagadh,AMAN SEA FOOD,P.NO.610/1 GIDC VERAVAL,Mr.Tajuddin Khan,200,70.3922468,20.9026378
Gujarat,Junagadh,AMISON FOODS LTD / KESHODWALA,305 GIDC VERAVAL,RAKESHKUMAR,17,70.3932449,20.9013129
Gujarat,Junagadh,Amar Cold Storage,Junagarh District,Mr Chetan Panara,5000,70.52649339999999,21.355069
Gujarat,Junagadh,Amrut Cold Storage,PLOT NO 1111/12 GIDC ESTATE VERAVAL,Upendrakumar,329,70.3628516,20.9158979
Gujarat,Junagadh,Anjali Marin Treadars,402/414 ANJALI MARIN TREADARS GIDC VERAVAL,Mahebubbhai,250,70.3628516,20.9158979
Gujarat,Junagadh,Anmool Foods,"B 30/1/4,MOIN MANSON VERAVEL",Alibhai Salim Abdul Rahaman,4,70.3628516,20.9158979
Gujarat,Junagadh,Aqua Marin Impex,PLOT NO1017GIDC VARAWAL,Ashfaq Patni,4,70.3947501,20.9058724
Gujarat,Junagadh,Asha Ganga Cold Storage,"PLOT 302,GIDC ESTAT VERAVAL",Nafisaben,900,70.3628516,20.9158979
Gujarat,Junagadh,Aswini Frozen Foods,BANDAR ROAD,Virabhai,1000,80.8945357,16.3466621
Gujarat,Junagadh,BHAWANI Cold Storage,BHIDIYA PLOT VERAVAL,GOVINDBHAI D VANIK,500,70.3814751,20.9019299
Gujarat,Junagadh,CASTLEROCK FISHERIES PVT.LTD.,101/102 GIDC ESTATE SOMNATH ROAD VERAVAL,K.Sman,6,70.3628516,20.9158979
Gujarat,Junagadh,CHAND FROZAN FOODS,KHARA KUVA FISH MARKET VERAVAL,Mr.Haji Abdulla,500,70.3628516,20.9158979
Gujarat,Junagadh,Deepmala Foods,GIDC VERAVAL,Bharatbhai,168,70.3628516,20.9158979
Gujarat,Junagadh,Deepmala Marine Exports,"BHIDEYA, VARAVAL",Pranav Kumar,550,73.16077520000002,25.0176145
Gujarat,Junagadh,Diwan Sea Foods,"B 45/1/2, KHARA KUVA VERAVAL",Sharif Hajji Yusuf Diwan,400,70.3635955,20.9067142
Gujarat,Junagadh,FAVORITE EXPORT,P NO. 611 GIDC ESTATE VERAVAL,Mukimbhai Palala,300,70.3628516,20.9158979
Gujarat,Junagadh,GOODWILL ENTERPISE,P NO.1108 GIDC ESTATE VERAVAL,Mr.Mirza Rahiman,500,70.3953672,20.9069928
Gujarat,Junagadh,GOVIND Cold Storage,GIDC JUNAGARH 17;18,Govindlal Mohanlal,5,70.4579436,21.5222203
Gujarat,Junagadh,Gadre Marien Export Pvt Ltd,1841/1/4 BHIND ABHAY TYRES NEAR BHIDIYA BRIDGE SOM,Rajaram Bedarkar,5,78.78609159999999,26.5637768
Gujarat,Junagadh,Games Marine Export Pvt Ltd,"SOMNATH ROAD, VARAVAL",Sachin,600,73.16077520000002,25.0176145
Gujarat,Junagadh,HANS KISAN Cold Storage,P.NO.413 GIDC ESTATE VERAVAL,Mr.B.R. WARMA,25,70.3916203,20.9013627
Gujarat,Junagadh,HONEST FROZEN FOODS CO,1405 GIDC VERAVAL,YASINBHAI,2,70.3628516,20.9158979
Gujarat,Junagadh,Hmg,5 6 GIDC VERAVAL,Niranjan,1067,70.38840189999999,20.901533
Gujarat,Junagadh,Indian Exports,"1316/1/2,GIDC ESTATE VERAVAL",Iliyas Bloch,75,70.3628516,20.9158979
Gujarat,Junagadh,J.M.MARIN EXPORT,1798/1GIDC VERAVAL,Mr.Ali Mahomad,1200,70.3628516,20.9158979
Gujarat,Junagadh,JAGDISH MARINE EXPORTS,47 GIDC VERAVAL,LAKHAMBHAI DAMJI BHENSALA,500,70.3881804,20.9031483
Gujarat,Junagadh,Jinny Marins Traders,1311 GIDC ESTATE VERAVAL,Sanjaybhai,358,70.3628516,20.9158979
Gujarat,Junagadh,K.R.SEA FOOD,P NO.1007 GIDC VERAVAL,Mr.Rajesh Chamedia,100,70.3941659,20.9076056
Gujarat,Junagadh,KANAYA MARINE EXPORTS,48 GIDC VERAVAL,LALABHAI LAKHAMBHAI BHENSALA,100,70.38836409999999,20.9030154
Gujarat,Junagadh,KAPISHWAR ICE & Cold Storage,104-105 GIDC VERAVAL,Mr.Prakashbhai Thawle,2,70.3628516,20.9158979
Gujarat,Junagadh,KONKAN FISHERIES PVT LTD,BHIDIA PLOT VERAVAL,SURESH S PATEL,1200,70.3628516,20.9158979
Gujarat,Junagadh,Karmyogi Cold Storage,MUL DWARLAROAD STATE NAGAR NEAR KODINAR,Gadabhai Parmar,3000,70.6960306,20.8009246
Gujarat,Junagadh,Kartik Cold Storage,PLOL NO 1308 GIDC VERAVAL,Ahmedadbhai,1000,70.3628516,20.9158979
Gujarat,Junagadh,Kesodwala Cold Storage,"UNIT 2, GIDC VERAVAL",Prakashbhai,10,70.3628516,20.9158979
Gujarat,Junagadh,King Fish Idustries,"1201-1202,GIDC ESTATE VERAVAL",Pratikbhai,439,70.3628516,20.9158979
Gujarat,Junagadh,Krupa/Rajan Sea Food,"PLO NO.48,GIDC VERAVAL",S.N.Parmar,350,70.3628516,20.9158979
Gujarat,Junagadh,M/S BALIHARI Cold Storage,PLOT NO.1335 GIDC VERAVAL,Mr.Harkisan Vanik,400,70.3628516,20.9158979
Gujarat,Junagadh,M/S. DIVYA MARINE FOODS PVT.LTD.,PLOT NO.305 GIDC ESTATE VERAVAL,Ismilebhai,6,70.3628516,20.9158979
Gujarat,Junagadh,MS R K Cold Storage,Village Keshod District Junagarh,Shri Narendrabhai G Pagdhar,2995,70.2498866,21.3011821
Gujarat,Junagadh,Mira Sea Foods,1008 G I D C ESTATE VERAVAL,Mohan Bhai H Vadhani,2,70.3940148,20.9077771
Gujarat,Junagadh,New Royal Frozen Foods,"GIDC-304,VARAVAL",Prakasbhai Vagela,800,73.16077520000002,25.0176145
Gujarat,Junagadh,PRONTO FOOD PVT.LTD.,101/102 G.I.D. . ESTATE VERAVAL,K.Soman,6,70.3628516,20.9158979
Gujarat,Junagadh,R.K Ice & Cold Storage,"BARA ROAD,MANGROL",Bhanji Kher,864,70.1168209,21.1225405
Gujarat,Junagadh,RAM ICE AND Cold Storage,305 GIDC VERAVAL,Lakhan Jaghu,1,70.3932449,20.9013129
Gujarat,Junagadh,RICH MARINE,904 VERAVAL GIDC,GOVINDBHAI,65,70.3781808,20.9057458
Gujarat,Junagadh,RITU MARIN PRODUCT PVT.,PLOT NO.1008 GIDC VERAVAL,Ritubhai,1200,70.3940148,20.9077771
Gujarat,Junagadh,Rahibbhai KAchi,"SUGAR FAKTARI, VADNAGAR ROAD",Sarfarajbhai Kachi,5000,72.6170089,23.7679501
Gujarat,Junagadh,Raj Cold Storage,VERAVAL KODINAR ROAD ZALA SENTURY BIHIND KODINAR,Jashubhai Zala,4000,70.6841784,20.8125036
Gujarat,Junagadh,Rameswer Cold Storage,VERAVAL,Dhavaldhai Pathk,313,70.3628516,20.9158979
Gujarat,Junagadh,S.S.IMPEX,PLOT.NO.1302 ESTATE VERAVAL,Mr.Asraf Sotia,65,70.3628516,20.9158979
Gujarat,Junagadh,SABINA FOODS,801-802/1 GIDC VERAVAL,IRFAN BAHARUNI,35,70.3901453,20.9038246
Gujarat,Junagadh,SAGAR FOOD,715 GIDC VERAVAL,Pravindar Prasar,2,70.3929,20.903584
Gujarat,Junagadh,SATTYAM MARINE EXPORT,PL 14 BHIDIA PLOT VERAVAL,SATTYAM GOLCHA,1000,70.3628516,20.9158979
Gujarat,Junagadh,SEA STAR EXPORT,P.NO.104A GIDC VERAVAL,Sufiyan Parmar,50,70.3628516,20.9158979
Gujarat,Junagadh,SIDDIQ SEA FOODS,1005 GIDC VERAVAL,RAFIQ MALEK,600,70.3943267,20.9068298
Gujarat,Junagadh,SIDDIQEE EXPORT,104/A GIDC VERAVAL,SAMEER AGWAN,34,70.3893973,20.9004129
Gujarat,Junagadh,SOMNATH MARINE EXPORT,GIDC ESTATE VERAVAL,Mr.Hiteshkumar Gandheri,800,70.3628516,20.9158979
Gujarat,Junagadh,Sarfaraj Cold Storage,Kodinar Distt Junagadh,Shri Rauf Haji Abdul Gani,3000,70.6960306,20.8009246
Gujarat,Junagadh,Shabina Exports,"1313,GIDC VERAVAL",Mahendra Rathore,958,70.3628516,20.9158979
Gujarat,Junagadh,Shiv Shakti Cold Storage,Village Jalansar District Junagarh,Shri Dilipkumar Tejumal Hotwani,5000,70.4579436,21.5222203
Gujarat,Junagadh,Shree Prabhu Ice & Cold Storage,"B 30,BHIDIYA ROAD NEAR RAJDHANI ICE FACTORY VERAVA",Govindbhai Harilal Anjani,2,70.3628516,20.9158979
Gujarat,Junagadh,Shree Raj Agro Cold Storage,Dhoraji Junagadh Highway Near Balaji Engineering Institute Jalansar Dist Junagadh Gujarat,Shri Surendrakumar Kantilal Tilva,5013,70.45159939999999,21.6173124
Gujarat,Junagadh,Shri Aashapura Farm & Narshery,MAU MOTI TA MANDVI,Bhupendrasingh Jadeja,42,69.3554783,22.833334
Gujarat,Junagadh,Shyam Marin Foods,"78,SAKTHIVEL NAGAR BHIDIYA VERAVEL",Rakesh Motivares,2,70.3628516,20.9158979
Gujarat,Junagadh,Siddaqee Exports,104/A GIDC ESTATE VERAVAL,Ashok Gohil,1135,70.3893973,20.9004129
Gujarat,Junagadh,TIRATH SEA FOODS,48 A GIDC VERAVAL,SYAMLAL TIRATH,400,70.3884123,20.9026535
Gujarat,Junagadh,VIPUL IMPEX ANDINTRABUILD,612 GIDC VERAVAL,NARENDRA A GOEL,750,70.3911789,20.90261
Gujarat,Junagadh,Vipul Impex &,612 GIDC VERAVAL,Mansukhbhai,2950,70.3911789,20.90261
Gujarat,Kheda,Anugra Cold Storage,CHAKLASHI,B.H.PATEL,4,72.9431038,22.6512751
Gujarat,Kheda,JAI SOMNATH Cold Storage,SAMARKHA CHOKADI,SURESHBHAI PATEL,3,72.980683,22.598754
Gujarat,Kheda,KEVAL KRIPA Cold Storage,AJRPURA TA.ANAND DIS.KHEDA,Jagdish Kushwah,2,72.9844401,22.6384657
Gujarat,Kheda,KRISHNA Cold Storage,NH NO.8,Rakeshbhai Parmar,3,-71.5723953,43.1938516
Gujarat,Kheda,Kamala Cold Storage,NR GUTAL CHOKADI NH 8 AT GUTAL TA NADIAD,Prafulbhai M Patel,4500,72.86336349999999,22.6915853
Gujarat,Kheda,Kishan Cold Storage,NR NUTAN TOBECO NH 8 AT PIPLAG TA NADIAD,Sameer Shah,3000,72.86040969999999,22.6710743
Gujarat,Kheda,Kishan Cold Storage,MODASA KAPADVAJ ROAD AT KAPADVANJ,Manager,4000,73.0843009,23.0271946
Gujarat,Kheda,MKVK Cold Storage,NH.NO.8 GUTAL,Mohanbhai Shindhi,3,-71.5723953,43.1938516
Gujarat,Kheda,MZ Cold Storage,BORIAVI ROAD,Mr.Gopal Patel,3,72.9327686,22.611204
Gujarat,Kheda,NAGINBHAI M PATEL,CHAKLASI BHALEJ ROAD,NAGINBHAI M PATEL,3,72.9852904,22.6011905
Gujarat,Kheda,Om Cold Storage & Ice Plant,NH 8 NR PIPLAG CHOKADI,Ajaybhai Patel,5200,72.86040969999999,22.6710743
Gujarat,Kheda,Pooja Cold Storage,NR GUTAL CHOKADI AT GUTAT NH 8 NADIAD,Sameerbhai Patel,6250,72.85,22.6918
Gujarat,Kheda,RADHAKISAN Cold Storage,NH8 BORIAVI,GHANSYAMDAS PATEL,6000,72.9327686,22.611204
Gujarat,Kheda,RUTU AGRO PRODUCT Cold Storage,AT.POST.KANJARI DIS NADIAD,Mr.Rutubhai Patel,3,72.86336349999999,22.6915853
Gujarat,Kheda,SHREE JI KRUPA Cold Storage,CHAKLASI CHUGADI,HARSHADBHAI K PATEL,3,72.9431038,22.6512751
Gujarat,Kheda,SHRIRAM Cold Storage,NADIAD ROAD,Gopal Mishra,2,72.86336349999999,22.6915853
Gujarat,Kheda,SREE MANSADEVI Cold Storage,SADANPURA SAMARKHA CHOUKADI,SYAMJIBHAI PATEL,4000,73.0114031,22.6011546
Gujarat,Kheda,Sathi Cold Storage,STATE HIGHWAY 150 BHALEJ VADTAL ROAD CHAKLASI NADI,Dipak(Lala)Bhai Patel,5500,72.8737017,22.5932201
Gujarat,Kheda,Shree Umiya Cold Storage,AT-NAVAGAM.AATARSAMBA ROAD.KAPADVANJ,Jagdish Bhai,4000,73.0416346,23.0302447
Gujarat,Kheda,Shri Ambica Cold Storage,KAPADVANJ ATTARSUMBA ROAD AT NAVAGAM AT KAPADVANJ,Kamleshbhai Shankarbhai Patel,5000,73.0700421,23.0200163
Gujarat,Kheda,Shri Nath Cold Storage,CHAKLASI ROAD WANIPURA CHAKLASI,Arvindbhai A Solanki,4199,72.9431038,22.6512751
Gujarat,Kheda,Shri Nilkanth Cold Storage,ALINDRA KANJODA ROAD POST CHAKLASI TA NADIAD,Rakeshbhai Patel,4000,72.9461852,22.6908836
Gujarat,Kheda,Shri Yamunaji Cold Storage,BHALEJ VALTAD ROAD CHAKLASI TA NADIAD,Kalpesh Patel,5000,72.9342451,20.5992349
Gujarat,Kheda,Shri Yogeshwar Ice & Cold Storage,MARIDA BHAGOL NADIAD,Sunilbhai Chandnani,1625,72.86336349999999,22.6915853
Gujarat,Kheda,Shriji Krupa Cold Storage,BHALEJ VADTAL ROAD CHAKLASI NADIAD,Harsadbhai Patel,7500,72.9297442,22.5691706
Gujarat,Kheda,VARUN AGRO Cold Storage,NH NO.8 KANJARI,Mr.Prabhatbhai Parmar,6,-71.5723953,43.1938516
Gujarat,Kheda,VIPIN Cold Storage,NH NO.8 ANAND SOIL VILL VAGHASI,Vipinbhai Patel,5,-71.5723953,43.1938516
Gujarat,Kheda,Varun Agro Cold Storage,NR ESSAR PETROL PUMP KANJARY CHOKADI AT BHUMEL NH,Sureshbhai Nagdev,6000,-71.5723953,43.1938516
Gujarat,Kheda,Vrundan Cold Storage,NH 8 AT KANJARI TA NADIAD,Rameshbhai C Patel,4000,72.86336349999999,22.6915853
Gujarat,Kheda,Yogirag Ice & Cold St Storage,TUNDEL OKTROI NAKA PUJ CHOKADI NADIAD,Pankajbhai Patel,250,72.86336349999999,22.6915853
Gujarat,Mahesana,Jayshil Cold Storage,"PLOT NO.32,MAFCO YARD,VASHI",Amarnathbhai,1040,73.0420662,18.7501386
Gujarat,Mahesana,Manan Cold Storage,"MAHUDI CHAR RASTA,VIJAPUR",Jagadishbhai Patel,3000,72.7510921,23.5609405
Gujarat,Mahesana,Nilkanth Cold Storage,"VIJAPUR -LADOL ROAD, VIJAPUR",Ajitkumar,3500,72.7510921,23.5609405
Gujarat,Mahesana,Shree Nath Cold Storage / Shree Mahakali Storag,"PLOT NO. 33,MAFCO YARD,VASHI",Bhaveshbhai,3500,73.0420662,18.7501386
Gujarat,Mahesana,Siddhi Vinyak Cold Storage,"VIJAPUR-LADOL ROAD,AT.BHAVSOR,TA.VIJAPUR",Prakashbhai Maganlal Patel,4000,72.7510921,23.5609405
Gujarat,Mahesana,Suraj Cold Storage,VIJAPUR-HIMMTNAGAR HIGHWAY,Harisankar,2850,72.856431,23.5897618
Gujarat,Patan,Padhiyar Cold Storage Pvt Ltd,41 S H KHALI CHAR RASTA SIDHPUR,Vipulbhai Khamar,7250,72.3684526,23.8905855
Gujarat,Porbandar,Hiravati Cold Storage,SHNBHASNAGAR ROAD JAWAR NAKA,Jitrendrbhai,387,78.2058966,17.0712949
Gujarat,Porbandar,Wast-Coast Foods,"GIDC,VANANA",Salimbhai,1500,70.03245,22.0190006
Gujarat,Rajkot,GRV Agro Product Cold Storage,Village Govindratna Bun Glows Shop No 102150 Ft Ring Road Near Nana Mauva Circle Rajkot 360005,Shri Valjibhai G Parsana,2500,70.77703699999999,22.2729743
Gujarat,Rajkot,Gandhi Spices Pvt Ltd,VILL&P.O. BAGDOLA.P.S.SANTHIA.DIST.BIRBHUM,Vasantbhai Gopalka,2000,87.6396133,23.9697859
Gujarat,Rajkot,Gandhi Spices Pvt Ltd,RAJKOT JAMNAGAR HIGHWAY BEHIND TULSI HOTEL AT KHAN,Hiren Dubal,1900,70.71774839999999,22.3538424
Gujarat,Rajkot,Gandhi Spices Pvt Ltd,Parapipaliya Tal Distt Rajkot,Mr Sudhir Kumar M Dubal,3300,70.7421226,22.357227
Gujarat,Rajkot,Gangadhara Cold Storage Pvt,Jasdan Tal District Rajkot,Mr Pravin Vashrambhai Chauhan,5000,71.2017779,22.0356088
Gujarat,Rajkot,JalaramColdstoraj,1032 GIDC MATODA,Ramashbhi,3000,72.3955014,22.8921429
Gujarat,Rajkot,Maruti Cold Storage,Village Chhatar Teh Tankara Dist Rajkot Gujarat,Shri Pankaj Lakhabhai Vaghasiya,2500,70.7480696,22.6553114
Gujarat,Rajkot,Ms ATOP Food Products Pvt Ltd,Morbi Rajkot Highway Ta Tankara Dist Rajkot,Shri Manubhai Patel,5022,70.775145,22.4570732
Gujarat,Rajkot,RajaCold,5 LODEEKA GIDC,Ashishbhi,4000,70.6799226,22.245629
Gujarat,Rajkot,Rajendra Cold Storage,540-GIDC MATODA,Vajubhi,1200,72.3955014,22.8921429
Gujarat,Rajkot,Shri Vraj Cold Storage,Village Jamvadi District Rajkot,Shri Rajil Bhupendrabhai Thumar,3022,70.3063094,22.1332567
Gujarat,Rajkot,Shrinathaji Cold Storage,Somnath Udhyog Nagar Jamvadi Rajkot,Shri Dharmendrabhai Amralia,3500,70.80215989999999,22.3038945
Gujarat,Rajkot,Vaibhav Cold Storage,Village Vegdi District Rajkot,Shri Jayeshbhai Vitthalbhai Radadiya,3742,70.4826126,21.7945972
Gujarat,Rajkot,Vedmata Cold Storage,Village Lodhika District Rajkot,Shri Rajendra P Jasani,2112,70.6328328,22.1344105
Gujarat,Surat,Agri Fresh Cold Storage,At Post Soyani Tal Palsana District Surat,Sh ManhoharShah,5130,73.0538097,21.1233988
Gujarat,Surat,Agrifresh Cold Storage,N H ROAD SOYANI,Shantilal Shah,5000,-71.5723953,43.1938516
Gujarat,Surat,KISAN AGRO Cold Storage,TATITHAIYA,PINTU SHAHA,6500,72.9844401,21.1552274
Gujarat,Surat,Kirshana Agro Cold Storage,BLOK NA 139 VOSHAKARMA NAGAR PIPODHARA,Kalubhai Patel,8000,72.95991289999999,21.3602405
Gujarat,Surat,Meghdoot Cold Storage,"PETROL PUMP, SAROLI",Govindji Patel,60,72.88587869999999,21.1894506
Gujarat,Surat,Siddivinayak Farm FreshPvt Ltd,"26/33,J.KRING,APMC,SARDAR MARKET",Sureshbhai Hingankar,160,73.02320929999999,26.2943082
Gujarat,Surat,Surat Agro Cold Storage,SURAT KADODHARA ROAD ANTROLI,Vasantbhi,6000,72.9293716,21.1819758
Gujarat,Surat,Surat Agro Cold Storage,Village Antroli Ta Palsana Dist Surat,Shri Janakbhai Patel,2500,72.9282207,21.1849542
Gujarat,Surat,Surat Agro Cold Storage,Block No 281 Village Antaroli Ta Pansoli Dis Surat,Shri Janakbhia Patel,2500,72.9282207,21.1849542
Gujarat,Surat,THE KAMREJ VIBHAG CO OP SOCIETY,KAMREJ,GUNWANT PATEL,460,72.9576601,21.2695241
Gujarat,Vadodara,Arbuda Ice Cold Storage,POWER CABAL ROAD NEARE CHHANI OCTROI NAKA,Bhumik Modi,9000,73.1691614,22.3501199
Gujarat,Vadodara,BARODA DISTRICT CO.OPERATIVE MILK PRODUCERS UNION,BARODA DAIRY MAKARPURA ROAD,Umesh D. Prajapati,589,73.2042506,22.2719
Gujarat,Vadodara,KISAN Cold Storage,SAKARDA-BHADARVA ROAD NR. MOKSI BUS STOP VIA NANDE,RAMESH PATEL,4500,73.1257942,22.4576034
Gujarat,Vadodara,SHAKUN Cold Storage,MOGAR VADODARA,RAGHUVIR RAULJI,4000,73.0139616,22.5262446
Gujarat,Valsad,Tapi,KALTAHAR KALIBARI,Vijay,1,88.247433,26.296633
Haryana,Ambala,H.D.D. C H.D.D.C.F. Ltd,KALKA MOR,Amarjeet Singh,125,77.268948,28.557864
Haryana,Ambala,Kamdhenu. Cold. Storage,AMBALA ROAD SHAHA,Satpal,2750,76.782122,30.3752011
Haryana,Ambala,Khosla Cold Storage,SARANGPUR VILLAGE,Pardeep Khosla,4000,76.472256,23.5664503
Haryana,Ambala,Markanda. Cold. Storage. And. Ice. Factory,SAHJADPUR ROAD SAHA,Nekraj,1181,89.5957281,24.1746142
Haryana,Ambala,Milap. Cold.Storage,NARAYANGARH SAHA ROAD SAHJADPUR,Nand. Lal,2000,89.5957281,24.1746142
Haryana,Ambala,New Janta Cold Storage,SADHAURA ROAD NARAYAN GARH,Narshingh,3000,77.2128796,30.3791183
Haryana,Ambala,Shivam. Cold. Storage,AMBALA ROAD MULANA,Parbindar. Kumar,1415,77.0469344,30.2781587
Haryana,Ambala,Shiwalik. Cold. Storage,SADHAURA ROAD NARAYAN GARH,Ashok. Kalra,2500,77.2128796,30.3791183
Haryana,Ambala,Sri Sankar Puri Cold Storage,INDUSTRIAL DEVOLMENT AREA,Tirath Ram,977,78.4497306,17.5215848
Haryana,Ambala,Sri. Ganesh. Cold. Storage,VILL DEHAR SADHAURA ROAD NARAYANGARH,Parneel. Kr,2185,77.2128796,30.3791183
Haryana,Ambala,Sri. Harmilap. Cold. Storage,VILL DEHAR SADHAURA ROAD NARAYAN GARH,Karan. Singh,2000,77.2128796,30.3791183
Haryana,Bhiwani,CHARKHI DADRI,"Near Bus Stand, Charkhi Dadri, Distt. Bhiwani-123 029",Ram Prakash,11100,76.115528,28.7955513
Haryana,Fatehabad,Badyal Cold Storage,"BHUNA ROAD, JAKHAL",Ramesh Singh,1500,75.4432703,27.9103941
Haryana,Fatehabad,Guru Kripa Storage,INDUSTRIAL ARIA,Yogendra Kr,1,51.43489870000001,25.2029096
Haryana,Fatehabad,Kapil Kailash Storage,NEW SABJI MANDI,Rakesh Kr,1,67.1581679,24.9978375
Haryana,Fatehabad,Mehat Cold Storage,CHANDIGARH ROAD TOHANA,Satnam Dara,2,75.9080265,29.7111669
Haryana,Fatehabad,Mehat Cold Storage & Chilling Centre,"CHANDIGARH ROAD, TOHANA",Suresh Kumar,1500,75.9056753,29.7163129
Haryana,Fatehabad,New Sat Guru Cold Storage,NEAR NEW SABJI MANDI,Deepak,1,77.1708039,28.7127804
Haryana,Fatehabad,Sethi Cold Storage,"OPP KAINCHI CHOWK , TOHANA",Malkit Singh,3250,75.9056753,29.7163129
Haryana,Jind,Aditi Cold Storage,OPP NEW SABJI MANDI,Ajay Kumar,1750,77.1708039,28.7127804
Haryana,Kaithal,Grover Cold Store And Ice Factery,PATIALA ROAD NEAR MARBAL MARKET CHEEKA,Jainaryan,1250,76.3420439,30.0489695
Haryana,Karnal,A. C. Cold. Storage,KHERA CHHAPARA,Sukhveer,1296,77.0420541,29.6833819
Haryana,Karnal,D R Cold Storage,RAWAR ROAD KARNAL,Sahil,4,76.9904825,29.6856929
Haryana,Karnal,Guru Kripa Cold Storage,RAWAR ROAD KARNAL,Bidbhushan,6,76.9904825,29.6856929
Haryana,Karnal,Heffard. Cold. Storage,TARWARI,Balveer. Singh,2987,78.9783135,30.3126478
Haryana,Karnal,Himalaya. Cold. Storage,SECTOR 5 G T ROAD,Devendra. Sharma,1000,74.1545904,32.1385377
Haryana,Karnal,Man. Cold. Storage,MERATH ROAD SEC 5,Sukhdev,1000,77.4304402,28.9591511
Haryana,Karnal,Ms Today Fresh,Vill Chirao Distt Karnal,Shri Anil Gupta,3200,76.9167689,29.6751872
Haryana,Karnal,R. K. Cold. Storage,VILL ALIPUR GARONDA,Rajdev,2316,77.13313629999999,28.7972263
Haryana,Karnal,Shiv. Sakti. Cold. Storage,SEC. 3. NEW. MANDI,Hargovind,600,77.7115687,29.4676905
Haryana,Kurukshetra,Ms A R Agro,VPO Babain Distt Kurukshetra,Shri Mohan Lal,4158,76.9844677,30.0755238
Haryana,Kurukshetra,Ms D D Agro,VPO Ajrawar Distt Kurukshetra,Shri Harish Kumar,5196,76.6860267,30.1487365
Haryana,Kurukshetra,Ms Hargobind Cold Storage,Village Shahbad Kurukshetra,Shri Sushil Kumar Garg,6235,76.8697232,30.1557114
Haryana,Kurukshetra,Ms Maan Cold Storage,Ladwa Road Vill Sirsma Distt Kurukshetra HR,Shri Phool Singh,1720,76.9202879,29.9802121
Haryana,Kurukshetra,Ms Narang Cold Storage Expansion,G T Road Shahbad Markanda Distt Kurukshetra,Shri Gajinder Narang,1000,76.8645222,30.1593905
Haryana,Panchkula,Jaddish Cold Store,P 358 PANCHKULA IND ARYA PH 2,Ramparshad,715,76.8353369,30.7290255
Haryana,Panchkula,Mahalaxmi Cold Store,455 PANCHKULA IND AEYA PH 1,Rajesh Kumar,653,76.860565,30.6942091
Haryana,Panipat,Om. Cold. Storage,UGRAKHERI MORE SANOLI ROAD,Mukesh. Kathoriya,6000,77.0120568,29.3838622
Haryana,Sirsa,Dumra Cold Storage,DABWALI ROAD,Sunil Dumra,2000,74.9336461,30.17877
Haryana,Sirsa,Kamboz Cold Storage,"RANIA ROAD, NEAR BUS STAND NANAKPUR",Balkisan,2370,76.84772939999999,30.8750924
Haryana,Sonipat,Balaji Agro Products,VPO Kundli Distt Sonepat,Shri Atul Goel,5041,77.11804529999999,28.8675978
Haryana,Sonipat,Delhi Agrocool Private Limited,Narela Pio Maniyari Road Village Kundli Dist Sonepat,Shri Devendra K Bansal,5311,77.11804529999999,28.8675978
Haryana,Sonipat,Hare Krishna Agrotech Cold Chain,Village Nathupur Distt Sonepat,Shri Sanjay Makhija,6124,77.0968408,28.8972288
Haryana,Sonipat,Ms Anant Cold Storage Pvt Ltd,Vill Wajidpur Kundali Distt Sonepat HR,Shri Vinod Gupta,3777,77.11804529999999,28.8675978
Haryana,Sonipat,Ms Santosh Argo Food Pvt Ltd,Vill Kundli Distt Sonepat,Mr Balraj Kumar Goel,5479,77.11804529999999,28.8675978
Himachal Pradesh,Kullu,HPMC Patlikuhl - Cold Storage,Village - Patlikuhl,HPMC,1000,77.1469766,32.1160563
Himachal Pradesh,Shimla,Adani Agri Fresh Pvt. Ltd.,"Vill - Rivali, PO- Samanthla, Tehsil - Kumarsain, Distt- Shimla",Pranab Adani And Ramanujam,6000,77.6536125,31.1231339
Himachal Pradesh,Shimla,Adani Agri Fresh Pvt. Ltd. - CA,VPO Sainj Tehsil Theog Distt Shimla,Ramanujam,6000,77.3597194,31.1182802
Himachal Pradesh,Shimla,Anubhooti Apples Pvt. Ltd.- CA,VPO Sainj Tehsil Theog Distt Shimla,Rajinder Garg,3500,77.3597194,31.1182802
Himachal Pradesh,Shimla,Dev Bhoomi Cold Chain Pvt. Ltd. - CA,VPO Matiana Tehsil Theog Distt Shimla,Sanjay Agrawal,5250,77.4056451,31.2101515
Himachal Pradesh,Shimla,HPMC Gumma - CA,"Village - Gumma, Tehsil - Kotkhai, Distt. - Shimla",HPMC,640,77.6536125,31.1231339
Himachal Pradesh,Shimla,HPMC Jarol Tikker - CA,"Village - Jarol Tikker, Tehsil - Kumarsain, Distt - Shimla",HPMC,640,77.6536125,31.1231339
Himachal Pradesh,Shimla,HPMC Oddi - Cold Storage,"Village - Oddi, Tehsil - Kumarsain, Distt. - Shimla",HPMC,1000,77.6536125,31.1231339
Himachal Pradesh,Shimla,HPMC Rohru - Cold Storage,"Village & Tehsil - Rohru, Distt - Shimla",HPMC,1000,77.6536125,31.1231339
Himachal Pradesh,Shimla,Him Agri Fresh Pvt. Ltd. - CA,"VPO Balghar, Tehsil Theog Distt Shimla",Pradeep Agrawal & Amit Malik,5000,77.3597194,31.1182802
Himachal Pradesh,Shimla,Him Fresh Produce Co. Ltd. - CA,Bagori P.O. Gumma Tehsil Kotkhai,Hitin Suri,400,77.5409366,31.1171598
Himachal Pradesh,Shimla,Maa Kali Society Cold Storage,Jubbar Hatti Tehsil And Distt Shimla,Maa Kali Society,0,77.1639874,31.104963
Himachal Pradesh,Shimla,Mother Dairy Gowdown,Vill Dawaru PO Junga Tesil And Distt Shimla,Mother Dairy,0,77.1916497,31.0240057
Himachal Pradesh,Sirmaur,Bhandari Cold Storage,Moginand (G.P. Kala Amb) Nahan,Baldev Bhandari,0,77.2967984,30.5614132
Himachal Pradesh,Sirmaur,Deptt. Floriculture Cool Chamber,Nauni Distt Solan,University,25,77.1729605,30.859959
Himachal Pradesh,Sirmaur,MFC Mahog Bagh Chail Cool Chamber,Mahog Bagh Chail The Kandaghat Distt Solan,MFC,95,77.1053673,30.9702143
Himachal Pradesh,Solan,HPMC Parwanu - Cold Storage,Village - Parwanu,HPMC,3000,76.9583881,30.8405752
Himachal Pradesh,Solan,Hpmc Cold Storage,"HPMC COLD STORAGE , SECTOR 2 PARWANOO",P.S Negi,779,76.9513432,30.8431882
Himachal Pradesh,Una,Gupta Cold Store/Ice Factrey,AMB ROAD,Parveen Gupta,1600,74.7457699,19.0971838
Jammu And Kashmir,Jammu,Laxhmi Cold Storage,AIRPORT ROAD SATWARI,Deepak Kumar,1250,74.84340259999999,32.6847243
Jammu And Kashmir,Jammu,Suraj Cold Storage,GOLE PULI,Raghuvir Singh,340,13.8486685,44.8679162
Jharkhand,Dhanbad,DHANBAD Cold Storage,KALYANPUR BARBADDA,PRAHLAD SINGH,3150,86.4280687,23.8381864
Jharkhand,Hazaribagh,HAZARIBAGH Cold Storage,KOLGHATI HAZARIBAGH COLD STORAGE,SHUBHASH KUMAR,3165,85.3636758,23.9924669
Jharkhand,Hazaribagh,Ms Vishnu Maa Bhawani Cold Storage Ptv Ltd,Hazaribagh Jharkhand,Shri Binod Kumar Mehta,4775,85.3636758,23.9924669
Jharkhand,Ranchi,RANCHI,"PO.:- Hehal, Ratu Road, Distt: Ranchi- 834005 Jharkhand)",SMT. K. KACHHAP,15591,85.22048509999999,23.3691335
Jharkhand,Ranchi,SRI BASANT Cold Storage,HARMU HOUSING COLONY,RAGHUNAND PRASAD,3500,85.307311,23.3552463
Jharkhand,Ranchi,The Vegetable Growers Cooperative Society Ltd,Kori Mohalla Dist Ranchi Jharkhand,Shri Lalit Kumar Mahto,5000,85.309562,23.3440997
Karnataka,Bagalkot,Bagalkot Milk Union Co-Op Ltd,VIDYAGIRI INDL AREA,Mahesh,20,75.01819569999999,15.4424584
Karnataka,Bagalkot,Bagalkot Milk Union Cold Store,BUS STAND ROAD BADAMI,Veerbadraiah H Hiremutt,6,75.6770595,15.9213349
Karnataka,Bagalkot,Dempo Diary Industry Ltd,ASANGI V I BANHATTI,Vijaykumar Kagi,200,75.1386768,16.4946327
Karnataka,Bagalkot,Green Food Park,KIADB INDL AREA,Parashu B,2400,74.82146929999999,12.9477532
Karnataka,Bagalkot,M B Fruits Merchant,DURGADEVI NAGAR,Manjula,10,80.27742940000002,13.1287025
Karnataka,Bagalkot,Maiboob Fruit Company,SANGAM RD.HUNGUND,Mahamed Yusuf,25,76.06094759999999,16.0576259
Karnataka,Bagalkot,Venkateswara Fruit Company,BUS STAND.ILKAL,Srinivas,18,76.1125088,15.9652095
Karnataka,Ballari,Abdul Fruit Company,KHABARSTAN.SIRGUPPA,Abdul,10,76.9005817,15.6175163
Karnataka,Ballari,Ganapathi,K.I.A.D.B INDUSTRIAL AREA MUNDARGI ROAD,Raghunatha,7000,75.8853465,15.2054557
Karnataka,Ballari,NJF Company,HOSPET RD.KAMPLI,Jaffar,35,76.60516659999999,15.4062832
Karnataka,Ballari,SGF Fruit Company,KHABARSTAN.SIRUGUPPA,Hazgar Ali,10,76.9005817,15.6175163
Karnataka,Ballari,Sai Balaji Col Storage,K.I.A.D B INDUSTRALIAL AREA,Ramesh,5500,-77.4586344,38.9523404
Karnataka,Ballari,Sri Renukadevi Fruit Company,MERLAM TALKIES RD.HOSPET,Prakash,20,76.39092409999999,15.2688542
Karnataka,Ballari,Venkoba Banana Merchant,CHALUVADI KERE.HOSPET,Nagappa,5,76.3650857,15.2626784
Karnataka,Bidar,Nandini Walk In Cold Store,GANDHI GUNJ.GUMPA MYLAR RD,Ganesh,10,77.515362,17.9090303
Karnataka,Davangere,M.K.Ice Industries,P.B.ROAD RING ROAD CORNAR DVG,Chandrappa,14,75.9321799,14.4591076
Karnataka,Davangere,Shivamoghaco Operative Milk Union Ltd Davanagere,DAVANAGERE DAIRY DODHABATHI DAVANAGERE TALUKANDDIS,Vedhamurthy,35,75.921758,14.4644085
Karnataka,Gadag,Gadag-II,"KIADB Indl. Area, Naraspur,Gadag-582102",S.F.Patil,1200,75.6440842,15.5185075
Karnataka,Haveri,Anjanadhri,O249/B MALLUR ROAD NEAR APMC BYDAGI,Sameer,3000,75.4760742,14.6841629
Karnataka,Haveri,Ms Sri Shivakiran Cold Storage Pvt Ltd,Sangameshwara Nagar Byadgi Haveri Karnataka,Shri H N Nagaraja Setty,5143,75.3019083,14.6491499
Karnataka,Haveri,Prayag Cold Storage Pvt Ltd,SANGAMEHWARNAGR GUMMHANAHALLIROAD BYDAGI,Basavaraj,2625,75.4805913,14.6699861
Karnataka,Haveri,Rgp,GUMMANAHALLI ROAD BADAGI,Prashanth,3000,75.4805913,14.6699861
Karnataka,Haveri,RgpCold Storage,GUMMANAHALLI ROAD BADAGI,Nagaraj,2400,75.4805913,14.6699861
Karnataka,Haveri,Sri Veerabadhreshwar Cold Storage,NEAR APMC MUKTHIDHAMROAD BYDAGI 58110,Shivaraj,3000,75.4869033,14.6814129
Karnataka,Haveri,Sri Vinayaka,APMC YARD BYDAGI.,Belatedly Venkatesh,5000,75.4803505,14.6746007
Karnataka,Haveri,Srisidhaganga Cold Storage,NEAR APMC YARD MALLUR ROAD BYDAGI,Nagaraj,3500,75.481827,14.6765698
Karnataka,Haveri,Srre.Vakrathunda Agri-Tech Pvt.Ltd.,P.B.ROAD.MOTEBENNUR,R.S.Shettar,2400,75.9321799,14.4591076
Karnataka,Haveri,Surya Cold Storage,NEAR APMC YARD BYDAGI HAVERI DISTIC,Hariprasadh,5416,75.4803505,14.6746007
Karnataka,Koppal,Anjaneya Fruit Company,VIDYANAGAR.KUSTAGI,Yallappa,5082,76.19286400000001,15.7518704
Karnataka,Koppal,M A K Fruit Company,BANNIGIDA CAMP.GANGAVATHI,M Shabbir,50,76.5280701,15.4319267
Karnataka,Mysuru,Bmr Dairy Foods,BMRFRIENZATREDIFFMAIL[Dot]COM[Dot],U Munawar.Pasha,6,11.2576706,43.7699685
Karnataka,Mysuru,Mymul,MYMUL SIDDARTH NAGAR,Naharjurs,90,76.6756898,12.3089085
Karnataka,Mysuru,Shanthi Enterprises,"C47/48, YADAVAGIRI INDUSTRIAL AREA",Wilson Prabhakar,13,76.6380222,12.3370277
Karnataka,Raichur,ILC Industrees,KUSTAGI RD.3RD MAIN CAMP SINDHANUR,Vijay,5200,76.7446344,15.7677849
Karnataka,Raichur,K H Fruit Company,BUS STAND LINGASUGUR,Mallappa,25,76.5199195,16.1550404
Karnataka,Raichur,Kalim Fruit Company,NR SBI LINGASUGUR,Shaik Shabbir,40,76.52197199999999,16.15609
Karnataka,Raichur,Maiboob Fruit Company,LV NAGAR SINDHANUR,Imthiyaz,50,76.7560495,15.7702099
Karnataka,Raichur,Mallikarjuna Fruit Company,LINGASUGUR RD,Rajesh,20,76.5199195,16.1550404
Karnataka,Raichur,Ms Mahesh Cold Storage,Tah Sindhanur Distt Raichur,Shri K Rajashekhar,5516,76.6874701,15.7916883
Karnataka,Raichur,Ms Vishwanath Reddy Co,Plot No 210 P 2 Industrial Growth Center Hyderabad Road Raichur,Shri U Venkara Ramana Reddy,5980,77.3565608,16.216018
Karnataka,Raichur,RFC,SUKALPET RD SINDHANUR,Amaresh,30,76.7761134,15.7624825
Karnataka,Raichur,Raichur Bellary Kopal Milk Union Co Op Ltd,HYDERABAD RD YERMARUS,Ravikumar,40,77.3554288,16.2296923
Karnataka,Shivamogga,Shimoga Co-Op Milk Cold storage,MACHENAHALLI,Mallikarjuna,13,75.6513571,13.8875969
Karnataka,Tumakuru,Can't Tell,"157, OPP. TO STATE WARE HOUSE BH ROAD TUMKUR572103",Prassana Kumar,1500,77.1216903,13.3353449
Kerala,Alappuzha,Amritha Exports,VILL. RAFIPUR. PO.$PS. AMDANDA.DIST. NORTH 24 PARG,Jisha,75,88.50454769999999,22.8229367
Kerala,Alappuzha,Cherthala,CHERTHALA,Sajeshkumar,250,76.3400963,9.674136299999999
Kerala,Alappuzha,Mare Foods,"AROOR.P.O,CHERTHALA,ALAPEY",Joseph.K.P,200,76.3388484,9.498066699999999
Kerala,Alappuzha,Sea Bay,INDUSTRIAL ESTATE AROOR,LALU,960,76.3038672,9.878191
Kerala,Ernakulam,Abad Fisheries,PROD[Dot]730[At]ABADGROUP[Dot]IN,Jibin Martin. V. J,10000,23.6878994,37.9451326
Kerala,Ernakulam,Aswinassociates,VIKASROADKARUVELIPADYCOCHIN,P Surendranpillai,200,76.2611332,9.9409454
Kerala,Ernakulam,Bellfoods,THOPPUMPADY,Sheilasathyan,400,76.2583277,9.9355961
Kerala,Ernakulam,CIAL,CIAL[At]COCHIN-AIRPORT[Dot]IN,Tomy Devis,18,76.4013295,10.1529902
Kerala,Ernakulam,ERNAKULAM,Nagarkadavandhara ErnaKulam - 682 020,S.Surendra Nath,14065,76.30293739999999,9.9659856
Kerala,Ernakulam,INDIAN MARINE INDUSTRIES,"INDIAN MARINE INDUSTRIES,20/550B,MANHATTAN ROAD,PA",SEBASTIAN FRANCIS,300,-77.1945247,41.2033216
Kerala,Ernakulam,Interlink Exports,JEW TOWN MATTANCHERY,Ramla,100,76.2602222,9.9553412
Kerala,Ernakulam,KAKKANAD,"KINFRA-EPIP,Kakkanand Kochi-682 030",S.Sukumar,15843,76.3194675,10.0104473
Kerala,Ernakulam,KOCHI,"Near Naval Boat .Jetty Willington Island,Kochi-682003",K.R.Radhakrishnan,5030,76.2855634,9.9325244
Kerala,Ernakulam,KayKayExports,KANNAMALY,Mukundan,750,76.2638427,9.8757284
Kerala,Ernakulam,LG Foods,PALLURUTHI,Joseph,200,76.2735721,9.9215812
Kerala,Ernakulam,LmonsunFoods Pvt Ltd,JETTYROAD,Eljo,200,138.5168101,-34.980204
Kerala,Ernakulam,Nadukara Agro Proccessing Factory,AVOLY P O MUVATTUPUZHA ERNAKULAM,Reji,150,76.57897489999999,9.9894229
Kerala,Ernakulam,Nmras Exports India Pvt Ltd,NMRAS INDIA PVT LTD,Aslam,50,78.96288,20.593684
Kerala,Ernakulam,Paragon Sea Foods Pvt. Ltd.,MAIL[At]PARAGONSEAFOODS[Dot]IN,Radhakrishnan,150,76.2747486,9.9263886
Kerala,Ernakulam,ParagonSeaFoods Pvt Ltd,PARAGONSEAFOODS[At]YAHOO[Dot]CO[Dot]IN,Sajin,150,76.2747486,9.9263886
Kerala,Ernakulam,Profandvayalatmarineexports,PALLURUTHI,Shivakumar,100,76.2735721,9.9215812
Kerala,Ernakulam,SH MARINE EXIM,SHMARINEEXIM[At]EMAIL[Dot]COM,Zakriah Ahmed,80,76.29543029999999,9.905680799999999
Kerala,Ernakulam,U And Co Marine,ESTIMATES NORTHPARAVUR,K C Jayan,150,76.22727139999999,10.1446281
Kerala,Ernakulam,VTJseafoods,PALLURUTHI,Rajesh,250,76.2735721,9.9215812
Kerala,Kollam,Avla Nettos,SHAKTHY KULANGARA,Vinod,700,76.5527249,8.9230166
Kerala,Kollam,Esmarioexports Pvt Ltd,KAVANAD KOLLAM,Jose Francis,200,76.5595359,8.9190445
Kerala,Kollam,Kings Marine Exim,MANGAD,Anilkumar,400,76.18489459999999,10.6807552
Kerala,Kollam,Kings Marine Products,ULIYA KOVIL,Vijayan,100,76.6022778,8.9021054
Kerala,Kollam,Kscadc,KSCADC[At]GMAIL[Dot]COM,V S Jalajakumar,20,76.9466922,8.4665772
Kerala,Kollam,Sanmarineproducts,SAKTHIKULANGARA.KOLLAM,Solomon Antony,250,76.5527249,8.9230166
Kerala,Kollam,Veronica Marine Exports,VERONICAMARINEEXPORTS[At]GMAIL[Dot]CO,Manu K Mohan,800,76.5343101,8.9578632
Kerala,Kottayam,KOTTAYAM,"Railway Goods Shed Road, (Old EID Pary Godown) Nagampadom,Kottayam 686 016",P. Ashok Kumar,3188,76.5221531,9.591566799999999
Kerala,Kozhikode,CALICUT AIR CARGO COMPLEX,"CALICUT AIRCARGO COMPLEX, CALICUT AIRPORT,CALICUT",THOMAS JACOB,50,75.78041,11.2587531
Kerala,Kozhikode,INSAF EXPORTS,"INSAF EXPORTS, PULIMOOT ROAD,BEFORE,CALICUT",UMMAR KOYA,2,75.78041,11.2587531
Kerala,Palakkad,Milma,PKD[Dot][At]MALABARMILMA[Dot]COOP,Madhavan,10000,-2.9351152,43.2601176
Kerala,Thrissur,K.M.FISHERIES,"MARWA SEAFOODS, LIGHTHOUSE JUNCTION,AZHICODE-68067",Mohamed Shefeeq,250,75.3353875,11.9170647
Kerala,Thrissur,TRICHUR,"Kuriachira, Trissur - 680 006",Jos. A.Mooken,32590,76.2144349,10.5276416
Madhya Pradesh,Bhind,Hindustan Cold Storage,GWALIOR ROAD,Subhash Jain,1159,78.1558354,26.2609387
Madhya Pradesh,Bhind,Padma Cold Storage,EATAWA ROAD,Sanjay Jain,4100,79.027659,26.7829103
Madhya Pradesh,Bhopal,Gangotri Cold Storage,VILL- LAMBAKHEDA,Sunder Singh Yadv,5000,77.40349270000002,23.3265702
Madhya Pradesh,Chhatarpur,M/S Rai Ice Factory & Cold Storage,ALIPURA,Arun Kumar Rai,2346,79.3472597,25.1758506
Madhya Pradesh,Chhindwara,Krishak Cold Storage,NARSINGHPUR ROAD,Hariraman Singh,875,86.3217661,21.1482483
Madhya Pradesh,Chhindwara,Patidar Cold Storage,PARASIA NAKA,Pradeep Kankhra,6000,78.9241564,22.0604174
Madhya Pradesh,Dhar,Sarveshvar Entarprises Pvt Ltd,MHOW NIMACH ROAD SEC 1 PITHAMPUR,Ram Singh Yadav,6000,75.6915113,22.6184403
Madhya Pradesh,Guna,Gitanjali Cold Storage,GUNA ROAD KUMBHRAJ,Manish Kasat,6000,77.05500719999999,24.3732693
Madhya Pradesh,Gwalior,Agrasen Cold Storage,OLD CHHAWNI,Suresh Agarwal,4800,75.8757064,22.7082479
Madhya Pradesh,Gwalior,Agrasen Cold Storage Pvt Lmt,OLD CHHAWNI,Suresh Agarwal,3800,75.8757064,22.7082479
Madhya Pradesh,Gwalior,Bansal Cold Storage,OLD CHHAWNI AB ROAD,Sandeep Sahani,3833,75.8787019,22.7071253
Madhya Pradesh,Gwalior,Dhruv Cold Storage,GOLE KA MANDIR ROAD,S.B. Bhadouria,2800,78.2122666,26.2327767
Madhya Pradesh,Gwalior,Jai Mahakal Old Storage,OLD CHHAWNI GANGAPUR,Mahesh Agarwal,4447,75.8757064,22.7082479
Madhya Pradesh,Gwalior,Ok Jai Balaji,OLD CHHAWNI,S.K. Shivhare,9000,75.8757064,22.7082479
Madhya Pradesh,Gwalior,Saroj Cold Storage,JHANSI ROAD VICKI FACTORY,Santosh Verma,8000,78.14499359999999,26.1749099
Madhya Pradesh,Gwalior,Saroj Old Storage,VICKEY FACTORY JHASI ROAD,Santosh,8000,78.14499359999999,26.1749099
Madhya Pradesh,Gwalior,Sudarshan Cold Storage And Ice Factory,CHHATRI BAZAR,Devendra Gupta,1837,71.2090171,22.0379781
Madhya Pradesh,Indore,Aanad Cold Storage Pvt Ltd,RAO ROAD,Vijay Kumar Narayan Prasad,4000,100.636127,23.81783
Madhya Pradesh,Indore,Akarshit Ice And Cold Storage,VILLAGE SONVAY PITHAM PUR ROAD,Ashok Patel,6000,75.7676053,22.6236583
Madhya Pradesh,Indore,Devi Shri Ahilya Sakhari Sheet Grih,"TEJPUR GADBADI, AB ROAD",Prakash Patil,6500,75.8875123,22.7262499
Madhya Pradesh,Indore,Dhanuka Cold Storage Pvt Ltd,AB ROAD PIGDAMBER,Vinay Roy,17000,75.8875123,22.7262499
Madhya Pradesh,Indore,Gambhir Cold Storage,HATOD MARIMATA CHORAHA,Anil Varma,6000,75.7386027,22.7928336
Madhya Pradesh,Indore,Gandhi Cold Storag Unit Gandhi Fertilizer Pvt Ltd,VILLAGE KAPALIYA KHEDI 8TH MILE NEMAVAR ROAD,Hansmukh Jain Gandhi,6000,75.9956825,22.6814452
Madhya Pradesh,Indore,Gaurav Ice And Cold Storage Pvt Ltd,MUNDI ROAD BIJALPUR,Parmanand Patwari,6000,75.8348775,22.663252
Madhya Pradesh,Indore,Jhwar Ice & Cold Storage,ARJUN BARODA,Ashok Ladda,15000,75.9702722,22.8785507
Madhya Pradesh,Indore,Kishan Seet Graha,AB ROAD RAU,Kamal Kishore Varma,2872,75.8117791,22.6375985
Madhya Pradesh,Indore,Maa Annpurna Ice Cold Storage Pvt. Ltd,MUNDI ROAD SELIKAN CITY KA PASS,Amndra Singh,6000,75.4785302,31.6079242
Madhya Pradesh,Indore,Maa Anpurna Agri Hatik,BETMA ROAD,Lakan Tawar,6000,75.5377337,22.8391857
Madhya Pradesh,Indore,Maa Umiya Ice & Cold Storage,DHAR ROAD,Mohan Singh Thakur,6000,75.8257776,22.7077983
Madhya Pradesh,Indore,Maa Umiya Shakari Sheet Grah Sanstha Maryadit Jaml,AB ROAD JAMLI,Rajeah Patidar,10000,75.9757127,22.9005923
Madhya Pradesh,Indore,Mittal Cold Storage,AB ROAD,Babulal Yadav,13000,75.8875123,22.7262499
Madhya Pradesh,Indore,Mittal Cold Storage Pvt Ltd,AB ROAD,Nilesh Chodhary,13000,75.8875123,22.7262499
Madhya Pradesh,Indore,Narayani Cold Storage Pvt. Ltd,AB ROAD DONGARGAON MAHU,D.S Bhati,6000,80.8501345,20.9702161
Madhya Pradesh,Indore,Ravraja Chatakaran Cold Storage Pvt Ltd,DATODA KHANDVA ROAD,Mn Sharma,6000,76.0469566,22.2361077
Madhya Pradesh,Indore,Sagar Sheet Grah Pvt Ltd,VILL BILAOLY KHANDVA ROAD,Madan Singh Rana,12000,76.0469566,22.2361077
Madhya Pradesh,Indore,Sanjana Cold storage Pvt Ltd,CANADIAN[At]SANCTUARY[Dot]IN,Nawal Singh Patel,12000,-106.346771,56.130366
Madhya Pradesh,Indore,Satish Ice And Cold Storage Pvt Ltd,SHRAMIK COLONY RAU,Prahlad Das Ji Agraval,9000,75.8192578,22.6406024
Madhya Pradesh,Indore,Seeri Ganesh Colad Store,KHODARIYA,Kelash Chandar,7000,50.0474069,26.4479518
Madhya Pradesh,Indore,Sheeri Ambika Aalu Utpadak Vipnn And Prkriya Sahak,GAVLI PALASIYA,Chagan Lal Bhatiya,10000,75.7284267,22.5340988
Madhya Pradesh,Indore,Shiv Shakti Alu Utpadak,TILLORE KHURD,Ram Krishna,4000,75.9528557,22.616099
Madhya Pradesh,Indore,Shri Dutt Sheetgrah Pvt.Ltd,MUNDI ROAD BIJALPUR,Hitesh,5000,75.8348775,22.663252
Madhya Pradesh,Indore,Shri Jankeshwar Cold Storage,RAJPURA KUTTI POST YASHWANT NAGAR,Rahul Thakure,6000,76.5905317,30.4765796
Madhya Pradesh,Indore,Sule Cold Storage,RAU 452001,Ramesh Patel,11600,75.8824422,22.7081955
Madhya Pradesh,Indore,Swan Cold Stroage P T Ltd,"GAVALI PALASIA,, GAWLIPALASIA, MHOW",Shubham Pancholiya,4500,75.7625071,22.5505029
Madhya Pradesh,Indore,Vrindavan Cold Storage Pvt.Ltd,MOROD MACHLA ROAD NEAR KHANDWA ROAD,Shivprasad Verma,6000,75.8679264,22.6216292
Madhya Pradesh,Katni,Pandey Ice Fectory,18 INDUTRIAL AREA,Aashish Pandey,262,78.1640654,29.9532806
Madhya Pradesh,Morena,Govind Cold Store,AB ROAD,Radha Charan Pathak,2500,75.8875123,22.7262499
Madhya Pradesh,Morena,Neelam Preservation,BAMORE ROAD INDUSTRIEL AREA,Vipin Agarwal,1880,75.8320035,26.1485894
Madhya Pradesh,Morena,Sitadevi Cold Storag,AB ROAD,Amrendra Savita,3200,75.8875123,22.7262499
Madhya Pradesh,Morena,Suresh Cold Store,INDUSTRIEL AREA 43,Foran Singh Jadon,1347,51.43489870000001,25.2029096
Madhya Pradesh,Rewa,Laxmi Cold Storage,823/1 GUD ROAD REWA,Ravindar Kumar Tamrkar,972,81.30369460000001,24.5362477
Madhya Pradesh,Ujjain,Anand Cold Store,VILL KARONDIYA JILA UJJAIN,Chri Chand Jat,5400,75.5305814,23.2729298
Madhya Pradesh,Ujjain,Mahakal Cold Storage,VILL PANCH KUA SHANKARPUR,Harshankar Singh,5000,87.5698638,21.6491352
Madhya Pradesh,Ujjain,Malwa Cold Store Pvt Ltd,VILL HARSODAN MAKSI ROAD PATPADA,Mantu Lal Lodhi,4500,75.9056753,23.188172
Madhya Pradesh,Ujjain,Shri Ganesh Cold Store,VILL KARONDIYA MAKSI ROAD,Shrichand Jat,5400,77.3410569,23.4319023
Madhya Pradesh,Ujjain,Shri Mahakal Ice And Cold Storage Pvt Ltd,VILL BERKHEDI VIJAYGANG MANDI KE PASS,Atmaprakash Ji,4000,75.9390662,23.1722645
Madhya Pradesh,Ujjain,Shrivastav Cold Storage Pvt Ltd,VILL RAJODA UJJAIN ROAD,Babulal Raul,6000,75.8504904,22.9005632
Madhya Pradesh,Ujjain,Ujjain Dudgh Sangh Sahakari Marayadit,UJJAIN MAKSI ROAD,Ranveer Singh,64,75.8119957,23.1845032
Madhya Pradesh,Ujjain,Ujjain Ice And Cold Storage Pvt Ltd,UJJAIN MAKSI ROAD PAVASA,Vaibhav Katiyar,6000,75.8209078,23.189234
Madhya Pradesh,Ujjain,Us Katiyar Cold Storage Pvt Ltd,VIILL KAYTHA MAKSI ROAD UJJAIN,Dinesh Katiyar,8000,76.016337,23.2331912
Maharashtra,Ahmednagar,Ms Gugale Cold Storage Pvt Limited Expansion,Ap Shendi Distt Ahamednagar,Shri Kamlesh Hiralal Gugale,1100,74.74797889999999,19.0948287
Maharashtra,Jalgaon,Ms Meghraj Cold Storage,G No 321 1 Ap Paldi Bu Sawada Ringangaon Road Tal Dharangaon Dist Jalgaon,Shri Purushotam Subhashchandra Navandar,2860,75.27415570000001,21.0145539
Maharashtra,Latur,Ms Venkateshwara Agrotech,A 100 Additional MIDC Harangul B K Latur Dist,Shri Anand Shriniwas Lahoti,4225,76.4707684,18.3994504
Maharashtra,Nagpur,Ms Melghat Cold Chain Pvt Ltd,Tal Kamptee Nagpur Bhandara Road Dist Nagpur,Shri Aditya Jhunjhunwala,5000,79.1483689,21.1510631
Maharashtra,Nandurbar,Ms Kumar Cold Storage Prop Ashok Kantilal Jain,Mohide Shivar Shahada Dondaich Road Shahada,Shri Ashok Kantilal Jain,1920,79.6754694,21.3087682
Maharashtra,Nashik,Ms Sangale Agro Processing Pvt Ltd,Ugaon Road Niphad Dist Nashik,Shri Rajaram Nivrutti Sangale,1100,74.1116264,20.0864265
Maharashtra,Nashik,Ms Shree Ganesh Cold Storage,Ap Niphad Dist Nashik,Shri Balasaheb Kshirsagar,2000,73.78980229999999,19.9974533
Maharashtra,Solapur,Ms Dattakamal Cold Storage Pvt Limited,Kasegaon Distt Solapur,Shri Ramakant Dattatray Pawar,2000,75.32882819999999,17.6179285
Maharashtra,Thane,Ms Eskimo Ice Manufacturing Co Pvt Ltd,P No A 32 MIDC Mahape T T C Industrial Area Navi Mumbai,Shri Mansukhlal H Nakum,3336,73.01875849999999,19.0937817
Maharashtra,Thane,Ms Krushi Foods And Spices Private Limited,MIDC T T C Industrial Area Khairane Distt Thane,Shri Rajesh Mohandas Purswani,2400,73.01875849999999,19.0937817
Nagaland,Dimapur,Dimapur,"Khermahal,Opp. Naga Cemetery,Dimapur,Nagaland-797112",R K Boro,13000,93.642048,25.7358504
Odisha,Balangir,Ms Shreeya Cold Storage,Katarkala Bolangir,Shri Ramesh Jain,5000,83.4846069,20.7011108
Odisha,Ganjam,Jagarnath Cold Storage,"RAJA SAHI CHHAK,ASKA ROAD",Jn Murty,5000,-84.2758309,34.8044061
Odisha,Jharsuguda,Sri Sankar C S,PLOT.2028.BEHERAMAL.,Rambinay Prasad Shah,1700,83.8022149,21.720274
Odisha,Mayurbhanj,KichakezwariCold And Ice Store,KUDUMA-RASUNTALA-KARANJIA,Bidyadhar-Sutar,6000,86.0178972,21.763667
Odisha,Mayurbhanj,Malawi Agri C.S.,MOSQUITOES.WARD NO 12.KARANJIA,Pawan Agarwala,4000,85.9738752,21.7633498
Odisha,Mayurbhanj,Tarini Cold Storage,SANDEILI KARANJIA,Mangaluram,6000,85.9738752,21.7633498
Odisha,Puri,Mcs Andmcs,AT/PO-NIMAPARA,Swadhin,2700,86.0070547,20.0536724
Odisha,Sambalpur,K C Cold Storage,Jagannath Mandir Colony Budharaja Sambalpur,Shri Kailash Ch Agrawal,5000,83.984633,21.4808175
Odisha,Sambalpur,Shyam Cold Storage Expansion,Cold Storage Complex Baraipalli Distt Sambalpur,Shri Saket Pansari,100,83.9625195,21.4931147
Odisha,Sambalpur,Syam C.S.,BARAIPALI. SAMBALPUR,Saransh Pansari,4,83.9625195,21.4931147
Odisha,Sundargarh,MS Bharat Ice And Cold Storage Modernization,E3 E4 Industrial Area Rourkeal Dist Sundargarh,Shri Nirmal Chandar Routray,500,84.8535844,22.260423
Punjab,Amritsar,Joshan Agroo Food Cold Store,AKAL GADHA AMRITSAR,Jagjeet Singh,5777,74.8754214,31.620631
Punjab,Amritsar,Marwaha Cold Storage,FOCAL POINT PLOT 354 AMRITSAR,Rajinder Singh,2150,74.9143218,31.615163
Punjab,Amritsar,Ms A K Cold Store,Village Ibban Kalan Chabal Road Amritsar,Shri Sukhdev Singh,2240,74.8554269,31.6150379
Punjab,Amritsar,Ms Handa Cold Storage,VPO Tangra The Baba Bakala District Amritsar,Shri Ratan Lal,4935,75.12094280000001,31.5630764
Punjab,Amritsar,Ms Heir Cold Storage,Village Rakh Devidasspura Tehsil District Amritsar,Shri Jasmeir Singh,3472,75.298943,31.6466526
Punjab,Amritsar,Ms Satgur Cold Storage,VPO Muchhal District Amritsar,Shri S Ram Singh,3044,75.1443226,31.5698798
Punjab,Amritsar,Ms Thind Cold Storage Private Ltd GT Road Amritsar,Village Mana Walan Kala GT Road Amritsar Punjab,Shri Malkit Singh,1641,74.8722642,31.6339793
Punjab,Amritsar,Saha Cold Storage,MEHTA ROAD AMRITSAR,Vasudev,3840,74.9180824,31.6248563
Punjab,Bathinda,ANIL Cold Storage PVT LTD,RAMPURA FUL BHATINDA ROAD BATINDA,BHOLA SINGH,5900,75.2447754,30.2626376
Punjab,Bathinda,Bhawani (Sandhu) Cold Storage,MALOUT ROAD NEAR BEHMAN DIWANA VILLAGE,Aldel Singh,3500,74.85217519999999,30.2206404
Punjab,Bathinda,Guru Nanak Cold Store,BIBI WALA CHOWK,Baldav Singh,1440,74.9616297,30.2256072
Punjab,Bathinda,KISHAN Cold STORE,RAMPURA FUL LUDHIANA ROAD BHATINDA,RAKESH &KULJEET SINGH,6500,74.9454745,30.210994
Punjab,Bathinda,Ms Singla Cold Storage,Distt Bhatinda,Smt Seema Singla,4318,74.9454745,30.210994
Punjab,Bathinda,ONKARE Cold STORE,RAMPURA FULL BERNALA ROAD BHATINDA,Sukhvinder Singh,2000,75.5691784,30.5252454
Punjab,Bathinda,P B Cold Store,BARNALA ROAD RAMPURA FULLA DIST BHATINDA,Dinesh Gindhal,6,74.9454745,30.210994
Punjab,Bathinda,SANDEEP Cold Storage,LEHRA BEGA RAMPUR ROAD BHATINDA,VIJAY KUMAR,2400,75.12097039999999,30.2463671
Punjab,Bathinda,Take Cold Store,PHOL ROAD RAMPURAPHOL,Inderjeet Singh,5000,75.2398001,30.2701304
Punjab,Hoshiarpur,Ms Barfani Cold Storage,Focal Point Phagwara Road Hosinarpur,Shri Sanjeev Kumar,750,75.8991271,31.5111628
Punjab,Hoshiarpur,Ms S S Bajwa Cold Storage And Ice Factory,Purhiran Ring Road Hoshiarpur,Shri Dav Singh Bajwa,4328,75.88970290000002,31.4992938
Punjab,Hoshiarpur,Ms SBS Cold Storage,Village Ahirana PO Ahiran Kalan District Hoshiarpur,Shri S Gurmeet Singh,5201,75.8359645,31.4219239
Punjab,Hoshiarpur,Ms Shri Krishan Cold Storage,Village Gigan Wala Distt Hoshiarpur,Shri Sarabjit Singh,2796,75.911483,31.5143178
Punjab,Jalandhar,A.S. Kang Cold Storage,KARTARPUR ROAD,Shyamlal Ji,2083,75.0074493,32.1107589
Punjab,Jalandhar,Ashirward Cold Store,JANDE SARAYE ROAD KARTARPUR,Ashish Agarwal,4700,75.5030211,31.4439874
Punjab,Jalandhar,BHULLAR Cold STORE,NAKODAR ROAD JALANDHAR,JASPAL SINGH,2750,75.5176878,31.2301472
Punjab,Jalandhar,Begal Cold Storage,JANDE SARAYE ROAD KARTARPUR,Charanjeet Singh,2000,75.5030211,31.4439874
Punjab,Jalandhar,Chacha Cold Store,VILLAGE MAND,Subash Chander,6250,75.5000081,31.35158539999999
Punjab,Jalandhar,Dhaliwal Cold Storage,"SHAKOT ROAD MALSHIYA,DISTT.JALANDHAR",Roshanlal Ji,5,75.5742467,31.218722
Punjab,Jalandhar,Dheeraj Cold Storage,VILL.AADI KOUIE MAND ROAD JALANDHAR,Borjar Singh,4218,75.4978836,31.3514265
Punjab,Jalandhar,Friends Cold Store Agri Farms,Village Rahimpur Teh Nakodar District Jalandhar,Shri Akash Joshi,3117,75.4140844,31.2343929
Punjab,Jalandhar,G.FColdstorbabupurjalandhar,G.FCOLDSTORBABUPURJALANDHAR,Kamaljeetsingh,3500,75.57618289999999,31.3260152
Punjab,Jalandhar,G.S. Cold Storage,"GS COLD STORAGE ,AGRI FARM , VILLAGE-PRATAPPURA JA",Gurdeep Singh,1700,75.7331514,26.6136611
Punjab,Jalandhar,GOVIND Cold STORE,VILLAGE CHOKAN DIST. JALANDHAR,CHOTU RAM JANWAL,2500,75.57618289999999,31.3260152
Punjab,Jalandhar,GOVIND Cold STORE,VILL USMANPURE POST KHAMBRA,PARMOD KUMAR,2700,75.5575099,31.2735195
Punjab,Jalandhar,Gill Cold Storage,"VILL.SARMASTPUR,KISHANGARH ROAD G.T.ROAD JALANDHAR",Ghyanchand Ji,3335,76.86715,30.1411003
Punjab,Jalandhar,Guru Govind Singh Cold Storage,"GURU GOVIND COLD STORAGE V.P.O.-JAGAN,TH.-JALANDHA",Surendar Patial,3500,75.57618289999999,31.3260152
Punjab,Jalandhar,Guru Nanak Cold Storage,GURU NANAK COLD storageE BAJWA KALA MOGA ROAD SHAHK,Surendar Kumar,2230,75.17344709999999,30.8230114
Punjab,Jalandhar,Gurunanak Cold Store,NAKODAR ROAD,Hindpal Singh,2230,75.4824998,30.9687462
Punjab,Jalandhar,HIMALYA Cold STORE,VILLAGE.GAZIPUR,RAMESH CHAND,4000,90.3877184,23.9905079
Punjab,Jalandhar,Hazara Cold Store,HOSIYARPUR ROAD HAZARA,Suka Singh,4000,75.606869,31.3497999
Punjab,Jalandhar,Hindal Cold Storage,"VILL.WARIANA ,V.P.O.NAGRA,DISTT.JALANDHAR",Dharmendar Singh,4548,75.5742467,31.218722
Punjab,Jalandhar,J.S. Cold Storage & Farm,JSFARMS[At]YMAIL[Dot]COM,Sandeep Bhatia,2800,-93.311149,45.1950417
Punjab,Jalandhar,Jammu Cold Storage,"JANDAY SARAI ROAD VLL,BARA PIND KARTARPUR JALANDHA",Ravisher Singh,2000,75.52582550000001,31.4863828
Punjab,Jalandhar,Janta Cold Storage,BIKANER NAMKEEN BHANDAR MITHAPUR ROAD JALANDHAR,Sangram Singh,2800,75.57618289999999,31.3260152
Punjab,Jalandhar,Josan Cold Storage Pvt Ltd,JOSAN COLD storageE PVT LTD BUDNUWAL SHAHKOT,Jaswinder Singh,4600,75.3383027,31.0823586
Punjab,Jalandhar,K S Bal Cold Storage,Village Sehijhangi P O Gakhal Distt Jalandhar,S Gurkirpal Singh,5824,75.5131439,31.3088645
Punjab,Jalandhar,KAKKAR Cold STORE,G.T ROAD JALANDHAR,SATENDER SINGH,4724,75.5720003,31.3293063
Punjab,Jalandhar,KAPSON Cold Storage,BIDHIPUR,DHARMINDER KUMAR,5000,75.1990407,31.3005617
Punjab,Jalandhar,Kalsa Cold Store,MALSIYAN,Kamlesh Kumar,3500,75.3492342,31.1291515
Punjab,Jalandhar,Kartar Cold Store,MALSIAN,Ramesh Kumar,3500,75.3492342,31.1291515
Punjab,Jalandhar,Kartarpur Cold Storage,KARTARPUR ROAD,Kartar Singh Ji,3,75.0074493,32.1107589
Punjab,Jalandhar,Khalsha Cold Storage,JALANDHAR NIKODA ROAD BADSHAPUR,Raman Kumar,3250,75.5420668,31.2706419
Punjab,Jalandhar,Khera Farm And Cold Store,VPO SALAN NAGAR MALSIYA,Ghanshyam,3,101.975766,4.210484
Punjab,Jalandhar,Khurana Agro Foods Cold Store,Vill Sangha P O Kang Sabhu District Jalandhar,Shri Harish Chander Khurana,2940,75.51456759999999,31.2161042
Punjab,Jalandhar,Khushid Cold Store,V.P.O.TAJPUR,Sarvan Singh,4550,87.6120531,21.6443962
Punjab,Jalandhar,KishanColdstor,UGGINAKODARJALANDHAR,Satnam,4400,75.4330161,31.2151395
Punjab,Jalandhar,Kwatra Cold Store & Ice Factory,PATHAN KOT HIGHWAY ROAD,Satpal Ji,4250,75.6522066,32.2733352
Punjab,Jalandhar,L.RaisonsColdstore,NEARSHABJIMA.NDI,Rajkumar,10000,77.2045867,28.6694461
Punjab,Jalandhar,Lakshmi Islce & Cold Storage,TALWAN ROAD PHILLAUR,Sunil,4400,75.6976106,31.0213296
Punjab,Jalandhar,Laxmi Cold Storage,MOGA ROAD SHAHAKOT,Rajeev Kumar,1250,75.0902219,30.8305453
Punjab,Jalandhar,Lovley Cold Store,VPO MAHALONA BANGA ROAD NAVASHAR,Malkiy Singh,2,76.118642,31.1255583
Punjab,Jalandhar,M/S KHEHRA Cold Storage,VILLAGE- TALWANDI BHARO,ATUL DUBEY,6000,75.4519516,31.1991171
Punjab,Jalandhar,MAGHUR Cold STORE,KHAMBRA ROAD,Sandeep Kumar,3500,75.5693175,31.2817797
Punjab,Jalandhar,Mohan Cold Storage,Village Lambri Distt Jalandhar,Shri Joginder Pal Singh,4712,75.54876019999999,31.2467333
Punjab,Jalandhar,Ms A K Cold Storage Expansion,Godaipur Distt Jalandhar,Shri S Kulwant Singh,2538,75.5764296,31.375031
Punjab,Jalandhar,Ms Dhaliwal Farm Cold Storage,Village Patti Akalpur Tehsil Malsian Jalandhar,Shri Paramjeet Singh,2860,75.3492342,31.1291515
Punjab,Jalandhar,Ms G F Cold Store,Village Uggi Teh Nakodar District Jalandhar,Shri S Gurinder Singh,3117,75.4330161,31.2151395
Punjab,Jalandhar,Ms H S Cold Storage,Vill Rani Bhatti Tehsil Kala Bakra Distt Jalandhar,Shri Kirpal Singh,3808,75.638993,31.4786528
Punjab,Jalandhar,Ms JBF Cold Store,Gonachak Kala Singhian Road District Jalandhar,Shri Mohan Singh,3190,75.5025691,31.2841379
Punjab,Jalandhar,Ms Jammu Cold Storage,Village Bara Pind Kartarpur,Shri Jaspal Singh,2404,75.8170786,31.115787
Punjab,Jalandhar,Ms Kartar Cold Storage,Village Lersiwal Distt Jalandhar,Shri Gurvinder Singh,2256,75.57618289999999,31.3260152
Punjab,Jalandhar,Ms Sandhu Cold Storage,Village Uggi Teh Nakodar District Jalandhar,Shri S Baldev Singh,4567,75.4330161,31.2151395
Punjab,Jalandhar,Ms Shiv Shanker Cold Store,Village Ambgarh Kartarpur Distt Jalandhar,Shri Anil Kumar,4500,75.500939,31.4358241
Punjab,Jalandhar,Ms Shree Bagwati Cold Storage,V P O Singha District Jalandhar,Shri Subhashg Chandra,5650,75.5104729,31.4163242
Punjab,Jalandhar,Ms Shri Guru Har Rai Ji Cold Storage,Village Tahli Sahib P O Kartarpur Ditt Jalandhar,Shri S Jagroop Singh,4816,75.4920178,31.4225638
Punjab,Jalandhar,Ms Shri Guru Hargobind Cold Storage Agriculture Farm,Vill Beas Pind District Jalandhar,Shri S Sukhwinder Singh,1453,75.6323317,31.449506
Punjab,Jalandhar,Ms Surindera Cold Storage Expansion,VPO Sah Jhangi P O Gakhla Jalandhar,Shri Surinder Nath,2980,75.57618289999999,31.3260152
Punjab,Jalandhar,Ms T F Cold Storage,VPO Laharan Pratap Pura Distt Jalandhar,Shri S Manjinder Singh,3080,75.57618289999999,31.3260152
Punjab,Jalandhar,Ms T F Cold Storage Expansion,VPO Loharan Partappura Distt Jalandhar,Shri S Manjinder Singh,1558,75.52811059999999,31.2373751
Punjab,Jalandhar,Ms T N Cold Storage,Vill Rahimpur Distt Jalandhar,Shri S Satnam Singh Nagra,4902,75.4140844,31.2343929
Punjab,Jalandhar,Ms Varindera Cold Chain Systems Pvt Ltd,Village Lallian Kalan Distt Jalandhar,Shri Sarbjit Singh,4638,75.48908750000001,31.2600832
Punjab,Jalandhar,Ms Vrindera Cold Storage,Vill Singhpur Distt Jalandhar,Smt Surinder Kaur,5115,75.46797219999999,31.2079596
Punjab,Jalandhar,Ms.Maharaja Cold Storage,NAKODAR,Nirmal Singh,5,75.4817733,31.1270186
Punjab,Jalandhar,National Cold Store,NURMAHAL ROAD NATIONAL HAIHWAAY NAKODHAR ROAD,Laxman Kumar,2,75.5815936,31.0942647
Punjab,Jalandhar,Neeraj Cold Store,KULAM ROAD NAVOSHAR,Bhajan Lal,1600,76.1321206,31.1312816
Punjab,Jalandhar,New Thind Cold Storage Agriculture Farm,Village Partappura PO Loharan Jalandhar,Shri Daljit Singh,3450,75.52811059999999,31.2373751
Punjab,Jalandhar,Om Cold Storage,PARTAP PURA JALANDHAR,Amit Kumar,3900,75.52811059999999,31.2373751
Punjab,Jalandhar,Om Cold Storage Agri Farm,Village Lohar Partapura Distt Jalandhar,Shri Om Prakash,3860,75.52712319999999,31.2422537
Punjab,Jalandhar,PHUMAN SINGH & SONS Cold STORE,NAKODAR CITY MOGA ROAD JALANDHAR,DARSHAN SINGH,3000,75.4787566,31.1261778
Punjab,Jalandhar,Pannu Cold Storage,VPO Bagga Tehsil Shahkot District Jalandhar,Shri Gurbachan Singh,6448,75.3383027,31.0823586
Punjab,Jalandhar,Panu Cold Storage,VILL BAGA SHAHKOT,Kambar Akwal Singh,6250,75.3383027,31.0823586
Punjab,Jalandhar,Primior Cold Store,MOGA ROAD SHAKOT,Vikramjeet Singh,1200,75.0902219,30.8305453
Punjab,Jalandhar,Punjab Cold Store,ALIPUR ROAD,Kamaldev Thakur,11000,88.3309958,22.5255046
Punjab,Jalandhar,Raj Lce And Oil Mills,LADHOWALI ROAD JALANDHAR,Anand Khanna,2,75.5950012,31.3214282
Punjab,Jalandhar,Sandhar Cold Storage,"RAIPUR ROAD,KAHANPUR GHAV ROAD",Tarsemlal Ji,4000,76.3593872,31.2454425
Punjab,Jalandhar,Sangha Cold Storage,PHOLIYAWALA NEAR MITHAPUR ROAD JALANDHAR,Harbindar Singh,1107,75.5805575,31.2834721
Punjab,Jalandhar,Sant Ice & Cold Storage,CHEEMA ROAD,Aman,1750,74.5673796,32.5413324
Punjab,Jalandhar,Saroya Cold Storage,"VILL.WARIANA,P.O.,NAGRA,DISTT.JALANDHAR",Sardhar Jaswinder Singh,5000,75.5742467,31.218722
Punjab,Jalandhar,Shadi Ram Mohan Cold Store,LAMBRA,Ram Kumar,7000,75.53146339999999,31.2521283
Punjab,Jalandhar,Shan Lal Mohan Cold Store,LAMBRA,Deepak,1894,75.53146339999999,31.2521283
Punjab,Jalandhar,Shathi Cold Storage,SABJI MANDI JALANDHAR,Akhilesh Kumar Mishra,2250,75.57728399999999,31.3596296
Punjab,Jalandhar,Shri Anand Cold Storage Expansion,VPO Mand Kapurthala Road District Jalandhar,Shri Surinder Pal,1350,75.4744711,31.3490499
Punjab,Jalandhar,Shyam Cold Store,JALANDHAR,Gullu,3,75.57618289999999,31.3260152
Punjab,Jalandhar,Shyam Sunder Cold Store,KAPURTHALA BY PASS,T.S UPPAL,3000,75.4017654,31.3722571
Punjab,Jalandhar,Simar Cold Store,KADIANWALI,Jaswinder Singh,3408,75.5807954,31.249577
Punjab,Jalandhar,Sukjeetsingh Batthi Cold Store,ALIPUR JALANDHAR,Sarjeet Singh Bahtti,4300,75.5771573,31.2722633
Punjab,Jalandhar,Sura Cold Storage,VIDHIPUR FATAK JALANDHAR,Sanjay Kumar,2000,75.5298536,31.4032589
Punjab,Jalandhar,Surindera Cold Store,ALIPUR JALANDHAR,Sukjeet Singh,10972,75.5771573,31.2722633
Punjab,Jalandhar,The Kapurthla Jalandhar Corprative Cold Store Ltd,NAKODAR ROAD WADALA CHOKE,Rajendra Singh,4462,75.5436824,31.2922339
Punjab,Jalandhar,Thind Cold Storage,LOHARA PARTAPPURA,Surjit Singh,270,75.52811059999999,31.2373751
Punjab,Jalandhar,Thind Cold Storage,VILL FAZALWAL,Amarjeet Singh,5000,75.33101460000002,31.03807369999999
Punjab,Jalandhar,Turna Cold Storage,VILL FAZALWAL SHAHKOT,Ramesh Singh,6250,75.33101460000002,31.03807369999999
Punjab,Jalandhar,VIRENDRA Cold STORE,VILLAGES- LALIYA KALA POST LAMBRA,HARDEV SINGH,5000,75.53146339999999,31.2521283
Punjab,Kapurthala,Anand Cold Storage,"VILL.DABUR JI ,KAPURTHALA",Moha Lal,4400,75.4017654,31.3722571
Punjab,Kapurthala,B.K.Cold STORE,VILLAGE.KOT KRAR KHAN,Sardar Gurjeet Singh,5000,75.46748649999999,31.3808748
Punjab,Kapurthala,Baba Bir Singh Cold Storage,TODARWAL LINK ROAD,Subash Chand Ji,6000,75.24498919999999,31.3346008
Punjab,Kapurthala,Chadha Cold Storage,KAPURTHALA,Punith,3455,75.4017654,31.3722571
Punjab,Kapurthala,DK/CS,JALANDHAR BYPASS RPAD HOSHIYARPUR,Zv Sanjiv Kumar Sood,2000,75.6002659,31.3487444
Punjab,Kapurthala,Farmer Cold Storage,KAPURTHALA ROAD BOOLPUR,Purushottam Singh,7500,75.2402491,31.3183202
Punjab,Kapurthala,GAURI SHANKAR Cold STORE,VILLAGE AUJALA ROAD KAPURTHALA,VIJAY KUMAR,2000,75.3991457,31.3608545
Punjab,Kapurthala,GOLDY KHALSA Cold STORE,KAPUTHALA TO NAKODAR ROAD,HUSSAN DEEN,4311,75.4017654,31.3722571
Punjab,Kapurthala,Guru Tegbhadur & Ice Factory,JALLOWAL KALA SINGHA,Satnam Singh,3500,75.5030307,31.2844099
Punjab,Kapurthala,Gurunanak Old Store,VILL SEKHUPURA TEH. KAPURTHLA,MANGATRAM SHARMA,12500,75.4017654,31.3722571
Punjab,Kapurthala,GurunanakColdstor,VPOCHOGAMAKAPURTHALA,Bodhraj,3250,75.4257325,31.5735489
Punjab,Kapurthala,Gurutegh Bhadur Cold Store,MADUPUR JALWALA KAPURTHALA,Anil,3,75.4017654,31.3722571
Punjab,Kapurthala,GurutekbhudurColdstorkapurthala,VPOJALLOWALKAPURTHALA,Jitender,4000,75.4274422,31.2423988
Punjab,Kapurthala,Jagir Cold Storage,VILLAGE WADALA PIND KAPURTHALA,Naveen Kumar,5124,75.4017654,31.3722571
Punjab,Kapurthala,K.F Cold STORE,VILLAGE MADHOJHANDA,DIGVIJAY SINGH,5000,75.3720056,31.3278964
Punjab,Kapurthala,MS B K Cold Store,Village Kot Karar Khan Tehsil Distt Kapurthala,Shri Suresh Kumar,4386,75.46748649999999,31.3808748
Punjab,Kapurthala,Makija Cold Store,HOSHYARPUR ROAD PHAGWARA KAPURTHLA,Ravindhar,3,75.7726223,31.2341558
Punjab,Kapurthala,Ms D F Cold Storage,Vill Ladhewal Saidowal Road District Kapurthala,Shri Iccha Singh,5548,75.3692732,31.320063
Punjab,Kapurthala,Ms Dashmesh Cold Storage,Vill Bahui PO Sheikhupur District Kapurthala,Shri Gurmukh Singh,5584,75.3836931,31.387092
Punjab,Kapurthala,Ms Dhawan Cold Storage,Village Sawal Town Sultanpur Lodhi District Kapurthala State Punjab,Shri Tarsem Lal Dhawan,2740,75.1928403,31.2638312
Punjab,Kapurthala,Ms Keshav Cold Storage,Vill Khusrupur Distt Kapurthala,Shri Rahul Kawatra,6090,75.3849248,31.2557543
Punjab,Kapurthala,Ms P S Butter Cold Storage,Vill Kot Karar Khan Distt Kapurthala,Shri S Balbir Singh,4762,75.46748649999999,31.3808748
Punjab,Kapurthala,NajjarColdstor,VPO KALA SINGHA KAPURTHALA,Gurucharansingh,5000,75.5030307,31.2844099
Punjab,Kapurthala,P.S.BUTTAR Cold STORE,VILLAGE KOT KARAR KHA KAPURTHALA,Ramji,5000,75.46748649999999,31.3808748
Punjab,Kapurthala,RANJIT Cold STORE,VILLAGE JAWALAPUR KASSOCHAH,Ramesh Kumar Verma,1720,78.10710569999999,29.9267729
Punjab,Kapurthala,SOHAN Cold STORE,VILLAGE AUJALA ROAD KAPURTHALA,NARENDER JI,2900,75.3991457,31.3608545
Punjab,Kapurthala,Tara Cold Store,VPO MAMSOORWALDONA AUJALA ROAD KAPURTHALA,Ravrndhar Singh,4000,75.3991457,31.3608545
Punjab,Ludhiana,BJ Cold Store,VPO Sarabha District Ludhiana,Shri Bhavjit Singh,5000,75.70371070000002,30.7491396
Punjab,Ludhiana,Bansal,KHANNA,Radhey,3,76.2169907,30.70707689999999
Punjab,Ludhiana,Cheema Cold Storage,"G T ROAD, BEHIND POWER HOUSE, KARTARPUR, KARTARPUR",Narendra Ji,4,75.0151127,32.0879424
Punjab,Ludhiana,Dakar Cold Store,CHD ROAD,Som Nath,6,75.8729565,22.7626001
Punjab,Ludhiana,Dashmesh Cold Store,SALIM TABRI,Pawan Sharma,7660,75.83175469999999,30.9363373
Punjab,Ludhiana,Fateh Cold Store,AYALI KHURD,B.S. Grewal,2,75.7749395,30.9131363
Punjab,Ludhiana,GURU NANAK Cold STORE,LUDHIANA TO JALANDHAR BY PASS,A.S CHAUHAN,4500,75.57618289999999,31.3260152
Punjab,Ludhiana,Govind Cold Storage,VILL GADHI TARKHANA MACHIWARA LUDHIANA,Pavan Kumar,3500,76.19286400000001,30.9141349
Punjab,Ludhiana,K.C. Cold Store,NEW GREEN MARKET,Ramesh Sharma,1250,76.9693468,29.5459124
Punjab,Ludhiana,Kakkar Cold Storage,SAMRALA,Mahander,4724,76.1910284,30.8356679
Punjab,Ludhiana,Kisan Cold Storage,"KARABARA ,G.T. ROAD LUDHIANA",Gaya Prasad,1215,75.8888152,30.8754888
Punjab,Ludhiana,Maha Laxmi Vishnu Cold Store Pvt.Ltd.,"16,OLD.GRAIN MARKET JAGROAN",Amritpal Singh,6.048,75.468541,30.7970477
Punjab,Ludhiana,Ms Handa Cold Storage,Ramgarh Bhullar Sidhwan Bet Road District Ludhiana,Shri Ajay Handa,3218,75.483991,30.8578239
Punjab,Ludhiana,Ms Jai Shree Gurdev Cold Storage,Vill Shamaspur Distt Ludhiana,Shri Varinder Kumar,5000,76.1740266,30.8065561
Punjab,Ludhiana,Ms Jas Cold Storage,Vill Sidhwan Bet Jagroan Road Distt Ludhiana,Prabhjeet Singh,4500,75.4723411,30.9294951
Punjab,Ludhiana,Ms Jas Cold Storage Expansion,Sidhwan Bed To Jagraon Raod Ludhiana,Shri S Prabhjeet Singh,1432,75.5164274,30.7160234
Punjab,Ludhiana,Ms Jaswant Cold Storage,Village Rohla Distt Ludhiana,Shri S Baljinder Singh,2200,76.14250439999999,30.84852859999999
Punjab,Ludhiana,Ms Mangat Cold Store,Chandigarh Road Samrala Distt Ludhiana,Shri Gurpreet Singh,3380,76.1944362,30.8440723
Punjab,Ludhiana,Ms Nand Cold Storage,Vill Sahouli Dist Ludhiana,Shri S Avtar Singh,2841,75.6862616,30.7753091
Punjab,Ludhiana,Ms Punjab Cold Storage,Village Pandori Tehsil Jagraon District Ludhiana,Shri Gurpreet Singh,1650,75.6397204,30.8291154
Punjab,Ludhiana,Ms Punjab Cold Store Expansion,Vill Pandori Jagraon Road Mullanpur Ludhiana,Shri Rajinder Singh,1400,75.5164274,30.7160234
Punjab,Ludhiana,Ms Sarabha Cold Storage,Vill Toosa Distt Ludhiana,Shri Hargurpreet Singh,2958,75.67171909999999,30.73430209999999
Punjab,Ludhiana,Plahey Cold Stroage,SIDHWAN BET ROAD,Nachhattar Singh,3500,75.4723411,30.9294951
Punjab,Ludhiana,Punjab Cold Store,KHANNA ROAD,Balveer Singh,4000,73.0996727,33.6280891
Punjab,Ludhiana,Raj Cold Store,KOHARA ROAD SANEWAL LUDHIANA,Harry,1400,75.9847233,30.8498478
Punjab,Ludhiana,Raja Shree Cold Storage,KARA BARA CHOWK,Harvinder,4800,75.8453822,30.9366288
Punjab,Ludhiana,Randawa Cold Store,KACHA MALAK ROAD JAGRAON,Jagjeet Singh,22545,75.4822342,30.8031994
Punjab,Ludhiana,S.S. Cold Storage,KARABARA G.T.ROAD LUDHIANA,Karen Yadav,5907,75.8442736,30.936786
Punjab,Ludhiana,Sanhu Cold Storage,MACHIWARA GADHI TARKHANA LUDHIANA,Ajay Shing,2800,76.1772871,30.8881809
Punjab,Moga,BRAR FOODS PVT .LTD.,BAGHA PURANA MOGA,JEEVAN SINGH INCHARGE,3500,75.0940031,30.6856791
Punjab,Moga,Chawala Cold Store,G.T.ROAD MOGA,Inderpreet Singh,2976,75.1876674,30.8215427
Punjab,Moga,Grand Father Food Processing Cold Storage,Village Mehna District Moga,Smt Rajinder Kaur,3604,75.27003859999999,30.8023827
Punjab,Moga,Hemkunt Cold Storage,KOTPURA ROAD,Jitendra Kumar,8000,74.529985,30.4777485
Punjab,Moga,Ms Dashmesh Cold Storage,Village Indergarh Teh District Moga,Shri S Gurtej Singh,3160,75.3076904,30.9288126
Punjab,Moga,Ms Kissan Cold Storage Agriculture Farm,Vill Patti Rajpur Distt Moga,Shri Stish Kumar,3117,75.17344709999999,30.8230114
Punjab,Moga,Ms Krishna Cold Storage,Vill Kokri Kalan P O Janubi Distt,Shri S Amarjeet Singh,1664,75.33247229999999,30.8460744
Punjab,Moga,Ms Miri Piri Cold Storage,Village Dodhar Garbhi Distt Moga,Shri Pritam Singh,2250,75.2479061,30.6874426
Punjab,Moga,Ms Ram Ditta Cold Store,Village Darapur Tehsil Distt Moga,Shri Madan Lal,2500,74.96033129999999,30.8433147
Punjab,Moga,Preet Cold Store,GHAL KALAN,Mahesh Agarwal,3500,75.1049137,30.8196492
Punjab,Moga,Ranouta Cold Store,NIHAL SINGH ROAD,Parminderpal Singh,4000,77.2684647,28.3452982
Punjab,Moga,Toor Cold Store,GREEN FIELD COLLNEY,Balbeer Singh,2400,77.2891038,28.4625737
Punjab,Patiala,A.P Cold Store,RAJPURA TO JHIRAKH PUR ROAD,Sham Lal Singh,3000,76.5905317,30.4765796
Punjab,Patiala,Bedi. Cold. Storage,BEDI. COLD. storageE VILL DHAMOLI PATIALA. BYPASS,Jaswindar. Singh,850,76.3868797,30.3397809
Punjab,Patiala,Jain Ice & Cold Storage,BAHERA ROAD PATIALA,Munish Kumar,390,76.3947899,30.325949
Punjab,Patiala,Jain. Cold. Storage,NEAR. LIBARTY. CHOCK. PATIALA. ROAD. RAJPURA,Manoj. Kumar,500,76.5905317,30.4765796
Punjab,Patiala,Manav Cold Storage,NABHA MALERKOTLA ROAD VPO DHINGI PATIYALA,Yashvindhar Puri,2,76.0989352,30.4035598
Punjab,Patiala,Mann Cold Storage,VILL.RAMNAGAR,Partap Chand,4550,77.27989629999999,12.7208614
Punjab,Patiala,MulitipurposeColdstorpvt.Ltd,SANOURROADPATIALA,Amandeepgarg,4800,76.4307035,30.3128699
Punjab,Patiala,RanaColdstor,IGARH ROAD,Sureshrana,1300,78.0880129,27.8973944
Punjab,Patiala,Shankar Cold Storage,AMBALA ROAD GANDIA RAJPURA,Sohanlal,2500,76.5905317,30.4765796
Punjab,Patiala,SinglaColdstorpvt.Ltd,DEVIGARHROADPATIALA,Bushansingla,3500,76.4169753,30.3166364
Punjab,Patiala,Triloki Cold Storage,OLD SUBJI MANDI PATIALA,Punkaj Goel,2400,76.4004337,30.3212189
Punjab,Rupnagar,Bharat Cold Storage,VILL. KHUWASHPUR. NANGAL ROAD ROPAR,Shanjay Kumar,2240,76.5428998,30.9812949
Punjab,Rupnagar,Hera Cold Storage,CHANDIGARH. ROAD RUPNAGAR,Ranveer Singh,2880,76.2589346,30.8253301
Punjab,SAS Nagar,Ms Dashmesh Cold Storage,Vill Gharaun Distt S A S Nagar Mohali,Shri Saurav Aggrawal,1047,76.557493,30.7727958
Punjab,Sangrur,Global Healthy Cold Store,NEW SABJI MANDI ROAD,W.S,2,76.3198284,29.3274466
Punjab,Sangrur,Gurunanak Cold Storage,SHERPUR ROAD DHURI,Balwan Shing,22000,75.84684949999999,30.3783951
Punjab,Sangrur,Hemsons Cold Storage,KAKARWAL DHURI,Surinder Singh,3200,75.8345118,30.3692008
Punjab,Sangrur,Jain Cold Storage,NEAR MATA RANI DHURI,Satish Sing,150,75.86065479999999,30.3692859
Punjab,Sangrur,Suraj Kund Cold Storage P.Ltd,"KADIYAL ROAD ,SUNAM",Krishna Goyal,20,75.8013975,30.1305581
Punjab,Tarn Taran,Josan Agro Foods Cold Storage,VPO Ekal Gadda Tehsil Sahib District Taran Taran,Shri S Manjeet Singh,4023,75.06745339999999,31.5108902
Punjab,Tarn Taran,Ms K K Agro Foods Cold Storage,Vill Balla Chak Amritsar Road Distt Tarantaran,Shri Keval Krishan Sharma,3719,74.8899123,31.5523351
Punjab,Tarn Taran,Sona Chandi Warehousing Solutions,Village Bala Chak Town Tarantaran District Tarantaran,Smt Kiran Arora,5942,74.89091499999999,31.55148449999999
Rajasthan,Ajmer,Alwer Zila Dugdh Utpadak Sahkari Sangh Ltd.,ALWAR DAIRY JAIPUR ROAD,H.S.Thainwa,150,76.6345735,27.5529907
Rajasthan,Ajmer,Jayanti Cold Storage,JAYANTIDRINKS[At]EMAIL[Dot]COM,Yashvant Mathur,200,76.6046039,27.5666898
Rajasthan,Ajmer,K.M. Cold Storage And Ice Factory Pvt Ltd,RIICO PH-III INDUSTRIAL AREA BEAWAR,Sunny Mittal,2800,74.31990379999999,26.104585
Rajasthan,Ajmer,Shree Ji Cold Storage,VILLAGE PIPLAJ ROAD BEAWAR,Narian Prasad,1000,74.3795114,26.1620796
Rajasthan,Bharatpur,Agree Ganesh Colud,SEVAR ROD MADHURA WAYPAS,Rajveer Singh,1,75.8474894,22.7661838
Rajasthan,Bharatpur,Bharatpur Cold Storage Pvt Ltd,GHANA SEVER ROAD,Amar Singh,3060,-1.023194,7.946527
Rajasthan,Bharatpur,Bhekaum Sheth Grahe P.Ltd.,"DHARA ROAD, (GRAM)KABAI NADBAI (THASIL)",Methu Singh,2100,77.20382029999999,27.2127282
Rajasthan,Bharatpur,Dhakad Cold Storage,PANCHAYAT SAMITI BAYANA,Mahesh,1,77.28767739999999,26.9147286
Rajasthan,Bharatpur,Dr Oil Industry (Cold Storag),MATHURA ROAD,Kamal Singh,4700,77.2401157,28.6112543
Rajasthan,Bharatpur,LRG Cold Storage,RAFHE KUMHER MATHURA ROAD,Lajpat,750,77.3777204,27.3144641
Rajasthan,Bharatpur,Nadbai Cold Storage Pvt Ltd,BAILARA NADBAI,Nadbai Cold Storage Pvt Ltd,4000,77.22542659999999,27.2027339
Rajasthan,Bharatpur,Shree Omendra Cold Storage,GHASOLA AGRA ROAD,Jitendra Bansal,5000,76.2609463,28.5530001
Rajasthan,Bharatpur,Vaibhav Cold Storage,VILLAGE KHERA NADBAI,Rajesh Kumar,5000,77.20382029999999,27.2127282
Rajasthan,Bhilwara,Shiv Sudarshan Poly Fab Private Limited,E 178 A Growth Centre RIICO Swaroopganj Bhilwara,Shri Rahul Agarwal,1500,74.63125959999999,25.2247623
Rajasthan,Bikaner,Bikaner Cold Storag,PUGAL ROAD,Asok Chadak,1600,73.2866378,28.0383505
Rajasthan,Bikaner,Bisme Rabbik Sortex,F-11 KARNI INDUSRTI AREA,Najmuddin,2500,73.2942267,28.0605146
Rajasthan,Bikaner,Chttra Factory / Cold Storage,ANAND SAGAR ROAD BINASAR,Girdhari Shing,1858,74.8722246,28.2609042
Rajasthan,Bikaner,Nagarjun Cold Storage Pvt,KARNI INDUSTRIAL AREA,Raj Ghalot,1200,73.2942267,28.0605146
Rajasthan,Bikaner,Nokha Cold Storage,E-5A RIICO INDUSTRIAL AREA,Chanu Singh,2000,75.7749231,26.834803
Rajasthan,Bikaner,Parik Cold Storage,G-234 KARNI INDUATRIA AREA,Basant Kiradoo,4000,73.2942267,28.0605146
Rajasthan,Bikaner,Punrashar Interprivaz Pvt,F-441RIICO IND. AREA,Pram Prakesh,900,75.7744221,26.8344821
Rajasthan,Bikaner,Urmul Dairy,GANGANAGAR ROAD,Rk Suthar,5,73.9506892,29.8707975
Rajasthan,Dholpur,Arihant Could,RAJAKHEDA DHAULPUR,Pavan Dixit,2,78.1704986,26.8979835
Rajasthan,Ganganagar,Gurunanak Cold,RAI SINGH NAGAR,Sukhapal,2,73.447797,29.5311499
Rajasthan,Ganganagar,Janta Cold Storage,CHAK-6 PADAMPUR ROAD,Baljindar,9,73.8522849,29.9148838
Rajasthan,Ganganagar,Ms Godra Cotton Ginning And Prssing Factory,Industrial Area Alnupgarh Ganganagar,Shri Sunder Singh Bishnoi,5000,73.2046273,29.1937
Rajasthan,Ganganagar,Sri Ganganagar Cold Storage,SURATGARH ROAD,Opendra Sharma,4,73.8752967,29.8996238
Rajasthan,Hanumangarh,Ms Ratna Cold Storage,No 955 Housing Board Hanumangarh Distt,Shri Sahab Ram Poonia,5050,74.27808550000002,29.61061
Rajasthan,Hanumangarh,Ms Shubh Laxmi Foods,Ind Area RIICO PHASE I Hanumangarh Jn,Shri Rajender Kumar,2000,74.3292106,29.5821848
Rajasthan,Jaipur,Annapurna Cold Storage,"PLOT NO-E 244, ROAD, NO-13, VISHWA KARMA INDUSTRIA",Nemi Chand,25000,75.7854856,26.997294
Rajasthan,Jaipur,Annapurna Cold Storage,"F-1028-1029, PH-III, SITAPURA INDUSTRIES AREA",Manoj Tiwari,25000,75.8342467,26.7839792
Rajasthan,Jaipur,Baba Ganesh Cold Storage And Ice Factory,"F 17C, MALVIYA NAGAR INDUSTRIAL AREA",Ramji Lal Jat,4000,75.828701,26.8573126
Rajasthan,Jaipur,Gauri Enterprises Cold Storage And Ice Factory,"G-199, RIICO MANSAROVAR",Ramji Lal,12000,75.7763927,26.8318045
Rajasthan,Jaipur,Jain Arihant Cold Storage,E520A SITAPURA IND AREA,Mangal Yadav,3598,75.8513938,26.7750872
Rajasthan,Jaipur,Jain Saraogi Cold Storage P. Ltd,E 520B SITAPURA IND AREA CHITRA CIRCLE,Mangal Yadav,3665,75.8424431,26.7762431
Rajasthan,Jaipur,Jaipur Cold Storage Pvt Ltd.,MAHAPURA ROAD,Rajendra Jain,220,75.6675935,26.8457281
Rajasthan,Jaipur,Jhuramal Cold Storaga And Ice Factory,B&C 10 MALVIYA NAGAR IND. AREA,Kishan Chand,3200,77.2137844,28.5333297
Rajasthan,Jaipur,Keshav Cold Storage,RAJESHKHATUWALA[At]EMAIL[Dot]COM,Sunil Goyal,5584,86.8471395,23.7389679
Rajasthan,Jaipur,Mount Cold Storage,H 1169 SITAPURA INDUSTRIAL AREA,Laxmikant Mittal,10000,75.8342467,26.7839792
Rajasthan,Jaipur,Ms Sumit Ice Manufacture,H1 21 RIICO IND Area Mansarovar Jaipur,Shri Naresh Kumar Singhal,3200,75.77639549999999,26.8318248
Rajasthan,Jaipur,Pink City Cold Storage,OFFICE[Dot]AGRI[At]PINKCITYINDIA[Dot]COM,Devi Singh Shekhawat,4000,43.050591,39.719074
Rajasthan,Jaipur,Rachit Cold Storage,E- 699 SITAPURA INDUSTRIAL AREA,Puneet Gurjar,3000,75.8469324,26.7780408
Rajasthan,Jaipur,Ranchod Nath Cold Storage,"C-178, B-9J, ROAD NO 9 VKI",Kamal Vijayvargiya,360,75.7807187,26.9870057
Rajasthan,Jaipur,Sardarmal Cold Storage And Ice Factory,H141 MALVIYA NAGAR IND AREA,Kailash Chand Sharma,7200,77.2094473,28.5342332
Rajasthan,Jaipur,Saroj Cold Storage,145 ROAD NO. 13 JHOTWARA,Frames Sharma,2260,75.7090609,26.9636333
Rajasthan,Jaipur,Subh Laxmi Cold Storage,H11-73/74 SITAPURA IND. AREA,Vijendra Singh,5000,75.857124,26.7773541
Rajasthan,Jaipur,V.K. Cold Storage,"H-155, MALVIYA NAGAR",Manish Choudhary,2500,77.2094473,28.5342332
Rajasthan,Jaipur,Vishandas Cold Storage Pvt Ltd,ACHARAWALA NR BALAWALA STATION DIGGI ROAD,Shobraj Totlani,3380,75.7444172,26.7593577
Rajasthan,Jhalawar,Surendra,INDL. AREA JHAIRA PASTAN JHALWAR DISTT.JODHPUR,Harpal Singh,4,73.02430939999999,26.2389469
Rajasthan,Jhalawar,Surendra Ice & Cold Storage,INDL. AREA JHAIRA PASTAN JHALWAR DISTT.JODHPUR,Sanjay,2,73.02430939999999,26.2389469
Rajasthan,Jhunjhunu,Banana Raiping Could,F-17 RICCO CHIDAWA,Hakimuddin,5,75.6520522,28.2407022
Rajasthan,Jodhpur,Gotham Trading Company,A68 FALODI JODHPUR,Gotam,6,72.3700545,27.1338631
Rajasthan,Jodhpur,Paschimi Rajasthan Dudh Utpadak Sahkar Sangh Ltd,OPP-HMT BEAWAR ROAD,Sudhir Sharma,180,74.6378736,26.4341828
Rajasthan,Jodhpur,Rathi Cold Storage,B-5 RIICO INDUSTRIAL AREA,M.L RATHI,6000,75.7749231,26.834803
Rajasthan,Jodhpur,Suryanagri Cold Storage,MANDOR INDUSTRYL YERIYA,Nirmal Kumar,45,73.0443233,26.3427037
Rajasthan,Kota,Ms Aadinath AgriCold Pvt Ltd,Khasara No 421 Sandpur Th Ramganj Mandi Kota,Shri Pramod Kumar Mittal,3898,75.9666439,24.6459446
Rajasthan,Kota,Ms Om Sai Agri Facilities Pvt Ltd,Nalodiya Village Circle Julmi Road Ramganj Mandi Kota,Shri Siddharth Agrawal,5000,75.9488695,24.6344325
Rajasthan,Kota,Shanti Nath Cold Storage And Ware House,Bazar No 3 Ramganj Mandi Kota,Shri Narendra Kumar Jain,5000,75.9451464,24.6463717
Rajasthan,Kota,Suvidha Cold,RAMGANJ MANDI,Abjeet,3,75.94508119999999,24.6461795
Rajasthan,Nagaur,Laxmi Cold Storage,RIICO INDUSTIRIAL AREA,Sunil,3000,75.7763927,26.8318045
Rajasthan,Nagaur,Shrishti Cold Storage Pvt Ltd,RIICO INDUSTIRIAL AREA,Ramswarup Rathi,6000,75.7763927,26.8318045
Rajasthan,Udaipur,MS Narendra Frozen Food Store Pvt Ltd,Udyog Vihar Sukher Udaipur,Shri Rajesh Khaturia,2498,73.7182988,24.6476735
Rajasthan,Udaipur,Ms Shri Siddhi Vinayak Corporation,Plot No 1 Krishi Upaz Mandi Udaipur Dist Teh Girwa,Shri Ganesh Chandra Agrawal,1377,73.7027732,24.5564237
Rajasthan,Udaipur,Pataal Ganga Cold Storage,KIRASHI MANDI,Rahul,2000,76.9320104,31.7087153
Rajasthan,Udaipur,Same,GOVARDHAN VILLAGE,Karun Chandalia,120,72.96518990000001,19.6554842
Sikkim,North,NANGLOI,"A-9, Maha Laxmi Bldg. Shiv Ram Park, Nilothi Crossing Najafgarh Road, Nangloi Delhi ï¿½ 110041",A.K.Muktawat,7442,77.0675607,28.6820444
Sikkim,North,NARELA,"DSIDC Complex, I Block Industrial Area, Near ITI., Narela, New Delhi ï¿½ 110 040",N. K. Verma,17294,77.2088282,28.6139298
Sikkim,South,KIRTI NAGAR,"Warehousing Schemeblock No.2, Kirti Nagar, New Delhi 110 015",Amar Singh,26879,77.1457614,28.6589251
Sikkim,South,NAJAFGARH,"Plot No. 1, Gopal Nagar Surekhpur Morh, Block-B Near Anaj Mandi, Najafgarh, Delhi ï¿½ 110 043",D.B.Ranga,2376,77.10249019999999,28.7040592
Sikkim,South,OKHLA-I,"F-82, Okhla Industrial Area, Phase-I, Part-I New Delhi ï¿½ 110 020",Y.P. Dhall,6166,77.2753728,28.5388479
Sikkim,South,Okhla-Ll,"Plot No. B-13 To 15, Okhla Industrialarea, Ph. I New Delhi ï¿½110020",V.K.Gupta,10500,77.281947,28.5142139
Tamil Nadu,Chennai,AMBATTUR,"PIot.No .21/B (NP) Sidco Industrial Estate, Ambattur, Chennai - 600098",R.Subbarayan,6098,80.1721613,13.1054624
Tamil Nadu,Chennai,KALMANDAPAM,"85 Suryanarayana Chetty Street, Kalmandapam, Chennai - 600 013",S.Nagalingam,6740,80.2704622,13.0843007
Tamil Nadu,Chennai,ROYAPURAM CFS,"ï¿½Container Freight Statrion ,131,Shaikmaistry Street,Royapuram ,Chennnai-600013",R Panneerselvam,5000,80.2944637,13.1138424
Tamil Nadu,Chennai,TOLGATE,"No.783/8,T.H. Road, Sathangadu Salai,New Washermenpet,Chennai - 600 081",T.Asokan,6417,80.2933872,13.1354163
Tamil Nadu,Chennai,VIRUGAMBAKAM/CFS,"ï¿½Container Freight Station ,Arcot Road ,Virugambakkam Chennai-600092",L Stephen,74105,80.1922278,13.0532086
Tamil Nadu,Coimbatore,M.S Cold Storage,ANNOOR MAIN ROAD JADAYAMPALAYAM POST METTUPALAYAM,S.K.Mohammed Safiullah,12000,76.9435103,11.2992381
Tamil Nadu,Dharmapuri,DSA Cold Storage Private Limited,New Colony Rs Mosque Backside Dharmapuri,Shri D S Akbal,6000,78.1582143,12.1210997
Tamil Nadu,Dharmapuri,New Vennila Cold Storage,"117A, JETTIHALLI, DHARMAPURI",Saravanan,3188,78.1582143,12.1210997
Tamil Nadu,Dharmapuri,Vennila Cold Storage,SRFDHARMAPURI[At]EMAIL[Dot]COM,Saravanan,2500,78.1582143,12.1210997
Tamil Nadu,Dindigul,Sri Saravana Cold Storage,5/99-G NATHAM ROAD KOOVAUTHU POST DINDIUGAL,K.Periyasamy,4000,78.1058669,10.2636677
Tamil Nadu,Erode,Thirumuruga Cold Storage,"Plot No--2, SIPCOT Industrial Centre, Perundurai, Erode Dt",V.K.Velsamy,5000,77.2864879,11.5165278
Tamil Nadu,Krishnagiri,A S A Cold Storage,BANGALORE ROAD AMEER ESTATE AZAD NAGAR KRISHNAGIRI,Syed Nazer,4000,78.2149575,12.5265661
Tamil Nadu,Krishnagiri,Brothers Cold Storage,2/190 BANGALORE ROAD OPPOSITE COLLECTOR OFFICE KRI,Aejaz Ahmed,2000,77.4899937,13.7733562
Tamil Nadu,Krishnagiri,R R Cold Storage,KATTINAYANA PALLI ROAD VARATN APALI ROAD KRISHNAG,K Ravichandran,4000,78.2491198,12.5348538
Tamil Nadu,Madurai,ADR Cold Storage,PLOT NO D-24 SIDCO INDUSTRIAL ESTATE KAPPALUR MADU,Ganeshpandi,2327,78.03380779999999,9.8358791
Tamil Nadu,Pondicherry,PUDUCHERY,"74, Kallarai Road Vanarapet, Pondicherry - 605001",T.Rajan,7350,79.8268729,11.9297212
Tamil Nadu,Salem,Rajvignesh Cold Storage Ltd,GUDDALORE VILLAGE MAGUDANCHAVADI POST SANKARITALUK,J.Prabu,2600,77.9881401,11.5494432
Tamil Nadu,Salem,SRI KRISHNA Cold Storage,"S.No-10/3,4,5, Paranattamangalam, Salem",Ramachandran,4051,78.1460142,11.664325
Tamil Nadu,Salem,Sri Selvi Cold Storage,81/6 C KANAKAGIRI VILLAGE KAKAPALAYAM SALEM,A.Sureshkumar,2000,78.0095493,11.5573163
Tamil Nadu,Thanjavur,ANNAPOORNI Cold Storages PVT,"Thennur Village, Kumbakonaum Tk, Tanjore Dt",Thiyagaraja Kumar,2700,79.13782739999999,10.7869994
Tamil Nadu,Theni,Sri Andal Theni Banana,MUTHULAPUTAM ROAD K.KKULAM CHLNNAMANAR THENI,Natesan,100,77.4735441,10.0079322
Tamil Nadu,Theni,Sri.R.Ganesan Cold Storage Private Ltd,NEAR COLLECTOR OFFICE NH49 MADURAI ROAD KARUVELNAY,E.Pandiyan,3000,78.1197754,9.9252007
Tamil Nadu,Thiruvallur,St Peter Paul Seafood Exports,"90,Kanigaipair Village,Oothukottai Taluk",Joseph Jagan,804,79.8917246,13.3338664
Telangana,Khammam,MS Sree Ganesh Cold Storage,Madhira Revenue V Madhira M Khammam District,Shri Kalyanapu Rama Krishna,5000,80.36179899999999,16.9243152
Telangana,Khammam,Ms Anjali Agri Cold Storage Pvt Ltd,Koyachalaka Revenue Village Khammam District,Shri Jagan Mohan Rao Boppana,7000,80.1819268,17.3264713
Telangana,Khammam,Ms Aruna Sri Cold Storage,Dendukuru Village Khammam District,Shri M Koteswara Rao,8000,80.40065659999999,16.8885752
Telangana,Khammam,Ms Devi Sai Cold Storage,Atkuru Nadhira Mandalam Khammam District,Smt P Laxmi Kumari,5000,80.36323139999999,16.9181802
Telangana,Khammam,Ms Raghavendra Sai Sree Cold Storage Pvt Ltd,M V Palem Khammam Rural Khammam,Shri Ch Yadaiah,10000,80.1093805,17.2437654
Telangana,Khammam,Ms Sree Ganesh Cold Storage,Mudigonda Vill M Khammam District,Shri M Nageswara Rao,7000,80.091321,17.1819008
Telangana,Khammam,Sri Amrutha Cold Storage,Vill Krishnapuram Taluk Madhira Mandal Khammam,Shri Saichand Cherukuri,6750,80.36760490000002,16.9691305
Telangana,Medak,MS Jai Jawan Cold Storage,Sy No 52 Jandupalli V Toopran M Medak District,Shri Jam Jam Dinesh,2200,78.47716270000001,17.8411095
Telangana,Medak,MS S S Agrotech Cold Storage,Manoharabad V Toopran M Medak District,Shri V Raja Reddy,7000,78.46809019999999,17.7664207
Telangana,Medak,Ms Safe Cool Agro Tech,Muppireddypalli Tupran Mandal Medak District,M Prakash Reddy,5000,78.49224269999999,17.7255723
Telangana,Nizamabad,Ms Sri Laxmi H Tech Cold Storage,Khanapur V Nizamabad District,Shri Pasupunuri Krishna,5700,78.0794561,18.6954637
Telangana,Ranga Reddy,CFS KUKATPALLY,"IDPL Raod , Balanagar, Township Post Kukatpally , Hyderabad-500037",A V Rao,28598,78.4352235,17.4899635
Telangana,Ranga Reddy,Gubba Green Cold Pvt Ltd,Athavelli Ranga Reddy Dist,Shri Gubba Kiran Kumar,10000,78.5505481,17.1999602
Telangana,Ranga Reddy,MS Bharathi Seeds Private Limited,Sy No 693 A B And 686 Nuthankal V Medchal M Ranga Reddy District,Shri P Brahmananada Reddy,5000,78.48048279999999,17.6323358
Telangana,Ranga Reddy,MS Jai Santoshima Cold Storage,Mogullavampu V Yacharam M Ranga Reddy District,Shri M Sreenivas,1544,78.6540576,17.0388719
Telangana,Ranga Reddy,MS Jam Jam Cold Storage Agor PLC,Sy No 27 A Yellampet V Medchal M Ranga Reddy District,Ms Jam Jam Hemalatha,6000,78.48048279999999,17.6323358
Telangana,Ranga Reddy,MS VLN Cold Storage,Nuthankal Village Ranga Reddy Dist,Shri K Srinivas,9000,79.6955303,17.3321865
Telangana,Ranga Reddy,Ms Cold Space Agrotech India Pvt Ltd,Sy No 46 Rajabollaram V Medchal M Ranga Reddy Dist,Ch V Narsimha Raju,5440,78.53698059999999,17.6356439
Telangana,Ranga Reddy,Ms Nirmala Cold Care,Koheda Ranga Reddy District,Shri G Dayakar Reddy,5600,78.6359562,17.2823888
Telangana,Ranga Reddy,NACHARAM (MAULALI),"Hyderabad Roller Floor Mill Co.Ltd.Behind, Nacharam Telephone Exchange, Nacharam,Hyd-500 076",C. Dasson,7593,78.5665583,17.444206
Telangana,Ranga Reddy,SANATHNGR-FLYOVER,"Sanathnagar Flyover PO Sanathnagar Indl, Estate,Hyd-500 018",K.P.Shetty,12846,78.4061519,17.4546338
Tripura,Khowai,Teliamura 500 Mt Cap Cold Storage,TELIAMURA COLDSTORAGE GAMAIBARI KHOWAI,Swapan Devnath,500,91.6428238,23.8250226
Uttar Pradesh,Agra,55 Agra,GREEN STAR ICE COLD STORA HATH RAS ROAD,Harikesh Dubey,15000,78.0492265,27.5980718
Uttar Pradesh,Agra,Babu Lal Cold Stores Kuberpur. Nh2,BABU LAL COLD STORES KUBER PUR NH. 2,Himansu Gupta,8500,78.0974906,27.2227002
Uttar Pradesh,Agra,C.S. Cold Storage Pvt Ltd,ETAWAH ROAD JAITPUR KALAH,Vishal Jain,740,79.027659,26.7829103
Uttar Pradesh,Agra,Chaudhry Vikram Singh Cold Storage Pvt Ltd,FATEHPUR SIKRI ROAD KAORAI,Veerendra Kumar Jain,12500,77.7251979,27.1180244
Uttar Pradesh,Agra,Gaurang Cold Storage,FATEHABAD ROAD GADHI RAMPAL SHAMSHABAD,Vishnu Sharma,6000,78.1728091,27.0939133
Uttar Pradesh,Agra,Gaytri Cold Storage,DAVLI ROAD MIDHAKUR,Maheshchand Sharma,6000,77.86630319999999,27.155242
Uttar Pradesh,Agra,Jai Shree Cold Stor,DADIGUSAIN DHIMSHREE SHAMSABAD,Puran Chandra,7500,78.1849427,27.0205577
Uttar Pradesh,Agra,Maa Rajeswari Ice And Cold Storage Pvt Ltd,KHERAGARH ROAD KAGARAUL,C.P Singh Parmar,7600,77.847194,27.0213128
Uttar Pradesh,Agra,Navratan Ice And Cold Storage Pvt Ltd,FATEHABAD ROAD JAARAULI SHAMSHABAD,Ajay Jain,550,78.1728091,27.0939133
Uttar Pradesh,Agra,Nitin Rajiv Ice And Cold Storage Pvt Ltd,JAGNER ROAD NAUNI,Rambabu Upadhyay,8000,77.1729605,30.859959
Uttar Pradesh,Agra,Om Chahar Ice And Cold Storage Pvt Ltd,FATEHPUR SIKRI ROAD KIRAWLI,Bunti Sisondhiya,11085,77.786244,27.1394265
Uttar Pradesh,Agra,Om Shanti Cold Storage,SHAMSHABAD,Narendra Kumar,800,78.387971,17.2619301
Uttar Pradesh,Agra,Same,O.P. ICE AND COLD storage FAUONDRI,Saber Ali,11085.3,78.04635999999999,27.225496
Uttar Pradesh,Agra,Shree Govind Sheetgrah Pvt Ltd,KIRAWLI ROAD MAHUVAR,Shiv Singh,11500,72.88949579999999,21.0238338
Uttar Pradesh,Agra,Shri Durga Ice And Cold Storage,DUNGARWALA ROAD KHAIRAGARH,Akhilesh Kumar,5000,80.9809083,21.4182572
Uttar Pradesh,Agra,Shri Roshanlal Ice And Cold Storage,SAINYA ROAD MAHUVAKHEDA KHERAGARH,Maheshchand,6000,77.819014,26.9425734
Uttar Pradesh,Agra,Sree Bankebihari Ice And Cold Storage Pvt Ltd,FATEHPUR ROAD MIDHAKUR,Rajesh Goyal,15394.7,77.86630319999999,27.155242
Uttar Pradesh,Agra,Tomar Ice And Cold Stor,BAKALPUR SAMSABAD ROAD,D.D.Sharma,8500,78.0435622,27.1433717
Uttar Pradesh,Aligarh,Adishakti Ice & Cold Storage,MAHUA ROAD IGLAS,Vijay Pratap,12316.2,77.93674089999999,27.7080526
Uttar Pradesh,Aligarh,Ajit,PALWAL ROAD,Shiv Kumar,5084,77.3922131,28.179719
Uttar Pradesh,Aligarh,Atishay Ice & Cold Storage,TALANAGRI HARDUGANJ,Ajay Kumar,5166,78.1364889,27.9333588
Uttar Pradesh,Aligarh,Atrouli Ice & Cold Storage,STATION ROAD ATROULI,Dharmpal Singh,4800,78.285805,28.0305378
Uttar Pradesh,Aligarh,B. L. Narayan Ice & Cold Storage (P) Ltd.,V. TEHRA THE. IGLAS ALIGARH,Suresh. Chand,12750,77.9099607,27.9037408
Uttar Pradesh,Aligarh,Bal Bhadra Ice & Cold Storage Pvt. Lmt,NAVA NAGAR IGLAS ALIGARH,M.R Sharma,12700,77.9599449,27.7386064
Uttar Pradesh,Aligarh,Bawa Ice & Cold Storage P. Lmt.,GT ROAD PANETHI NEAR MAHAK HOTEL ALIGARH,Rajeshpal Singh,1200,78.1195974,27.8659065
Uttar Pradesh,Aligarh,Brajbhoomi Cold Storage,KUA GAON GONDA ROAD IGLAS,B.D. Sharma,8000,77.9403665,27.7094594
Uttar Pradesh,Aligarh,Dharnidharn Cold Storage & Ice Factory,BESWA ALIGARH,Ratan Singh,5000,77.86959960000002,27.6400446
Uttar Pradesh,Aligarh,G.G. Cold Storage And Ice Factory,SEVANPUA GONDA ROAD IGLAS,Omkar Singh,20000,77.8408031,27.7542379
Uttar Pradesh,Aligarh,Jyoti Cold Storage,GRAM GAHLAU GONDA ROAD IGLAD,Sushil Kumar,5750,77.9103178,27.7771764
Uttar Pradesh,Aligarh,K. K. Ice & Cold Storage,NAVANAGAR IGLAS,Sanjay Singh,7636,77.9599449,27.7386064
Uttar Pradesh,Aligarh,Kanahaiya Sheet Grah,TEHRA IGLAS,Manoj Choudhri,79,77.93674089999999,27.7080526
Uttar Pradesh,Aligarh,Lagsama Ka Sheet Grah,SEVEMPUR IGLAS GONDA ROAD,Omkar Singh,10700,77.8408031,27.7542379
Uttar Pradesh,Aligarh,Lakshya Ice & Cold Storage,NAVANAGAR IGLAS,Neeraj Agarwal,11506.6,77.9599449,27.7386064
Uttar Pradesh,Aligarh,Maa Bhagwati Ice & Cold Storage Pvt. Lmt.,NAVANAGAR IGLAS ALIGARH,Sanjay Singh,600,77.9599449,27.7386064
Uttar Pradesh,Aligarh,Maa Chamunda Devi Cold Storage,VILL BESWA IGLASH GORE ROAD,Mohin Khan,2,77.93674089999999,27.7080526
Uttar Pradesh,Aligarh,Maa Vaisno Ice & Cold Storage,SAHARANPUR IGLAS,Sanjay Singh,9000,77.55520659999999,29.9680035
Uttar Pradesh,Aligarh,Munnilal Cold Storage,ALIGARH MATHURA ROAD IGLAS,Alin Kumar Pandey,12000,77.9384491,27.7066892
Uttar Pradesh,Aligarh,Nishant Cold Storage,ALIGARH IGLAS ROAD,Naveen Gupta,9367,78.0094093,27.7047923
Uttar Pradesh,Aligarh,Rama Agro & Allied Industries,G.T ROAD SOOTMEEL,Manjeet Singh,1750,74.2390965,31.8847743
Uttar Pradesh,Aligarh,Rishal Ice & Cold Storage,SEVEMPUR IGLAS GONDA ROAD,Chandra Mohan Katara,5775,77.8408031,27.7542379
Uttar Pradesh,Aligarh,Sanjay Ice And Presarvation,SOMNA ROAD KHAIR,Arvindra,10000,77.8438774,27.9436577
Uttar Pradesh,Aligarh,Sri Balaji Ice And Cold Storage,SOMNA ROAD KHAIR,K.P. Singh,14000,77.8438774,27.9436577
Uttar Pradesh,Aligarh,Sri Tirupati Ice And Cold Storage,VILL SAHARA IGLASH ROAD,Vineet Kela,12.5,78.0083168,27.7049019
Uttar Pradesh,Aligarh,Urmila- Seema Cold Storage & Ice Factory,G.T. ROAD,Rajeev Yadav,9552,74.2390965,31.8847743
Uttar Pradesh,Aligarh,Vidhya Devi Cold Storage Pvt Lmt,ROAD SADABAAD,Dilip Kumar Gautam,580,78.03380779999999,27.439091
Uttar Pradesh,Aligarh,Vishwamitrapuri Cold Storage Pvt Lmt.,BESHWA IGLAS GONDA ROAD,Sudarshan Gautam,10000,77.93674089999999,27.7080526
Uttar Pradesh,Aligarh,Yashpal Agri Products & Sheetgrah Put. Ltd.,KAREKA IGLAS,Azad Khan,7500,77.93674089999999,27.7080526
Uttar Pradesh,Allahabad,Abhishek Cold,FAFAMAU ROOD,Vidya Kant,12500,81.8537532,25.5341192
Uttar Pradesh,Allahabad,Adarsh Cold Storage,MALAK HARHAR ALLAHABAD,Mo Anwar,8000,81.82457389999999,25.5319494
Uttar Pradesh,Allahabad,BHOLA SINGH Cold STORES,BHOLA SINGH COLD STORES NEAR ALLAHABAD TO FAIZABAD,RAMJEET SINGH,10000,81.846311,25.4358011
Uttar Pradesh,Allahabad,Baba Cold Storage,BABA COLD STORAGE HARIPUR BINDA SAID BAD ASEIPUR A,09453709640 Manoj Kumar,6000,72.9106202,33.9946466
Uttar Pradesh,Allahabad,Bola Sheet Ghar Sahson,BHOLA SHEET GHAR SAHSON ALLHABAD,Bishwamber Dutt Pant,12500,81.98048159999999,25.4848216
Uttar Pradesh,Allahabad,Doaba Cold Storage & Ice Factory,IBRAHIMPUR BAMRAULI MANDAR ALLAHABAD,Baiju Lal,3300,81.74256940000001,25.4442445
Uttar Pradesh,Allahabad,Doaba Sheetgarh,MEERA PATTI MUNDHERA ALLAHABAD,Sunil,6150,81.7621369,25.4476713
Uttar Pradesh,Allahabad,FARUKHABAD Cold STORES,2/SILAKHANA TEALIYARGANJ ALLAHABAD,MANOJ SEXEENA,12300,81.846311,25.4358011
Uttar Pradesh,Allahabad,Guru Nanak Sheetgarh,SOUTH ROAD SIVIL LINE ALLAHABAD,Jagjeet Singh,2250,81.8283043,25.448332
Uttar Pradesh,Allahabad,Handia Cold Storage,HANDIA COLD STORAGE HANDIA ALLHABAD UP,Mushtaq Ahmad,5000,82.1883264,25.3773371
Uttar Pradesh,Allahabad,KRISNA Cold STORE FAFAMAU GADOOPUR,ALLAHABAD TO FAIZABAD ROAD IN SIDE,RAMRAJ,7500,81.846311,25.4358011
Uttar Pradesh,Allahabad,Kesarwami Sheetalaya,KESARWNI SHEETALAYA ASORAON ALLHABAD,Ram Abhelas Devedi,12500,81.9742855,25.4825977
Uttar Pradesh,Allahabad,Kesarwni Sheetalaya Sahso Allhabad,KESARWNISHEETALAYA SAHSO ALLHABAD,SuchilSarma,8750,81.98048159999999,25.4848216
Uttar Pradesh,Allahabad,Lehti Cold,LEHATI,Thakur Prashad,7800,87.2131071,24.8207864
Uttar Pradesh,Allahabad,Mohan Cold Storage,MOHAN COLD STORAGE TIKARI NAWAB GANJ ALLHABAD,Sri Ashish Kumar,5000,81.846311,25.4358011
Uttar Pradesh,Allahabad,Pancham Cold Storage And Ice Company Soraon A,PANCHAM COLD ATORAGE SORAON ALLHANAD,Ram Abhilash Tiwari,4100,81.8497567,25.6070169
Uttar Pradesh,Allahabad,Prasont Kumar & Prashant Kumar Sheetgrah,AJAD NAGAR GOHRI ROAD FAFAMAU ALLAHABAD,Shri Manish Nand Ojha,9000,81.8520059,25.557887
Uttar Pradesh,Allahabad,R.B. S SEETALAYA,R.B.S SEETALYA MEAJA ROAD ALLAHABAD,SHIV NARAYAN,4500,82.088222,25.20374
Uttar Pradesh,Allahabad,Rajendra Cold Storage,MAHAWAR DARI ALLAHABAD,Ravi Prakash Agrawal,1100,81.846311,25.4358011
Uttar Pradesh,Allahabad,Ram Kirisn Cold,180 HIMAT GANJ,Sandip,665,81.84565930000001,25.4348045
Uttar Pradesh,Allahabad,SUBEDAR Cold STORE GADOOPUR,FAIZABAD TO ALLAHABAD ROAD NEAR,MD.ALIM,5000,82.1457934,26.7729751
Uttar Pradesh,Allahabad,Sagar Cold Storage & Ice Factoru,SHULTANPUR KHASH MAUAMA,Mo Alam,5000,81.8852582,25.7059716
Uttar Pradesh,Allahabad,Saine Sheetalaya & Ice Factory Tikari NawbGanj Allh,SAINE SHEETALAYA TIKARI NAWB GANJ ALLHABAD,Sri Anup Singh,3690.7,81.846311,25.4358011
Uttar Pradesh,Allahabad,Shakeet Seetalaya & Ice Factory,SHAKET SEETALAYA &ICE FACTORY GADOPUR PHAPHA MAU A,Sri Ram Geet Singh,12300,81.84565930000001,25.534773
Uttar Pradesh,Allahabad,Shard Sheetalaya Dharoli,SHARD SHEETALAYA DHAROLI HANMANGANJ ALLHABAD,Hriday Nand Singh,3936,81.9786972,25.483163
Uttar Pradesh,Allahabad,Shri Krishna Cold Storage,SHRI KIRSHNA COLD STORAGE GADOPUR PHAPHAMAU ALLHAB,Sri Ram Raj,7500,81.8452555,25.5309063
Uttar Pradesh,Amethi,Ms Shree Sai Cold Storage,Village Goriabad Pargana Gaura Jamo District Amethi,Shri Dinesh Jaykaran Tiwari,5294,81.6665149,26.4034733
Uttar Pradesh,Auraiya,Badrinarayan Cold Storage,BELAROAD ASANI DIVYAPUR AURAIYA,Ram Kishor Tiwari,3882.88,79.5569905,26.6432519
Uttar Pradesh,Auraiya,Bharat Cold Storage,ASANI DIVYAPUR AURAIYA,Dewan Singh,6875,79.5638561,26.665515
Uttar Pradesh,Auraiya,M. Anuraj Sheet Griha & Industry,PATACHAURAHA FAFUD AURAIYA,Raghvendra Shukla,15400,79.4648131,26.5997918
Uttar Pradesh,Auraiya,Shree Shesh Sheet Griha,ANANAT RAM SONASI AURAIYA,Bharat Bahadauriya,8400,79.2585058,26.603316
Uttar Pradesh,Auraiya,Shree Sundar Sheet Griha,BABARPUR AURAIYA,Pramod Dubey,5800,79.3130972,26.5706587
Uttar Pradesh,Auraiya,Vedant Adible Products Pvt. Ltd.,MOHARI BABARPUR AURAIYA,Shiv Kumar,7000,79.2873953,26.5887602
Uttar Pradesh,Azamgarh,Murli Cold Storage & Ice Factory Azamgarh,MURLI COLD STORAGE&ICE FACTORY AZAMGARH,Sri Anil Kumar,3280,83.18594949999999,26.0739138
Uttar Pradesh,Azamgarh,RUNGTA Cold STORE,RUNGTA COLD STORE PHOOLPUR AZAMGARH,MOHANLAL,1148,82.8755209,26.0775099
Uttar Pradesh,Azamgarh,Singh Cold Storage & Ice Factory,SINGH COLD STORAGE &ICE FACTORY CAPTANGANJ AZAMGAR,Shri Angaed Singh,4200,83.0978679,26.191993
Uttar Pradesh,Azamgarh,Sri Hanuman Cold Storage,SRI HANUMAN COLD STORAGE RERAHA AHIRAWLA AZAMGARH,Sri Pannu Chauhan,1800,82.9111585,26.1814514
Uttar Pradesh,Ballia,MAHESARI Cold & ICE FACTORI,MAHESARI COLD STORE &ICE FACTORI HARKUL BALLIA,MURLIDHAR,2214,74.99247199999999,30.8499164
Uttar Pradesh,Ballia,MODRAN Cold STORE,05498-23608,RAJNATH,4264,-76.5372625,37.1541965
Uttar Pradesh,Ballia,Purvanchal Cold Storage,PIRVANCHAL COD STORAGE MANEYARA BALLIA,Sri Ram Chorasiya,2132,84.1857115,25.8307174
Uttar Pradesh,Ballia,Sarbgeet Cold Storage,DAROBAAS DEHA BALLIA,Sri Markandy Singh,15000,79.3651914,28.2006882
Uttar Pradesh,Ballia,Shivam Cold Storage,SONBARSH BAIRIYA BALIYA,Bachcha Lal Prajapati,11250,84.5064881,25.7311255
Uttar Pradesh,Ballia,Soreha Cold Storage,SOREHA COD STORAGE SOREHA SHATVAR BALLIA,Sri Barmha Dev Singh,4908,79.3651914,28.2006882
Uttar Pradesh,Barabanki,C. P Cold STORES,MOHAMADPUR CHOKU SAFEADABAD BARABANKI,ASHOK SHARMA,12800,81.220968,27.0310215
Uttar Pradesh,Barabanki,CHENDEL Cold STORES,CHENDEL COLD STORES RAMNAGAR BARABANKI,DUSHYANT SINGH CHEANDEL,7100,81.4053295,27.0852199
Uttar Pradesh,Barabanki,JANTA Cold STORES,KUROLI BARABANKI,SURENDER PRATAP SINGH,8750,81.1833809,26.9268042
Uttar Pradesh,Barabanki,KUROLI Cold STORES,KUROLI BARABANKI,UMESH KUMAR,9562.53,81.1833809,26.9268042
Uttar Pradesh,Barabanki,Mashoor Cold Storage,JHASAPURWA FATEHPUR BARABANKI,Shri Brijesh Kumar Varma,5000,81.2157665,27.1742902
Uttar Pradesh,Barabanki,PARMESHWARI INDUSTRIES PVT,PALRI BARABANKI,MAHADEV SINGH,15690,81.1833809,26.9268042
Uttar Pradesh,Barabanki,Palhari Cold Storage,FAIZABADROAD,S.K.Srivastav,10200,81.7334345,26.7829456
Uttar Pradesh,Barabanki,Salarpur Cold Storage,SALARPUR FATEPUR ROAD BARABANKI,Shri Raj Kumar Varma,14200,77.3882686,28.5456897
Uttar Pradesh,Basti,Prakash Cold Storage,PLASTIC COMPLUX IND ARIYA BASTI,Shri Manoj Kumar Shriwastv,5385,82.7913767,26.807451
Uttar Pradesh,Basti,Suyash Cold Storage,MEHDAWAL RAOD AMOULI BASTI,Shri Subodh,3700,83.10851199999999,26.9761045
Uttar Pradesh,Bijnor,Jain Cold Storage & Ice Factory,KOTDWAR ROAD,Anup Jain,5000,78.5198094,29.7453031
Uttar Pradesh,Bijnor,TIRUPATI ColdSTORE,MUDIYA,RAM AVATAR,7337.07,79.2408858,28.1564169
Uttar Pradesh,Budaun,Badaun Cold Storage,PANWADI BADAUN,D.N.Tandan,5494,79.1271229,28.0311101
Uttar Pradesh,Budaun,Brij Cold Storage & Ice Factory,AJNAWAR BISAULI,Satya Pal Sharma,4884.2,78.9344814,28.2978317
Uttar Pradesh,Budaun,Chabbra Cold Storage,PANJABI COLLONY,Sri Hari Prakash,5576,73.1681503,19.2268954
Uttar Pradesh,Budaun,Ganesh Cold Storage,GANJSAHIDA UJHANI,Amit,3000,79.0051685,28.0003235
Uttar Pradesh,Budaun,Gyan Cold Storage And Ice Factory,BADAUN ROAD UJHANI,Sri Sher Singh,4500,78.979192,28.2723789
Uttar Pradesh,Budaun,Maheshwri Cold Storage,BADAUN ROAD UJHANI,Virendra Kumar Gupta,4200,78.979192,28.2723789
Uttar Pradesh,Budaun,Mahsar Singh Cold Storage,KHEDA NAVEDA BARELI ROAD BADAUN,Sri Rampal Nagar,2000,79.1271229,28.0311101
Uttar Pradesh,Budaun,Ms Math Cold Storage And Ice Factory,DAVTORI ROAD BISAULI,Arvind Agrawal,2500,79.0164736,28.36509
Uttar Pradesh,Budaun,Punjab Cold Storage,AMITCHHABRA230[At]EMAIL[Dot]COM,Amit Chhabra,2870,-73.8062167,40.96946
Uttar Pradesh,Budaun,Ram Cold Storage And Ice Factory,KHEDA NAVEDA BADAUN,Rajiv Gupta,2842,79.1271229,28.0311101
Uttar Pradesh,Budaun,Sahu Ram Lakhan Cold Storage,BASAULI ROADS BUS STAND,Merchant Sharma,2800,76.86633069999999,30.440431
Uttar Pradesh,Budaun,Sardar Cold Storage,BY PAS ROAD UJHAINI,Pulkit Singh,3690,79.0051685,28.0003235
Uttar Pradesh,Budaun,Welga Cold Storage,SHYAM NAGAR BADAUN,Updesh Kumar,3994.5,79.1303519,28.0460246
Uttar Pradesh,Etawah,Ms Guru Nanak Cold Storage Ice Factory,Pucca Bagh District Etawah,Shri Krishan Kumar,4804,79.027659,26.7829103
Uttar Pradesh,Firozabad,Veer Bhan Singh Cold Storage,SIRSAGANG FIROZABAD,Laxmi Yadav,500,78.6893782,27.0552636
Uttar Pradesh,Ghaziabad,Ms Gopi Industries,C 145 Bulandshahar Road Industrial Area Ghaziabad,Shri R K Varshney,4762,77.45780500000001,28.6542799
Uttar Pradesh,Gorakhpur,GORAKHPUR,"Near Nakha Jungle Rly. Station, Fertilizer Factory, Gorakhpur-273001",Muneeb Prasad,29700,83.3655823,26.7448496
Uttar Pradesh,Hapur,Ms Mahashakti Cold Storage Expansion,Village Fazilpur Morepur Hapur Bulandshahar Road Hapur Distt,Mrs Mamta Varshney,4636,77.7758825,28.73057979999999
Uttar Pradesh,Hardoi,HARDOI,"132, K.V. Power Station, Lucknow Road, Hardoi 241001",Ram Lakhan,41200,80.1250479,27.3965071
Uttar Pradesh,Hathras,CHIRANJILAL Cold,AGRA ROAD SADABAD,RAMESH CHANDRA GAUTAM,11064.88,78.03380779999999,27.439091
Uttar Pradesh,Hathras,KRISHNA BALRAM Cold Storage,KOTA,RAM BIHARI SHARMA,8129.42,75.8647527,25.2138156
Uttar Pradesh,Jaunpur,BADRIKA Cold Storage AND ICE FACTARY,MAZDIHA USRAHATA JAUNPUR,Shri Ratneshwar Gupta,1500,82.68370329999999,25.7464145
Uttar Pradesh,Jaunpur,Durga Cold Storage,DURGA COLD STORAGE KUTTU PUR JAUNPIR,Arvind Moury,4300,82.68370329999999,25.7464145
Uttar Pradesh,Jaunpur,KUBER Cold STORE,KUBER COLD STORE VISESARPUR JONPUR,RAMESH CHENDERA TIWARI,3300,82.7117829,25.7511533
Uttar Pradesh,Jaunpur,MS Dharma Cold Storage Ice Factory,A 1 D 4 Sidhwan Industrial Area Sidhwan Distt Jaunpur,Shri Laxmi Kant Sridhar Upadhayaya,5880,82.68370329999999,25.7464145
Uttar Pradesh,Jaunpur,Ms Krishna Cold Storage,Mauza Arand Khesara No 205 And 273 Paragana Anguli Tahsil Shahganj Distt Jaunpur,Shri Pramchand Yadav,5384,82.5593779,25.9217908
Uttar Pradesh,Jaunpur,Raj Phoot Cold Stoeage,RAJ PHOOT COLD STORAGE JAGDIAH PUR JAUN PUR,Sri Naraindr Kumar Maurya,3900,82.6716344,25.7620076
Uttar Pradesh,Jaunpur,Shri Seat Vishwanth Parshad Chagan Lal Cold Storag,SIDIQUEPUR SHAPUR ROAD JAUNPUR,Vidhyadhar Tiwari,2293.2,82.68370329999999,25.7464145
Uttar Pradesh,Jaunpur,Singh Cold Storage,SINGH COLD STORAGE JAGDISH PUR JAUN PUR,Sri Naraindr Kumar Maurya,8000,82.70250659999999,25.715842
Uttar Pradesh,Jhansi,JHANSI,"Shivpuri Road, Nandan Pura Jhansi-284003",A.K.Saxena,15240,78.5398204,25.4540602
Uttar Pradesh,Kannauj,Asha Refrigeration,G.T.ROAD KARMULLAPUR SIKANDARPUR CHHIBRAMAU,Mr.Arvindra Prakash Dwivedi,14912.2,79.4998985,27.1499944
Uttar Pradesh,Kannauj,Asha Sheetalay,RAJLAMAU ISMAILPUR GURSAHAIGANJ,Mr.Ramakant Gupta,200,79.7304285,27.1170062
Uttar Pradesh,Kannauj,Asha Sheetgrah,SALEMPUR SIKANDARPUR CHHIBRAMAU,Anuj Mishra,10800,79.4998985,27.1499944
Uttar Pradesh,Kannauj,Basnti Cold Storeja,BASNTI COLD STOREJA JALALABHAD,Anil Dubey,9000,70.45780189999999,34.4283529
Uttar Pradesh,Kannauj,Bharat Cold Storage Pvt Ltd,G.T.ROAD KANNAUJ,Mr. Ram Swaroop Tiwari,6270,79.927311,27.027153
Uttar Pradesh,Kannauj,Cakor Seetalay P. L Jasodha,G.T ROAD JASHODA KANNAUJ,Vishnu Parkash,11700,79.9136731,27.0514156
Uttar Pradesh,Kannauj,Catak Cold Storeja G.T Road,G.T ROAD GURSAHIGANJ,Suresh,14088.9,79.7290937,27.1170427
Uttar Pradesh,Kannauj,Chand Sheetalay Pvt Ltd,NIKWA TALGRAM CHHIBRAMAU,Mr.Mahfooj Ali,13750,79.646,27.0478739
Uttar Pradesh,Kannauj,Estate Cold Storage,RAJLAMAU ISMAILPUR GURSAHAIGANJ,Mr.Arvind Kumar Yadav,11500,79.7304285,27.1170062
Uttar Pradesh,Kannauj,Everest Cold Storage,NADEMAU TIRWAN,Dr.D.P.Singh,8400,79.6109049,26.9827237
Uttar Pradesh,Kannauj,Gursahaiganj Cold Storage,G.T.ROAD ISMAILPUR GURSAHAIGANJ,Jeeshan,900,79.7304285,27.1170062
Uttar Pradesh,Kannauj,Gyan Sheetalay Pvt Ltd,SAURIKH ROAD LALKAPUR CHHIBRAMAU,Akhilesh Kumar Verma,11900,79.422015,27.105633
Uttar Pradesh,Kannauj,H.I. Cold Storage,C.S.B.ROAD SAURIKH,Mr.Virasat Ali,8900,79.4916342,27.0291028
Uttar Pradesh,Kannauj,Habib Cold Storeja,HABIB COLD STOREJA PURBI BAI PASS G.T ROAD GURASHY,R.C Dwivedi,10000.4,74.2390965,31.8847743
Uttar Pradesh,Kannauj,Hargovind Das Agro Form,G.T.ROAD BAHADURPUR UJJAINI,Mr.R.D.Verma,12513,75.7885163,23.1764665
Uttar Pradesh,Kannauj,Harihar Refrigeration & Agro Form,HARIHARPUR SARAIGHAGH MAKRAND NAGAR,Mr.Lalit Mehrotra,11858,79.9133207,27.0463993
Uttar Pradesh,Kannauj,Huma Agrotech India Ltd,KAPOORPUR CHHIBRAMAU,Mahfooj Khan,8750,79.5406738,27.1141927
Uttar Pradesh,Kannauj,I.R.S,FARRUKHABAD ROAD GURSAHAIGANJ,Mr.Dharam Pal,7500,79.7304285,27.1170062
Uttar Pradesh,Kannauj,Jamuna Prasad Cold Storage Pvt.Ltd,SIKANDARPUR CHHIBRAMAU,Mr.Haridutta Dwivedi,7250,79.4998985,27.1499944
Uttar Pradesh,Kannauj,Jasoda Cold Storeja,PATHAKANA KANNAUJ,Virendhar Mishar,8000,79.9136731,27.0514156
Uttar Pradesh,Kannauj,Jiya Cold Storeja Pvt. Lmt,MEHMOOD PURKHAS KURWAR CHHIBRAMOU,Dileep Dubey,5600,79.4998985,27.1499944
Uttar Pradesh,Kannauj,Kisan Cold Storage,G.T.ROAD CHHIBRAMAU,Mr.Virendta Pal,7269.08,79.4991465,27.1470229
Uttar Pradesh,Kannauj,Kishan Cold Storeja,THATHIYA KANNOUJ UP,Atidhay Tirpathi,9340,79.89966849999999,26.9248184
Uttar Pradesh,Kannauj,Lata Sheetalay Pvt Ltd,MAHMOODPUR KIRAT CHHIBRAMAU,Mr.Hari Shankar Shukla,10000,79.4464792,27.1666896
Uttar Pradesh,Kannauj,M.I.C.S,FARRUKHABAD ROAD GURSAHAI GANJ,Sadrul Haque,1800,79.4585513,27.3153432
Uttar Pradesh,Kannauj,Mahavir Cold Storeja Chhibramau,MAHAVIR COLD STOREJA CHHIBARMAU,Sunderlal Gupta,6000,79.5037839,27.154269
Uttar Pradesh,Kannauj,Mahboob Cold Storage,G.T.ROAD ISMAILPUR GURSAHAIGANJ,Marruf,8600,79.7304285,27.1170062
Uttar Pradesh,Kannauj,Manimau Cold Storage,MANIMAU PAST MANIGANJ,Rajendr Mishra,10000,90.00043769999999,23.8610911
Uttar Pradesh,Kannauj,Mathura Prasad Cold Storage,CHHIBRAMAU,Mr.Ashok Dubey,4750,79.4998985,27.1499944
Uttar Pradesh,Kannauj,Mishra Cold Storeja,TIRWAN ROAD NASIRAPUR KANNAUJ,S.K Mishra,7500,79.9136731,27.0514156
Uttar Pradesh,Kannauj,Mohan Cold Storage,G.T.ROAD SARAY PRIYAG CHHIBRAMAU,Mr. Gyanendra Kumar,13500,79.6628579,27.1242079
Uttar Pradesh,Kannauj,Mohan Ice & Cold Storage Pvt Ltd,SARAI PRAYAG CHHIBRAMAU,Mr.Ashwani Katiyar,15000,79.66424409999999,27.1175758
Uttar Pradesh,Kannauj,N.D. Cold Storage Pvt.Ltd,G.T.ROAD GHILOI CHHIBRAMAU,Mr.Jeetendra Singh,10000,79.5042298,27.1535024
Uttar Pradesh,Kannauj,Narottam Cold Storage Pvt Ltd,RAIPUR SIKANDERPUR CHHIBRAMAU,Vipin Gupta,6000,79.5996716,27.1331368
Uttar Pradesh,Kannauj,Neeraj Cold Storage,TALGRAM CHHIBRAMAU,Mr. Ram Sharan,7500,79.646,27.0478739
Uttar Pradesh,Kannauj,Praksh Cold Stpreja Manimau,MANIMAU G.T ROAD,Suresh Chand Tivari,11200,74.2390965,31.8847743
Uttar Pradesh,Kannauj,Puneet Cold Storage,JALALPUR PANWARA,Mr. Rajendra Kumar Srivastav,7865,79.8736035,27.0620473
Uttar Pradesh,Kannauj,Raghupati Cold Storage Pvt.Ltd,MANDI SAMITI BYPASS CHHIBRAMAU,Mr.Vishram Singh Verma,10500,79.4998985,27.1499944
Uttar Pradesh,Kannauj,Raheman Cold Storeja,BAHADUR PUR MANIMAU KANNAUJ,Shami Muzzama Khan,78,79.6951103,27.0296784
Uttar Pradesh,Kannauj,S.D. Cold Storage Pvt Ltd,G.T.ROAD CHHIBRAMAU,Jeetendra Kumar,12500,79.4991465,27.1470229
Uttar Pradesh,Kannauj,Saini Cold Storage,GOVARDHANI TIRAHA JALALPUR PANWARA,Girish Chandra,10578,79.8736035,27.0620473
Uttar Pradesh,Kannauj,Sarojani Cold Storage,GOVARDHANI TIRAHA JALALPUR PANWARA,Mr.Rahul Mishra,8100,79.8736035,27.0620473
Uttar Pradesh,Kannauj,Sarojani Cold Storage Pvt Ltd,DANDAURA BUJURG MITRASENPUR,Mr. Ravi Tiwari,10600,83.1313926,26.0422082
Uttar Pradesh,Kannauj,Satish Cold Storage,MANIMAU KANNAUJ,Mr.Anuj Dubey,10000,79.9598383,26.9979637
Uttar Pradesh,Kannauj,Saurikh Cold Storage,SAKRAWAN ROAD SAURIKH,Rajendra Prasad Verma,8000,79.4879649,27.0310012
Uttar Pradesh,Kannauj,Shimla Cold Storage,G.T ROAD MANI MAU DEDAURA BUJU,Mr. Kamlesh Kumar,10500,79.9668308,26.9824492
Uttar Pradesh,Kannauj,Shimla Cold Storage Pvt Ltd,HARDOI ROAD KANNAUJ,Ahmad Zama,10988,80.0252442,26.914046
Uttar Pradesh,Kannauj,Shnkar Ji Shitghrh P.L.,TIRAWA NAJERAPUR KANNOUJ,Surabh Mishra,6000,79.9038774,27.0288787
Uttar Pradesh,Kannauj,Shri Ganesh Cold Storage,TIRWAN ROAD NAJIRAPUR,Mr.Vishnu Dayal Varma,8000,74.10097,14.9576992
Uttar Pradesh,Kannauj,Sri Guru Kripa Sheetalay Pvt Ltd,KAPOORPUR MANIMAU MIANGANJ,Mr.Kashmir Singh Kushawaha,10305.5,80.4840974,26.8012486
Uttar Pradesh,Kannauj,Sri Mukhiyaji Cold Storage Pvt Ltd,G.T ROAD MANIMAU MIANGANJ,Mr.Aviral Dubey,8693,79.9593125,26.9956946
Uttar Pradesh,Kannauj,Vikas Cold Storage,G.T.ROAD TERA JAKET CHAUK GURSAHAIGANJ,Mr.Subodh Dikshit,11308.5,79.6724752,27.1232106
Uttar Pradesh,Lucknow,Adarsh Satendra Cold Storage Mall Lucknow,ADARSH SATENDRA COLD STORAGE MALL LUCKNOW,V.K.Dikshit,6000,80.94616599999999,26.8466937
Uttar Pradesh,Lucknow,B.K.T Cold Storage And Ice Factory Pl Up,BUT COLD STORAGE AND ICE FACTROY PL BAKSHL KA TALA,Rakesh Kumar Mishra,7800,82.7030772,25.7160227
Uttar Pradesh,Lucknow,Chinhat Cold Storage,MATIHARI CHINHAT,Shri Mohmmad,12000,81.03958209999999,26.8858063
Uttar Pradesh,Lucknow,Kailash Cold Store,MOTIJHIL ROAD AISHBAGH,Vishal Bhashin,9141,80.9017617,26.8415789
Uttar Pradesh,Lucknow,Kumar Cold Storage Hardoi Road Lucknow,KUMAR COLD STORAGE HARDOI ROAD LUCKNOW,R.K.Shukla,11000,80.94616599999999,26.8466937
Uttar Pradesh,Lucknow,S B Cold Storage,RAMPUR DEORAI B K T LUCKNOW,R K Jaiswal,8900,80.92197639999999,26.9841027
Uttar Pradesh,Lucknow,Sanatan Cold storage,MISHRIPUR,Sunil Singh,9000,79.9178709,27.8433315
Uttar Pradesh,Lucknow,Shri Sidhnath Cold Storage,SHALIMPUR PATWARA MOHAN ROAD LUCKNOW,Ram Niwas Tiwari,37854,80.94616599999999,26.8466937
Uttar Pradesh,Lucknow,Star Cold Storage,BAAZ NAGAR HARDOI ROAD,Mohd Aftab,5500,80.8911099,26.8728835
Uttar Pradesh,Lucknow,Uday Cold Storage Attari Mall Lucknow,UDAY COLD STORAGE ATTARI MALL LUCKNOW,S.K.Mishra,7500,80.94616599999999,26.8466937
Uttar Pradesh,Mainpuri,CH.BHOOP SINGH Cold STORE PVT.LTD,KURAVALI ROAD MAINPURI,SANJAY KUMAR,6511,78.8840691,27.3089544
Uttar Pradesh,Mainpuri,Chaudhary Sheetalay,J.T.ROAD NAVIGANJ MAINPURI,Shri Ram Prakash Shukla,7500,79.38632659999999,27.1921472
Uttar Pradesh,Mainpuri,Chauhan Ice & Cold Storage,J.T.ROAD NAIKAMAU MAINPURI,Shri Ram Naresh Varma,8750,79.34233119999999,27.1965368
Uttar Pradesh,Mainpuri,Kumar Sheetalya,BHOGON ROAD MINPURI,Shri Bhogon Road Mainpuri,5300,79.2344862,27.2982048
Uttar Pradesh,Mainpuri,Main Puri Cold Stoeage & Ice Factory,MAIN PURI COLD STORAGE &ICE FACTORY AVDH NAGAR MAI,Ari Parshant Chavhan,3900,79.0366076,27.221073
Uttar Pradesh,Mainpuri,Pawan Ice & Cold Storage,FARUKHABAD ROAD BEWAR MAINPURI,Shri Satya Vir Singh,10000,79.3058163,27.2214945
Uttar Pradesh,Mainpuri,R.S.Sheetalya Pvt Ltd.,MAINPURI ROAD BHOGAON MAINPURI,Shri Jagdesh Singh,10300,79.2736772,27.1157263
Uttar Pradesh,Mainpuri,RAGHUVEER SEETGRAH,RAGHUVEER SEETGRAH RADHARAMAN ROAD MAINPURI,PRAVEESH KUMAR DIXIT,4450,79.0479715,27.230494
Uttar Pradesh,Mainpuri,SRI RAM Cold STORES & ICE FACTORI,UDEATPUR ABHAI KURAVALI ROAD,VINOD SINGH,11000,80.2568442,13.0383406
Uttar Pradesh,Mainpuri,SRI RAM MURTI ICE & Cold STORES,JYOTI ROAD,DHEERAJ SINGH TOMAR,8919.5,78.9694956,27.2666761
Uttar Pradesh,Mainpuri,Shri Shankar Cold Storage,J.T.ROAD BEWAR MAINPURI,Shri Lokendra Pratap Singh,5000,79.29866679999999,27.2178783
Uttar Pradesh,Mainpuri,Siya Ram Prijveshan Pvt Ltd.,J.T.ROAD BHOGAON MAINPURI,Shri Dhanvesh Singh,6000,79.1722772,27.2554043
Uttar Pradesh,Mainpuri,Yadvendra Cold Storage,KANAKPUR KARHAL MAINPURI,Shri Pramod Kumar,6500,78.952865,27.0035787
Uttar Pradesh,Mathura,Bharat Cold Storage Pvt Ltd.,RAYA-BALDEV ROAD,JAI SINGH,6000,77.7901306,27.549148
Uttar Pradesh,Mathura,Bihari Cold Pvt Ltd,BALDEO TO SADABAD ROAD,Avadh Bihari Goyal,13775,77.9073705,27.4951381
Uttar Pradesh,Mathura,Brijwasi Cold Storage Pvt Ltd,"GOVINDNAGAR, JANAM BHUMI",Darmwndra Dubey,750,77.6693608,27.5067005
Uttar Pradesh,Mathura,Fareh Ice And Cold Storage Pvt Ltd,MATHURA ROAD FAREH,Gopal Agarwal,930,-1.1865868,50.8548464
Uttar Pradesh,Mathura,Jajanpatti Ice & Cold Storage,"JAJANPATL,BHARAT,MATHURA ROAD",Gajadhar Singh,7626,77.2401157,28.6112543
Uttar Pradesh,Mathura,Kanti Devi Ice & Cold Storage Pvt. Ltd.,"BALDEV ROAD, MTHURA",Dev Pal,5000,77.673673,27.4924134
Uttar Pradesh,Mathura,Laxmi Ice & Cold Storage,VILL.HATKOLI,Rinku,10000,77.8281514,27.397982
Uttar Pradesh,Mathura,Maharaja Cold Storage Pvt. Ltd,VILL.PALI DOOGRI,Shakeel Hassan,1.425,73.331147,25.7780623
Uttar Pradesh,Mathura,Ms Mahalaxmi Sheetgrah Pvt Ltd,Kh No 890 Mauza Loriya Patti Sonkh Tehsil And Dist Mathura,Shri Santosh Singh,5825,77.673673,27.4924134
Uttar Pradesh,Mathura,Prem Seetgrah,BALDEO,Prem Singh,6141,77.8395869,27.4163372
Uttar Pradesh,Mathura,Premwati Pachauri Ice And Cold Storage,JALAL ROAD FAREH,Ramashankar Pachauri,3690,-1.1865868,50.8548464
Uttar Pradesh,Mathura,Raya India Cold Storage,"RAYA CHOWK, SADABAD ROAD",Arun Saxena,3600,77.9073705,27.4951381
Uttar Pradesh,Mathura,Robin Cold Storage Pvt Ltd.,SADABAD ROAD,Brijesh Gautam,4700,77.9073705,27.4951381
Uttar Pradesh,Mathura,Roopam Cold Storage Pvt Ltd,SADABD ROAD,Sunil Aggarwal,4750,77.9073705,27.4951381
Uttar Pradesh,Mathura,S.D. Cold Storage Pvt Ltd,"RAYA ROAD, GOSANA",Amar Singh,12100,71.92235,23.4758802
Uttar Pradesh,Mathura,Shree Radhe Cold Storage,GOSNATILA RAYA ROAD,Umesh Chand Sharma,10000,77.7348358,27.5237425
Uttar Pradesh,Mathura,Shri Hari Om Ice & Cold Storage,VILL PATLANI BALDEV MATHURA,Shri Mahesh Chand Sharma,650,77.8395869,27.4163372
Uttar Pradesh,Mau,Mishra Cold Storage,ALI NAGAR PAHSA MAU,Ravi Prashad Upadhyay,5500,83.6228706,25.9676126
Uttar Pradesh,Mau,Shiv Ram Chandra Jagar Nath Cold Storage,SEEDHWAL RATANPURA MAU,Surendra Singh,5398.99,83.7447356,25.9206608
Uttar Pradesh,Meerut,Arkay Cold Storage & General Industries,1 SHYAM NAGAR,Jagpal Tyagi,2200,80.3539155,26.4002413
Uttar Pradesh,Meerut,Aziz Cold Storage,ALIPUR NAU GAZA PIR ROAD,Zaved,7380,77.13313629999999,28.7972263
Uttar Pradesh,Meerut,Bharat Jo Cold Storage & General Mill,DELHI ROAD PHASE 2,Mrityunjay,4100,77.10249019999999,28.7040592
Uttar Pradesh,Meerut,BhawaniColdstorage,HPUR ROAD HAGIPUR,Vinodku Vinod,650,77.735785,28.9174972
Uttar Pradesh,Meerut,Chaturbhuj Cold Storage & Ice Factory,ROAD ROAD MAWANA,Harish Chand,3000,77.9204938,29.0969563
Uttar Pradesh,Meerut,G.D. Cold Storage @Ice Meal,HAGIPUR ROAD,MoharSingh,6000,85.20832399999999,25.6924354
Uttar Pradesh,Meerut,Ganesh Cold Storage Meerut,CANT STATION ROAD,Imran Khan,1750,67.0379089,24.843368
Uttar Pradesh,Meerut,JAN SHAKTI Cold STORE P.V.T L.T.D,HARIDWAR ROAD DAURALA,SURESH PAL RANA,650,77.70228200000001,29.1130045
Uttar Pradesh,Meerut,M/S Phoola Cold Storage,SURAJ KUND ROAD,Gopal Dutt Sharma,2542,71.4572645,30.1533516
Uttar Pradesh,Meerut,Manohar Cold Storage Kankharkhera,KARNAL ROAD KANKAR KHERA,Pardeep Kumar Garg,5750,77.6691819,29.0328198
Uttar Pradesh,Meerut,Mokhampur Ice & Cold Storage,MOKHAMPUR PHASE 1,Amar Nath,2000,78.0786543,30.2788086
Uttar Pradesh,Meerut,S B Cold Storage,S B COLD STORAGE PHAPUDA HAPUD ROAD MEERUT,Shri Avran Singh,500,77.7265443,28.9378919
Uttar Pradesh,Meerut,S.P. Cold Storage,MAWANA,Ravi Rastogi,2200,77.9204938,29.0969563
Uttar Pradesh,Meerut,SWATI Cold STORES,GARH ROAD,SUCHI KUMAR GARG,6250,77.8934812,28.885313
Uttar Pradesh,Meerut,Same,KHARKHUDA,Yogeshkumar Tyagi,8800,77.7398211,28.8382736
Uttar Pradesh,Meerut,Same,AMBE COLD STORAGE GARH ROAD BHATIPURA,Abhishak Sharma,8800,77.7703829,28.9433145
Uttar Pradesh,Meerut,Swati Cold Storage,VILL.BHATIPURA.CHOPLA MEGHRAJPUR,Sanjay Sharma,6000,77.8374429,28.8998401
Uttar Pradesh,Meerut,V.P. Cold Storage,ROAD ROAD MAWANA,Deepak,2475,77.9204938,29.0969563
Uttar Pradesh,Meerut,Viswambhar Sahay Cold Storage & Ice Factory,FALAUDA ROAD MAWANA MEERUT,Aryandra Prakash,16,77.9129573,29.1076934
Uttar Pradesh,Muzaffarnagar,Gram Vikash Sheetgarh.M.J.N.,JANSATH ROAD MUZAFFARNAGAR,Shiv Kumar,12000,77.7176431,29.4568853
Uttar Pradesh,Muzaffarnagar,H.M. Cold Storage,BHOPA ROAD,Subhash Chand,10000,77.7901623,29.4691524
Uttar Pradesh,Muzaffarnagar,Jansath Cold Storage,MIRAPUR ROAD NEAR POWER HOUSE,Ajit,2250,82.2075602,26.8032961
Uttar Pradesh,Muzaffarnagar,Khatauli Cold Storage,BHUDHANA ROAD,Sudhir Chndr Goyal,3040,77.7430859,28.8399064
Uttar Pradesh,Muzaffarnagar,M.G. Cold Storage,KUKRA ROAD,Shahzad,8775,77.7315533,29.4701838
Uttar Pradesh,Muzaffarnagar,Taneja Cold Storage Pvt Lmt,KHATAULI ROAD,Shyam Lal Taneja,7500,77.9114704,29.1083741
Uttar Pradesh,Muzaffarnagar,Tyagi Cold Storage,BUDHANA BYE PASS,Jitendr Tyagi,2000,77.4704485,29.280557
Uttar Pradesh,Pilibhit,Garg Rice Miles & Cold Storage,BANDA ROAD RAMPURA PURANPUR PILIBHIT,Laxmi Narayan,3250,80.1455575,28.5110343
Uttar Pradesh,Pilibhit,M/S SUKHBIR AGRO ENERGY LTD,BALPUR PATTI THE & DISTRICT PILIBHIT,M/S SUKHBIR,283213,80.0087746,28.5834896
Uttar Pradesh,Pilibhit,M/S SUKHBIR AGRO ENERGY LTD,BALPUR PATTI THE & DISTRICT PILIBHIT,M/S SUKHBIR,262983,80.0087746,28.5834896
Uttar Pradesh,Pilibhit,M/S UNIVERSAL INFRA PVT LTD,AT VILLAGE BALPUR PATTI TEHSIL AND DISTT PILIBHIT,M/S UNIVERSAL,288661,79.8075272,28.62494
Uttar Pradesh,Pilibhit,M/S UNIVERSAL INFRA PVT LTD,AT VILLAGE BALPUR PATTI TEHSIL AND DISTRICT PILIBHIT,M/S UNIVERSAL,268042,80.0087746,28.5834896
Uttar Pradesh,Pilibhit,RADHARANI AGRAWAL II,VILL BARHA MADHUBAN COMPOUND PIPRA ROAD DISTT PILIBHIT,RADHARANI AGRAWAL,32676,79.8091984,28.6225569
Uttar Pradesh,Pilibhit,SMT RADHA RANI AGARAWAL,VILLAGE BARAHA TEHSEAL & DISTRICT PILIBHIT UP,SMT RADHA RANI AGARAWAL,21929,80.0087746,28.5834896
Uttar Pradesh,Pilibhit,UP COOPERATIVE FED LTD PILIBHIT,PILIBHIT,UP COOPERATIVE FED LTD PILIBHIT,7532,79.8075272,28.62494
Uttar Pradesh,Pratapgarh,Avadh Cold Storage Ice Plant,NARSHEING JOGAPUR PRATAPGARH,Keshaw Kumar Singh,75,81.99209610000001,25.9029694
Uttar Pradesh,Pratapgarh,Lallan Cold Storage & Ice Factory,PUREBASHAWAN PRATAPGARH,Shri Chaturen Pratap Singh,5000,81.9452981,25.8973038
Uttar Pradesh,Pratapgarh,PRATAP Cold STORES & ICE FACTORY,SONAVA CHILVILA PRATAPGARH,RAKESH KUMAR VISHVKARMA,8000,82.00710509999999,25.9478579
Uttar Pradesh,Pratapgarh,PRATAP GARH Cold STORES & ICR FACTORI,3/1 CHIVILA RANJITPUR PRATAPGARH,ATUL KUMAR AGARWAL,4000,81.9452981,25.8973038
Uttar Pradesh,Pratapgarh,Rooma Cold Storage & Ice Factory,BHUWALPUR KATRA PRATAPGARH,Jai Prakash Singh,6215.3,81.8852582,25.8880806
Uttar Pradesh,Pratapgarh,Shahi Cold Storage & Ice Factory,SONEY MADHAWGANJ CHIBILA,Mo Akhatar Khan,8800,80.1484407,27.1147181
Uttar Pradesh,Rae Bareli,JANMO Cold STORE PVT MADARIGANJ UCHAHAR RAIBAREALI,JAMO COLD STORE PVT NEAR (ALLAHABAD TO LUCKNOW ROA,RAJENDER KUMAR MISRA,5000,80.94616599999999,26.8466937
Uttar Pradesh,Rae Bareli,Kachawa Cold,"CHAMAI CHARAHA, ETORA-BUJURG BABUGANJ",Surendr,5000,90.3245891,22.8172374
Uttar Pradesh,Rae Bareli,Kanta Nath Cold Storage,DEVI KA PURWA FATEHGANJ,Surendra Kumar Shukla,6000,80.771321,26.4566318
Uttar Pradesh,Rae Bareli,Khwaja Cold storage,KHWAJA COLD STROGE AUNS SADRA SALON RAEBAR,Avadhesh Singh,14300,81.2518833,26.2469178
Uttar Pradesh,Rae Bareli,Laxshim Cold Storage,LAXSHMI COLD STORAGE FHATEPUR ROAD LALGANG,Mahipal Singh Mahipal Singh,9713.9,80.9705292,26.1650564
Uttar Pradesh,Rae Bareli,MS S M Cold Storage Ice Factory,Bewali Paraga Salon Tehsil Salon District CSM Nagar,Shri Moinuddin Idrisi,5788,81.64734399999999,26.3173951
Uttar Pradesh,Rae Bareli,Pa Pratap Cold Ztoragr,PRATAP COLD STORGE VILLAG BAGHA POST MATKA DISTIC,Shri Shiv Murti Singh,17640,84.0722375,27.1221959
Uttar Pradesh,Rae Bareli,Risan Cold Storej And Alize Industries,KISAN COLD STORE BANIYA KA PURVA SALON RAIBAREALY,Ram Sankar Sukla,13300,81.4774285,26.0191625
Uttar Pradesh,Rae Bareli,Salon Cold Storage,SALON COLD STORAGE BANIY KA PURWA SALON RAIBARELI,Sri Ram Singh,8200,81.455364,26.0305661
Uttar Pradesh,Rae Bareli,Savitri Sheet Grah,SAVITRI SHEET GRAH PVT LTD DEEH RAEBRELLY,Dinesh Kumar Singh,5000,81.4100403,26.1436698
Uttar Pradesh,Rae Bareli,Shyam Cold Store,SHYAM COLD STORE BANIYA KA PURVA SALON RAIBAREALI,RAM PRATAP RAVAT,9000,81.455364,26.0305661
Uttar Pradesh,Rae Bareli,Shyam Raj Cold Storage And Ice Factory,INDSTRIYAL AREA BACHHRAWA,Bhri Bhushan Yadav,9525,81.112712,26.471033
Uttar Pradesh,Rampur,Janta Cold Storsge & Ice Fsctory,ROSHANBAGH,Ramkishan Khandelwal,2968.3,81.82414399999999,25.4383857
Uttar Pradesh,Rampur,Rafat Ice & Cold Storage,NAWABGATE,M.H.Yakub,3600,79.01401179999999,28.8033901
Uttar Pradesh,Saharanpur,ICD-SAHARANPUR,"Inland Container Depot, Janta Road, Saharanpur-247001",P.K. Sinha,4266,77.53901270000001,29.9109993
Uttar Pradesh,Sambhal,POTATO,M/S UBAIS COLD STORAGE AND GENRAL MILLS ADAMPUR ROAD SAMBHAL,MOHD JUBAIR,9554.64,78.3815041,28.591805
Uttar Pradesh,Sambhal,POTATO,M/S SHANKER COLD STORAGE AND ICE FACTORY SAMBHAL,AMARNATH SINGHAL,10081.5,78.5717631,28.5903614
Uttar Pradesh,Sambhal,POTATO,M/S BILAL COLD STORAGE AND GENRAL STORAGE JOYA ROAD SAMBHAL,IRFAN HUSAIN,7987.37,78.5715111,28.5838085
Uttar Pradesh,Sambhal,Patato,M/S Ajeeb Cold Storage And Ice Factory Turtipur Ila Sambhal,Mohd Irfan,6623.43,78.5717631,28.5903614
Uttar Pradesh,Sambhal,Patato,M/S Roshan Cold Storage Vill.Kurkawli Sambhal,Ajaypal Tyagi,10957.6,78.5068531,28.6196069
Uttar Pradesh,Sambhal,Patato,M/S Roshan Cold Storage Vill.Kurkawli Sambhal,Ajaypal Tyagi,10957.6,78.5068531,28.6196069
Uttar Pradesh,Sambhal,Patato,M/S Shiva Cold Storage And General Mills Chandausi Road Sambhal,Ravi Prakesh,7570.15,78.5754891,28.5829434
Uttar Pradesh,Sambhal,Potato,M/S Ram Cold Dtorage Near Roadways Sambhal,Radha Krishna Manglam,5464.34,78.5717631,28.5903614
Uttar Pradesh,Sambhal,Potato,M/S Kothiwal Cold Storage Sarai Tareen Sambhal,Rajeev Kothiwal,5730.17,78.5632461,28.5522223
Uttar Pradesh,Sambhal,Potato,J.K.Cold Storage Moradabad Road Sambhalr,Lalit Kumar,11763.9,78.5816935,28.5905234
Uttar Pradesh,Sambhal,Potato,M/S Alhuda Cold Storage And Genral Mills Sambhal,Parvezkhan,9943.75,78.5717631,28.5903614
Uttar Pradesh,Sambhal,Potato,M/S Krishna Cold Storage And Alied Factory Vill.Khirni Adampur Road Sambhal,Rakesh Kumar,5721.24,78.3815041,28.591805
Uttar Pradesh,Sambhal,Potato,M/S Shahu Khan Chand Cold Storage And Ice Factory Bisoli Road Chandausi,Rakesh Chandra Gupta,11457.7,78.7849815,28.4558235
Uttar Pradesh,Sambhal,Potato,M/S Balaji Cold Storage Bisoli Road Chandausi,Himandhu Varshnay,9214.76,78.7849815,28.4558235
Uttar Pradesh,Sambhal,Potato,M/S SS Cold Storage And Ice Factory Vill.Bholabai Chandausi,Narayan Varshnay,4000.07,78.7849815,28.4558235
Uttar Pradesh,Sambhal,Potato,M/S Daulat Cold Storage And Alied Industry Vill.Yusufpur Behjoi,Ravindra Kumar,5864.46,78.6171753,28.3868609
Uttar Pradesh,Sambhal,Potato,M/S Janta Cold Storage And Ice Factory Kamal Sarai Adampur Road Sambhal,Mohd Yusuf Khan,5966.46,75.71390099999999,31.4329486
Uttar Pradesh,Sambhal,Potato,M/S Krishna Cold Storage Seeta Road Chandausi,Jai Kishan,2531.84,78.7893742,28.4420052
Uttar Pradesh,Sambhal,Potato,M/S Jeevan Ram Cold Storage And General Mills Behjoi Road Chandausi,Amit Kumar,3663.15,78.7849815,28.4558235
Uttar Pradesh,Sambhal,Potato,M/S Tahir Husain Cold Storage And Ice Factory Hasanpur Road Sambhal,Mohd Qasim,8029.18,78.5717631,28.5903614
Uttar Pradesh,Sambhal,Potato,M/S Ganesh Ice Factory And Cold Storage Moradabad Road Chandausi,Rajeev Gupta,3805.77,78.7849815,28.4558235
Uttar Pradesh,Sambhal,Potato,M/S Bajrang Bali Cold Storage And Agro Food Product Behjoi Road Chandausi,Mahendra Singh,4065.98,78.7849815,28.4558235
Uttar Pradesh,Sambhal,Potato,M/S Vinod Cold Storage And Ice Factory Moradabad Road Chandausi,Vinod Kumat Agrwal,8435.63,78.7849815,28.4558235
Uttar Pradesh,Sambhal,Potato,M/S Gayatri Cold Storage And Ice Factory Bisoli Road Chandausi,OM Prakesh Gupta,5962.43,78.7849815,28.4558235
Uttar Pradesh,Sambhal,Potato,M/S Noori Cold Storage Sarai Tareen Sambhal,Mohd Ashraf,7305.21,78.5632461,28.5522223
Uttar Pradesh,Sambhal,Potato,M/S OM Cold Storage And General Mills Sarai Tareen Sambhal,Satendra Arya,3652.6,78.5632461,28.5522223
Uttar Pradesh,Sambhal,Potato,M/S Deen Dayal Cold Storage And Alied Industry Behjoi Road Sambhal,Trivedi Prakash,5398.51,78.5815993,28.4762552
Uttar Pradesh,Sambhal,Potato,M/S UPTOWN Trading And Investment Company Limited Moradabad Road Sambhal,Abdulla Ubaid,10757.2,78.5491776,28.7638259
Uttar Pradesh,Sambhal,Potato,M/S Tareen Cold Storage And General Mills Sarai Tareen Sambhal,Mohd Shafeeq Khan,8173.81,78.5632461,28.5522223
Uttar Pradesh,Sambhal,Potato,M/S Devika Cold Storage And General Mills Sarai Tareen Sambhal,Virendra Kumar Arya,6041.28,78.5632461,28.5522223
Uttar Pradesh,Sambhal,Potato,M/S Qureshi Cold Storage And General Mills Sarai Tareen Sambhal,Mohd Ahsaan,5012.6,78.5632461,28.5522223
Uttar Pradesh,Sambhal,Potato,M/S Turky Cold Storage And General Mills Vill.Farrakhpur Moradabad Road Sambhal,Mohd Arif,8386.21,78.7733286,28.8386481
Uttar Pradesh,Sambhal,Potatot,R K Arya Cold Storage Sarai Tareen Sambhal,Ram Kehar Arya,5464.34,78.5632461,28.5522223
Uttar Pradesh,Shahjahanpur,Himalay Cold Storaje,MIRANPUR KATRA,Mokesh Kumar Gopta,4000,79.6754694,28.0352889
Uttar Pradesh,Shahjahanpur,Hind Cold Storage,MISHRIPUR SADAR SHAHJAHANPUR,Mr.S. M. Shan,2900,79.91372360000001,27.8827709
Uttar Pradesh,Shahjahanpur,Krishna Cold Storage,ATSALIYA ROSA SHAHJAHANPUR,Mr. Rakesh Chandra Seth,3600,79.9570411,27.863597
Uttar Pradesh,Shahjahanpur,Misharipur Cold Storaje,MISHARIPUR SHAHJAHAPUR,Sandip Agarwal,1920,79.9178709,27.8433315
Uttar Pradesh,Shahjahanpur,Parbhu Dayal Cold Storeja,BAS PASS ROOD TILAHAR,Parksh Garg,3200,83.7461424,28.2664959
Uttar Pradesh,Shahjahanpur,R.K. Cold Storage,MISHRIPUR SHAHJANPUR,Mr. Mahesh,665.1,79.9178709,27.8433315
Uttar Pradesh,Shahjahanpur,Seth Cold Storage,ATSALIYA F. C.I,Mr. Satish Seth,2800,80.5688428,27.1407883
Uttar Pradesh,Shahjahanpur,Shan Cold Storage,MIRANPUR KATRA SHANJAHANPUR,Faheem Usshan Khan,4115.7,79.6754694,28.0352889
Uttar Pradesh,Shahjahanpur,Shital Parsad Cold Stoarage,SHEETAL PAESAD JANDHERA ROAD. NEAR MEADICAL COLLAG,Parmodkumar Goal,5000,77.49170649999999,29.8595199
Uttar Pradesh,Shahjahanpur,Sri Chotelal Cold Storage,ROSA SADAR SHAHJAHANPUR,Mr. Vijay Kumar Agrawal,7464,79.8296743,27.8295801
Uttar Pradesh,Shahjahanpur,Tammir Khan Cold Storage & IceFactory,SAHAR KHAS SOUTH BAHAR CHUNGI BHAWAL KHERA SADAR S,Ali Husain Khan,2400,79.9838939,27.895327
Uttar Pradesh,Sitapur,Sahgal Cold Storage,BISWA SITAPUR,Shyam Sundar Yadav,7200,80.6789519,27.5680156
Uttar Pradesh,Sitapur,Shri Kuber Hi Cold Storage Pl,ATRUOLI MAHMUDABAD SITAPUR,Satesh Kumar,4488.9,81.1120196,27.3206837
Uttar Pradesh,Unnao,Ahuja Cold Store,KORARI KALAN,Jai Ahuja,9100,80.52717559999999,26.4873529
Uttar Pradesh,Unnao,Awdhut Cold Store,ACHALGANJ,Satendra Bahadur Singh,59,80.5445395,26.4410234
Uttar Pradesh,Unnao,Chandra Lok Sheetalya,CHNDRA LOK SHEETALAYA JAKTA PUR GANJMURADABAD UNNA,Shri Kuldeep,150,80.18140369999999,26.965406
Uttar Pradesh,Unnao,Jaiswal Cold Store,AJGAIN,Vineet Jaiswal,1691,80.62575389999999,26.6151275
Uttar Pradesh,Unnao,Jaiswal Ice & Cold Storage Aajgain Unnao,JAISWAL IE AND COLD STORAGAGE AAJGAIN UNNAO,Sjri Pardeep Jaiswal,1691.4,80.62575389999999,26.6151275
Uttar Pradesh,Unnao,Maya Sheetalaya Pvt. Ltd.,VILL.SAIDANI PO. BANGARMAU,Anil Agnihotri,10000,80.2126756,26.8917079
Uttar Pradesh,Unnao,Munna Kashmiri Cold Storage,RAJA KHEDA PURWA UNNAO,Sarvesh,50,81.0204818,26.487302
Uttar Pradesh,Unnao,Murli Pattato Priprajrqtion,KANPUR ROAD NAWABGANJ,Atul Kumar Gupta,4784,80.6717744,26.6199753
Uttar Pradesh,Unnao,R.K.J. Cold Storage Ice Factory,SAFIPUR,Yuv Raj Singh,7000,80.3463754,26.7350049
Uttar Pradesh,Unnao,Shanti Mohan Sons & Cold Storage Bangar Mau Unnao,BANGAR MAU UNNAO,Shri Vimlais Kumar,120,80.2126756,26.8917079
Uttar Pradesh,Unnao,Shyam Shitgrah Pvt.Ltd.,AKRAMPUR,Virendra Kumar Jaiswal,4500,80.44464719999999,26.5214494
Uttarakhand,Haridwar,DK/CS,"HAYDIL ROAD, RAM NAGAR",Mulakh Raj,1500,79.1264997,29.3947643
Uttarakhand,Haridwar,M.J. Cold Storage,MATLAB PUR ROORKEE,Sampuran Singh,6400,77.864598,29.8854456
West Bengal,Bankura,Arghama Cold Storage (P) Ltd.,MEMARI.,Avijit Mukharjee,16000,88.10338829999999,23.1745495
West Bengal,Bankura,Bijoynarayan Cold Storage P Ltd,NARAYANPUR,Durgapada Chottopadhaya,10557,81.2471973,19.7195568
West Bengal,Bankura,Bireshwer Cold Storage Pvt Ltd,ILL-PO-PS PATRASAYER,Debasish Jana,4921,87.561127,23.22154
West Bengal,Bankura,G M Cold Storage Pvt Ltd,SARDARPUR BALIGURI,Dinobandhu Gorai,15230,74.9778633,22.6609112
West Bengal,Bankura,Gobindo Cold Storage Pvt. Ltd,KHARALAGHAT JAMALPUR BURDWAN,Tarapada Gosami,14017,87.9875432,23.06838
West Bengal,Bankura,Jagadiswar Cold Storage Pvt Ltd,PURSURA,Sasankasakher Dutta,23100,87.9622352,22.8356675
West Bengal,Bankura,Joy Krishna Himghar,DAKSHIN BAZAR CHANDRAKONA TOWN,Promotha/Brahamananda,14374,87.5127313,22.7253138
West Bengal,Bankura,Joyguru Cold Storage,VILL. PO. DAKSHIN RASUL PUR,Dhanopati Nandi,11800,88.0301946,23.1840099
West Bengal,Bankura,Karunamoyee Himghar P Ltd,AMLAGORA GARBETA,Santi Kanan Paramanik,14374,87.3350311,22.8471007
West Bengal,Bankura,Kundu Cold storage Pltd,VILL. NUDIPUR. P.O. CHOTKHANDA. MEMARI,Swapan Singh,14650,88.1127257,23.1605605
West Bengal,Bankura,Mangoldeep Cold storaGe P Ltd,"NOKARI,RANAGHAT",Amit Kr Ghosh,14000,88.5605732,23.1744548
West Bengal,Bankura,Mondal Cold Storage,"CHAKDIHI,JAMALPUR",Santimoy Mondal,30243,89.94804200000002,24.9270097
West Bengal,Bankura,Mondal Ice & Cold Storage P Ltd,"MOYNAPUR,JOYPUR",Partha Mondal,36000,87.44801149999999,23.0551658
West Bengal,Bankura,Muktakeshi Cold Storage P Ltd,"JEWDHERA, KALNA, BURDWAN",Tushar Mukherjee,21000,87.8614793,23.2324214
West Bengal,Bankura,Nirvin Cold Storage P Ltd,VILL BARAMARA PO PEARDOBA,Sunil Agarwal,19465,87.3289427,22.952018
West Bengal,Bankura,PRASENJIT Cold Storage PVT LTD,VILL. P.O. PASCHIMPARA. GOGHAT,TAPAN KR DEY,21221,87.70494529999999,22.8864233
West Bengal,Bankura,Patrasayer Thana Co -Oparetive Marketing Socity Lt,NIRSAD BAG PO GOPINATHPUR PS LALBAG,Gurudas Kundu,4024,72.83825470000001,18.9908177
West Bengal,Bankura,Prasanjit Cold Storage Pvt Ltd,SONAMUKHI,Pk Upadhaya,23180,87.4157938,23.3075757
West Bengal,Bankura,Radharani Himgar Pvt.Ltd,"AJHA PUR,JAMAL PUR",Biswjit Das,17500,89.78532179999999,25.0830926
West Bengal,Bankura,S. M. Cold Storage PVT LTD,VII MADHABGANJ PO LEGO PS KOTOLPUR,KRISHNA DULAL MONDAL,17000,87.5268986,22.9897016
West Bengal,Bankura,Santima Cold Storage Pvt Ltd,SADHANPUR AMDANGA (N)24PARAGANAS,Ashim Kr Saha,24000,88.506967,22.8021101
West Bengal,Bankura,Shri Shri Ma Cold Storage P Ltd,VILL.HARUA.PO-HALDIGURI.PS-TARAKESHWAR,Pradip Das,5100,88.01429399999999,22.8786554
West Bengal,Birbhum,BABA BISWAKARMA MULTIPURPOSE Cold Storage PVT LTD,VILL. DASGHORA. P.O KAMARPUKUR,RAMKRISNA GHOSH,10000,87.6556468,22.8976163
West Bengal,Birbhum,Bokaria Ice & Cold Storage P Ltd,"MUKTAR PUR,TARAKESWAR",Pushpal Chatterjee,4210,88.01429399999999,22.8786554
West Bengal,Birbhum,Chhajer Cold Storage,VILL&P.O. BAGDOLA.P.S.SANTHIA.DIST.BIRBHUM,Manab Mukhapadhya,150,87.6396133,23.9697859
West Bengal,Birbhum,Dutta Cold Storage,VILL. SAOTA. P.O BHURAH,Joyanta Chatterjee,8380,18.4160835,-33.9313423
West Bengal,Birbhum,M/S Dutta Bros. Cold Storage,BERELA KONCHMARI PANDUA HOOGHLY,Shapon Kr. Dutta,3453,88.1736249,23.1152593
West Bengal,Birbhum,Maruti Industries Cold Stores,VILL. CHANDPUR. P.O. DASPUR,Sunil Maskara,1000,90.6547361,23.2250228
West Bengal,Birbhum,Nalhati 1.CADPF.SCS.LTD.,VILL. INDRADANGA.P.OTEJHATI.P.S.NALHATI,Subtra Ghosh,10000,87.8466252,24.2707009
West Bengal,Birbhum,Nalhati-1 C A D P F S C S Co-Op Ltd.,VILL. KHARIBARI.,Chitta Mondal,60,88.19162010000001,26.5539653
West Bengal,Birbhum,Satpalsa Ice Cold Storage,NAYAPARA MOHITNAGAR JALPAIGURI,Ajit Barmon,17384,88.6870794,26.5236889
West Bengal,Birbhum,Sharda Ice Manufactring And Refrigeration Corp,VILL -PO -BALIGORI 'PS TARAKESWAR,Biswajit Chatterjee,5500,88.01429399999999,22.8786554
West Bengal,Birbhum,UTTAR AJAY KRISHAK SAMABAYA HIMGHAR LTD,VILL. P.O SAMANTAKHANDA,ASOHARI GHOSH,3000,87.650714,22.9808986
West Bengal,Darjeeling,HINDUSTAN EGGS PVT LTD,BORAGORI BOINCH PANDUA HOOGHLY,Sanat Rana,1200,88.1620708,23.1320135
West Bengal,Darjeeling,KHORIBARI Cold Storage PVT LTD,VII DOHALIA PO-PS KANDI,Jogesh Sinha,16077,88.03508590000001,23.9485773
West Bengal,Hooghly,Gangadhar Cold Storage Pvt Ltd,Chhotkhanda Distt Hooghly,Shri Kanai Lal Ghosh,6600,88.3898552,22.9011588
West Bengal,Hooghly,Sparkle Multipurpose Cold Storage Pvt Ltd,Vill Kanthalia Post Sultangachcha Distt Hooghly,Shri Lalit Sur,3800,88.24611829999999,22.896256
West Bengal,Hooghly,Tarama Multipurpose Cold Storage,Gobindapur Danrpur Dadpur Distt Hooghly,Shri Srimanta Patra,3500,88.19924209999999,22.9188127
West Bengal,Howrah,MS Virtuoso Agro Pvt Ltd,Mouze Vill Islampur Post Office Islampur Police Staton Jagatballbhpur District Howrah W B,Shri Rishabh Agarwal,7000,88.0570368,22.5747761
West Bengal,Howrah,Mahamaya Cold Storage,"MATUK PUR,PANDUA",Rajendra Nath Roy,2400,88.2788636,23.0780652
West Bengal,Howrah,Pratap Cold Storage Pvt Ltd,UDAYRAJPUR. MEGHDUTH BUS STOP. MADHYMGRAM,Asit Das,3508,88.4705736,22.7018449
West Bengal,Howrah,S.M.S. Cold Storage Ltd,VILL. P.O. SAMUDRAGARH.,Alauddin Mallick,6500,88.3227935,23.3371849
West Bengal,Howrah,Sinha Cold Storage & Warehouse Co P Ltd,"KUCHIYAKOL,MOINAPUR",Dinesh Ghosh,12420,87.4925837,23.0082534
West Bengal,Howrah,Udaynarayanpur Co Oparative Cold Storage Ltd,"KANNA,MEMARI",Alay Kr Ghosh,4000,88.10338829999999,23.1745495
West Bengal,Jalpaiguri,Bondhu Cold Storage Pltd,VILL. P.O ADAMPUR,Prabhankar Dey,9600,75.71390099999999,31.4329486
West Bengal,Jalpaiguri,D G Cold Storage Pvt Ltd,BOINCHEE PS PANDUA HOOGHLY,Kousik Hans,20500,88.1925508,23.1211739
West Bengal,Jalpaiguri,J. K. MULTIPURPOSE Cold Storage PVT LTD,BOKJOLE PO NALIKUL,Jayanta Singh,350,88.16614009999999,22.8282811
West Bengal,Jalpaiguri,Shree Hazarilal Cold Storage Pvt Ltd,VILL CHATRA PO DARAPUR PS KOTALPUR,Arun Kedia,14000,84.8718433,24.206475
West Bengal,Jalpaiguri,Uttarayan Coldstrage Pvt Ltd,JARKA/BAITAL/JAIPUR/BANKURA,Saheb Mukherjee,12250,87.4396909,23.049561
West Bengal,Kolkata,CFS-KOLKATA,"18, Coal Dock Road Kolkata - 700 043",V. Mishra,36355,88.3099472,22.5357097
West Bengal,Kolkata,IMPORT-EXPORT KOLKATA,"Opp.Netaji Subhas Dock Gate No 4.Circular Garden Reach Road,Kolkata-700 043",M.K.Sinha,43902,88.3628734,22.5743545
West Bengal,Kolkata,KANTAPUKUR,"C/O,CPT Complex(Gamma Shed)P.O.Kantapukur,Kolkata-700 023",N.Halder,25151,88.3628734,22.5743545
West Bengal,Kolkata,MAJERHAT,15-B -Goragacha Road Majerhat Poddar Godown Kolkata-700 053,A.K.Roy,2600,88.31819089999999,22.5169019
West Bengal,Kolkata,NIMAK MAHAL ROAD,"1, Nimak Mahal Road, Road Kolkata- 700 043",S.K.Poddar,1520,88.3628734,22.5743545
West Bengal,Kolkata,STRAND BANK ROAD,"P-58, S.B.Road, Road Kolkata - 700 006",Sankar Ghosal,6092,88.36875479999999,22.5890726
West Bengal,Kolkata,TARATALLA ROAD,"2, Taratala Road , Kolkata- 700 088",A.K.Roy,4183,88.3007478,22.5171989
West Bengal,Murshidabad,Afrika Cold Storage,HORIPAL ST.,Ramen Das,10333,88.1047287,22.8172172
West Bengal,Murshidabad,Saptorshi Himghar & Multipurpose (Pvt)Ltd,33 CANALEAST ROAD,Niloy Debnath,3000,88.379138,22.580134
